{"type":"FeatureCollection","features":[{"type":"Feature","properties":{"name":"Cape Winelands"},"geometry":{"type":"Polygon","coordinates":[[[20.4386,-32.9401],[20.38,-32.9019],[20.3639,-32.9108],[20.3639,-32.8859],[20.3572,-32.8641],[20.3417,-32.8578],[20.2999,-32.805],[20.2573,-32.7997],[20.219,-32.7847],[20.1876,-32.7527],[20.1917,-32.6858],[20.1814,-32.6681],[20.1412,-32.6437],[20.1369,-32.611],[20.1147,-32.5702],[20.1228,-32.557],[20.0968,-32.503],[20.0964,-32.4767],[20.0797,-32.3975],[20.132,-32.4211],[20.1705,-32.3809],[20.1635,-32.351],[20.216,-32.3032],[20.2542,-32.3108],[20.2408,-32.2242],[20.1664,-32.2275],[20.1809,-32.1845],[20.1518,-32.1865],[20.1359,-32.1923],[20.1157,-32.211],[20.1093,-32.2301],[20.097,-32.2502],[20.085,-32.2483],[20.0536,-32.2523],[20.0386,-32.2964],[20.0044,-32.3299],[19.9682,-32.3505],[19.9375,-32.3773],[19.8739,-32.3832],[19.8495,-32.3662],[19.8178,-32.3607],[19.8027,-32.3937],[19.7641,-32.4111],[19.7366,-32.3855],[19.7313,-32.4101],[19.7074,-32.4203],[19.7302,-32.4424],[19.6797,-32.4635],[19.6681,-32.4548],[19.6549,-32.4388],[19.6219,-32.4706],[19.6265,-32.502],[19.6071,-32.5454],[19.612,-32.5665],[19.6049,-32.6295],[19.5872,-32.6478],[19.5282,-32.6732],[19.4992,-32.6121],[19.4868,-32.5654],[19.485,-32.58],[19.4756,-32.5969],[19.4608,-32.6076],[19.4522,-32.6078],[19.4533,-32.6257],[19.4413,-32.6381],[19.4379,-32.6259],[19.419,-32.6223],[19.3961,-32.6067],[19.3712,-32.6089],[19.3569,-32.6164],[19.3412,-32.5831],[19.3201,-32.5746],[19.2812,-32.5814],[19.2647,-32.5887],[19.2231,-32.5747],[19.2026,-32.5776],[19.1592,-32.5719],[19.1486,-32.5857],[19.1564,-32.6043],[19.1376,-32.6046],[19.143,-32.6214],[19.2048,-32.7111],[19.2086,-32.731],[19.1718,-32.7368],[19.1706,-32.7958],[19.1844,-32.8271],[19.1861,-32.8682],[19.1537,-32.984],[19.1655,-33.0354],[19.1774,-33.06],[19.173,-33.0919],[19.1462,-33.1061],[19.0896,-33.1141],[19.051,-33.142],[19.0198,-33.1417],[18.9801,-33.1521],[18.956,-33.1674],[18.9565,-33.1881],[18.932,-33.2009],[18.9333,-33.2033],[18.9471,-33.2024],[18.9481,-33.2051],[18.9435,-33.2086],[18.9571,-33.2218],[18.9564,-33.2336],[18.9474,-33.2395],[18.9507,-33.2475],[18.9457,-33.253],[18.9547,-33.2598],[18.9509,-33.2655],[18.9648,-33.2681],[18.9664,-33.2742],[18.9754,-33.2789],[18.9731,-33.2879],[18.9808,-33.292],[18.9796,-33.2969],[18.9897,-33.2995],[18.9885,-33.3053],[18.9974,-33.3079],[18.9962,-33.3135],[18.984,-33.3131],[18.9784,-33.3189],[18.9803,-33.3285],[18.9899,-33.3316],[18.9792,-33.3417],[18.9928,-33.3537],[18.9858,-33.3618],[18.9939,-33.3659],[18.9847,-33.3784],[18.993,-33.3821],[18.9887,-33.3889],[18.9924,-33.3944],[18.9783,-33.3993],[18.9824,-33.407],[18.9772,-33.4075],[18.9674,-33.4213],[18.97,-33.4299],[18.9583,-33.4279],[18.9553,-33.4302],[18.9596,-33.4426],[18.9492,-33.4521],[18.9486,-33.4565],[18.9542,-33.4619],[18.9398,-33.4664],[18.938,-33.4701],[18.9341,-33.4922],[18.9398,-33.4994],[18.9362,-33.5067],[18.9399,-33.5214],[18.9314,-33.5249],[18.9381,-33.546],[18.9135,-33.5514],[18.8997,-33.5511],[18.8928,-33.5715],[18.8623,-33.5754],[18.8559,-33.5692],[18.8393,-33.5776],[18.8419,-33.5887],[18.8383,-33.5897],[18.8363,-33.6044],[18.8182,-33.5952],[18.7875,-33.6376],[18.8219,-33.6418],[18.8021,-33.6737],[18.7937,-33.6794],[18.7946,-33.7068],[18.8027,-33.7052],[18.8062,-33.7102],[18.8092,-33.709],[18.8102,-33.7137],[18.8134,-33.7131],[18.8132,-33.7064],[18.822,-33.7083],[18.8182,-33.7223],[18.833,-33.7382],[18.8095,-33.7408],[18.811,-33.7588],[18.7877,-33.7667],[18.8098,-33.7813],[18.7962,-33.7982],[18.7844,-33.8038],[18.7877,-33.8155],[18.7921,-33.8195],[18.7678,-33.8262],[18.7684,-33.8327],[18.7529,-33.8344],[18.7531,-33.85],[18.7458,-33.8603],[18.7457,-33.874],[18.7529,-33.8845],[18.7514,-33.8935],[18.7459,-33.8874],[18.7371,-33.8935],[18.7356,-33.891],[18.7173,-33.8985],[18.7193,-33.9035],[18.7172,-33.9056],[18.7153,-33.9036],[18.7083,-33.9227],[18.7274,-33.9247],[18.7396,-33.9328],[18.744,-33.9322],[18.7369,-33.9406],[18.7308,-33.9628],[18.7335,-33.9659],[18.7283,-33.9693],[18.7454,-33.9874],[18.7377,-33.9893],[18.7518,-34.0053],[18.7459,-34.0064],[18.7474,-34.0104],[18.742,-34.0135],[18.7448,-34.0193],[18.7421,-34.0213],[18.7548,-34.0347],[18.759,-34.0333],[18.7677,-34.0404],[18.7663,-34.0437],[18.7897,-34.0537],[18.806,-34.054],[18.8092,-34.0634],[18.8148,-34.052],[18.8052,-34.0512],[18.8189,-34.0397],[18.8418,-34.0471],[18.8619,-34.0383],[18.862,-34.0337],[18.8553,-34.0309],[18.8848,-34.0342],[18.8852,-34.0303],[18.8926,-34.0255],[18.8972,-34.0264],[18.9227,-34.0139],[18.9178,-34.0092],[18.9274,-33.9999],[18.9437,-34.0037],[18.9553,-34.0101],[18.9695,-34.0199],[18.9846,-34.0359],[18.9871,-34.0353],[19.0264,-34.0206],[19.0424,-34.0083],[19.1261,-33.9617],[19.1456,-33.956],[19.1646,-33.9714],[19.191,-33.9472],[19.2066,-33.9504],[19.2438,-33.8974],[19.2653,-33.9003],[19.2584,-33.8831],[19.2782,-33.8795],[19.2974,-33.8897],[19.3105,-33.9137],[19.3128,-33.935],[19.3189,-33.9472],[19.3251,-33.9521],[19.3359,-33.9582],[19.3486,-33.9552],[19.3618,-33.9715],[19.4005,-33.9855],[19.4558,-33.9999],[19.5069,-33.9717],[19.5333,-33.9695],[19.5662,-34.002],[19.5898,-34.0124],[19.6406,-34.0028],[19.6807,-34.0091],[19.7001,-34.0464],[19.7148,-34.049],[19.735,-34.0412],[19.7552,-34.0544],[19.8103,-34.0554],[19.8855,-34.0662],[19.9062,-34.0762],[19.9865,-34.0782],[19.9893,-34.0855],[20.0075,-34.0939],[20.0108,-34.0916],[20.0085,-34.0639],[20.0328,-34.0597],[20.0808,-34.0646],[20.1417,-34.0592],[20.1517,-34.0446],[20.1724,-34.0398],[20.1778,-34.0298],[20.1961,-34.04],[20.1925,-34.0462],[20.2003,-34.053],[20.2049,-34.0655],[20.2022,-34.0786],[20.1493,-34.0766],[20.1376,-34.0824],[20.1405,-34.0854],[20.1878,-34.0974],[20.1873,-34.102],[20.1974,-34.1005],[20.2031,-34.0884],[20.23,-34.0952],[20.2218,-34.1111],[20.2468,-34.1173],[20.2497,-34.1061],[20.2727,-34.1062],[20.2701,-34.0902],[20.2913,-34.0913],[20.3057,-34.0773],[20.2861,-34.0789],[20.2858,-34.065],[20.2989,-34.0603],[20.2945,-34.0504],[20.2865,-34.0511],[20.284,-34.0414],[20.2792,-34.0396],[20.2908,-34.0419],[20.3071,-34.0294],[20.3041,-34.0141],[20.3071,-34.0056],[20.3138,-34.0017],[20.3242,-34.0018],[20.3178,-33.9936],[20.328,-33.9731],[20.2969,-33.964],[20.2803,-33.9538],[20.2832,-33.9574],[20.2584,-33.9417],[20.2225,-33.9128],[20.2344,-33.8979],[20.3244,-33.9496],[20.436,-33.9577],[20.4602,-33.9063],[20.4695,-33.8957],[20.4699,-33.8897],[20.4683,-33.8803],[20.4607,-33.8764],[20.4425,-33.8579],[20.4418,-33.8371],[20.4353,-33.8264],[20.4415,-33.8198],[20.4266,-33.8109],[20.4437,-33.8101],[20.4502,-33.8068],[20.4682,-33.8134],[20.4684,-33.8183],[20.4805,-33.8228],[20.5145,-33.8026],[20.4479,-33.774],[20.4728,-33.7292],[20.4692,-33.682],[20.5039,-33.682],[20.5352,-33.6607],[20.5031,-33.637],[20.5743,-33.5388],[20.5771,-33.5281],[20.5494,-33.5287],[20.5476,-33.5195],[20.4782,-33.5278],[20.4756,-33.5134],[20.5017,-33.4985],[20.498,-33.4639],[20.3362,-33.4878],[20.3861,-33.4592],[20.4198,-33.453],[20.4275,-33.4489],[20.4167,-33.4355],[20.4081,-33.4343],[20.3898,-33.4241],[20.3356,-33.4256],[20.3489,-33.4049],[20.3456,-33.3943],[20.3537,-33.3941],[20.3663,-33.3816],[20.368,-33.3663],[20.2092,-33.3798],[20.2395,-33.3099],[20.2035,-33.3027],[20.2512,-33.2915],[20.2356,-33.2624],[20.2471,-33.2458],[20.244,-33.2365],[20.258,-33.1884],[20.2022,-33.1701],[20.2512,-33.1499],[20.3064,-33.1593],[20.3185,-33.1209],[20.2791,-33.0639],[20.3025,-33.068],[20.3343,-33.0358],[20.3838,-33.0363],[20.395,-32.9932],[20.4278,-32.9794],[20.4347,-32.9719],[20.4386,-32.9401]]]}},{"type":"Feature","properties":{"name":"Central Karoo"},"geometry":{"type":"Polygon","coordinates":[[[20.4782,-33.5278],[20.762,-33.4908],[20.9218,-33.4307],[20.9726,-33.4225],[21.0097,-33.4393],[21.0493,-33.4339],[21.1138,-33.4307],[21.1657,-33.415],[21.2064,-33.4217],[21.3677,-33.3982],[21.4331,-33.3942],[21.4885,-33.4093],[21.5218,-33.4144],[21.5533,-33.4105],[21.612,-33.3968],[21.68,-33.4048],[21.7079,-33.3964],[21.7472,-33.3971],[21.7926,-33.3899],[21.8272,-33.391],[21.9021,-33.365],[21.9629,-33.3662],[22.0058,-33.3555],[22.0509,-33.3515],[22.1453,-33.3354],[22.1822,-33.3217],[22.214,-33.315],[22.3913,-33.3641],[22.4647,-33.4045],[22.5157,-33.4097],[22.5818,-33.4047],[22.6643,-33.4157],[22.7145,-33.4149],[22.7744,-33.4197],[22.7845,-33.4155],[22.7357,-33.3948],[22.7393,-33.324],[22.7734,-33.3263],[22.7739,-33.309],[22.7903,-33.3073],[22.8402,-33.2202],[22.8772,-33.1869],[22.8923,-33.1416],[22.9553,-33.0731],[22.9578,-33.0451],[22.9341,-33.0217],[22.9352,-33.013],[22.9693,-32.9934],[22.9488,-32.95],[23.0037,-32.8983],[23.0074,-32.8728],[23.098,-32.8737],[23.1164,-32.858],[23.0894,-32.7992],[23.1493,-32.7667],[23.1875,-32.7674],[23.2011,-32.7854],[23.2504,-32.7886],[23.3052,-32.8095],[23.3786,-32.825],[23.3977,-32.7635],[23.3516,-32.7638],[23.3535,-32.7294],[23.3329,-32.7036],[23.2696,-32.6715],[23.3013,-32.6518],[23.3073,-32.6116],[23.2882,-32.5512],[23.2445,-32.5132],[23.2475,-32.4653],[23.2216,-32.425],[23.2721,-32.4007],[23.2872,-32.4042],[23.3073,-32.3959],[23.3331,-32.3511],[23.3493,-32.3644],[23.4099,-32.3892],[23.4247,-32.3562],[23.449,-32.3233],[23.5236,-32.3288],[23.5918,-32.3408],[23.6651,-32.3442],[23.6784,-32.3291],[23.6489,-32.298],[23.6705,-32.2377],[23.6924,-32.2335],[23.7082,-32.2192],[23.7471,-32.2007],[23.7662,-32.1787],[23.7979,-32.1941],[23.8511,-32.2425],[23.8645,-32.249],[23.8923,-32.2549],[23.921,-32.2334],[23.9352,-32.232],[23.9611,-32.2065],[23.9845,-32.1966],[24.0305,-32.1935],[24.0439,-32.1819],[24.038,-32.1581],[24.1001,-32.164],[24.1129,-32.1509],[24.1022,-32.1488],[24.1176,-32.1352],[24.1304,-32.132],[24.1355,-32.1231],[24.1354,-32.0979],[24.1097,-32.0843],[24.0979,-32.1108],[24.0979,-32.0852],[24.1029,-32.0699],[24.1044,-32.0676],[24.1126,-32.07],[24.1119,-32.0616],[24.1233,-32.0559],[24.1348,-32.0602],[24.1411,-32.0514],[24.1286,-32.0413],[24.1409,-32.0117],[24.1745,-32.0199],[24.1749,-32.0126],[24.1894,-32.0122],[24.1878,-32.0082],[24.1937,-32.0048],[24.183,-31.9959],[24.2224,-31.9556],[24.2054,-31.9417],[24.1998,-31.9426],[24.188,-31.9336],[24.1912,-31.9268],[24.1972,-31.9235],[24.1642,-31.9024],[24.1472,-31.8969],[24.1468,-31.9027],[24.1386,-31.9054],[24.1054,-31.9069],[24.1048,-31.8868],[24.1083,-31.8861],[24.1238,-31.8472],[24.1533,-31.8549],[24.1548,-31.8225],[24.1797,-31.8194],[24.1837,-31.8133],[24.1543,-31.7983],[24.1525,-31.7886],[24.1022,-31.7926],[24.0709,-31.8071],[24.0561,-31.776],[24.0431,-31.7673],[24.0285,-31.7302],[24.0291,-31.722],[24.0467,-31.7067],[23.9631,-31.7067],[23.9665,-31.7154],[23.9513,-31.7495],[23.9487,-31.7733],[23.9179,-31.7954],[23.9159,-31.822],[23.894,-31.8368],[23.8786,-31.8337],[23.8379,-31.7833],[23.8294,-31.7803],[23.8372,-31.7679],[23.8085,-31.7637],[23.8476,-31.7292],[23.8416,-31.7151],[23.8157,-31.7142],[23.7775,-31.6971],[23.7565,-31.6957],[23.7345,-31.6546],[23.7151,-31.647],[23.6395,-31.6601],[23.6191,-31.6494],[23.5945,-31.6623],[23.5745,-31.6892],[23.5355,-31.6918],[23.5239,-31.7053],[23.4961,-31.7027],[23.4231,-31.6821],[23.4165,-31.6722],[23.4017,-31.6996],[23.4071,-31.7138],[23.3451,-31.7109],[23.3024,-31.7301],[23.2634,-31.7783],[23.2624,-31.8154],[23.225,-31.854],[23.2304,-31.8757],[23.1712,-31.9181],[23.1394,-31.9515],[23.1188,-31.9601],[23.1043,-31.9606],[23.0985,-31.9777],[23.0876,-31.9723],[23.0709,-31.9538],[23.0587,-31.9548],[23.0526,-31.9398],[23.0523,-31.9103],[23.0674,-31.8907],[23.0387,-31.8774],[22.9758,-31.8608],[22.9538,-31.863],[22.902,-31.8758],[22.8747,-31.8616],[22.859,-31.8183],[22.8253,-31.8377],[22.7769,-31.8569],[22.7351,-31.7994],[22.6515,-31.8217],[22.6441,-31.8144],[22.6332,-31.8157],[22.6318,-31.8234],[22.6149,-31.8229],[22.5783,-31.8055],[22.6191,-31.7247],[22.5661,-31.7132],[22.5648,-31.6779],[22.4958,-31.6703],[22.4332,-31.6382],[22.3551,-31.6054],[22.3123,-31.5835],[22.2729,-31.5925],[22.2601,-31.6625],[22.2499,-31.6647],[22.2374,-31.703],[22.204,-31.764],[22.2063,-31.7923],[22.1599,-31.8097],[22.1769,-31.8207],[22.1666,-31.8931],[22.1315,-31.8843],[22.1159,-31.8626],[22.0789,-31.8549],[22.084,-31.8759],[22.1,-31.8924],[22.1017,-31.9005],[22.1004,-31.9243],[22.0713,-31.9393],[22.0892,-31.9744],[22.095,-32.0011],[22.0741,-32.0179],[22.0936,-32.0459],[22.134,-32.0644],[22.12,-32.077],[22.0897,-32.1464],[22.0696,-32.0814],[22.0164,-32.1143],[21.9995,-32.206],[21.9959,-32.203],[21.9712,-32.2164],[21.9362,-32.2229],[21.9246,-32.262],[21.9074,-32.2528],[21.9017,-32.2709],[21.8742,-32.2766],[21.8551,-32.2755],[21.7806,-32.2509],[21.7702,-32.2384],[21.773,-32.2268],[21.746,-32.2252],[21.7359,-32.205],[21.7114,-32.2248],[21.6916,-32.2486],[21.6738,-32.2433],[21.6446,-32.2087],[21.6065,-32.2097],[21.5786,-32.2215],[21.536,-32.2292],[21.549,-32.2908],[21.5618,-32.3147],[21.5504,-32.3269],[21.5191,-32.337],[21.4756,-32.3315],[21.4437,-32.3548],[21.4299,-32.3752],[21.4084,-32.3688],[21.3528,-32.3915],[21.3015,-32.3773],[21.303,-32.4024],[21.2815,-32.4397],[21.2695,-32.4503],[21.2311,-32.4631],[21.1975,-32.4998],[21.1821,-32.5087],[21.1401,-32.5898],[21.157,-32.6289],[21.0945,-32.653],[21.0603,-32.6555],[21.0373,-32.6491],[20.9628,-32.6393],[20.8441,-32.6624],[20.8228,-32.6945],[20.7898,-32.7112],[20.7922,-32.735],[20.8303,-32.7846],[20.8324,-32.8174],[20.7986,-32.8948],[20.7442,-32.9129],[20.7312,-32.945],[20.6503,-32.9323],[20.6219,-32.9431],[20.5901,-32.943],[20.5921,-32.9265],[20.5612,-32.881],[20.4993,-32.9416],[20.4386,-32.9401],[20.4347,-32.9719],[20.4278,-32.9794],[20.395,-32.9932],[20.3838,-33.0363],[20.3343,-33.0358],[20.3025,-33.068],[20.2791,-33.0639],[20.3185,-33.1209],[20.3064,-33.1593],[20.2512,-33.1499],[20.2022,-33.1701],[20.258,-33.1884],[20.244,-33.2365],[20.2471,-33.2458],[20.2356,-33.2624],[20.2512,-33.2915],[20.2035,-33.3027],[20.2395,-33.3099],[20.2092,-33.3798],[20.368,-33.3663],[20.3663,-33.3816],[20.3537,-33.3941],[20.3456,-33.3943],[20.3489,-33.4049],[20.3356,-33.4256],[20.3898,-33.4241],[20.4081,-33.4343],[20.4167,-33.4355],[20.4275,-33.4489],[20.4198,-33.453],[20.3861,-33.4592],[20.3362,-33.4878],[20.498,-33.4639],[20.5017,-33.4985],[20.4756,-33.5134],[20.4782,-33.5278]]]}},{"type":"Feature","properties":{"name":"City of Cape Town"},"geometry":{"type":"MultiPolygon","coordinates":[[[[18.7875,-33.6376],[18.7781,-33.6491],[18.7632,-33.6489],[18.7598,-33.6656],[18.7542,-33.6649],[18.752,-33.6768],[18.7367,-33.687],[18.7119,-33.6759],[18.7069,-33.6813],[18.6927,-33.6813],[18.6897,-33.6652],[18.6709,-33.6474],[18.6692,-33.6489],[18.6554,-33.6341],[18.645,-33.6357],[18.627,-33.6246],[18.6221,-33.6145],[18.618,-33.5844],[18.6059,-33.5855],[18.5744,-33.5735],[18.5686,-33.5621],[18.58,-33.5577],[18.5764,-33.5315],[18.564,-33.5235],[18.5365,-33.5271],[18.5242,-33.5252],[18.5245,-33.5036],[18.5094,-33.4895],[18.4957,-33.4811],[18.4555,-33.4713],[18.4399,-33.4979],[18.4262,-33.5112],[18.4025,-33.5143],[18.3888,-33.5089],[18.3837,-33.5117],[18.3691,-33.5253],[18.3594,-33.5423],[18.3604,-33.5489],[18.3413,-33.5586],[18.343,-33.5706],[18.355,-33.5786],[18.3605,-33.5871],[18.3587,-33.5909],[18.3616,-33.5945],[18.357,-33.5989],[18.3679,-33.5996],[18.3777,-33.6187],[18.3956,-33.6234],[18.4202,-33.6576],[18.438,-33.6926],[18.4442,-33.72],[18.4352,-33.7316],[18.4355,-33.736],[18.4415,-33.7471],[18.444,-33.7656],[18.4588,-33.7977],[18.4575,-33.8002],[18.4685,-33.8102],[18.4834,-33.8363],[18.4887,-33.8519],[18.4895,-33.8675],[18.4842,-33.8909],[18.4722,-33.9077],[18.4667,-33.9118],[18.4557,-33.9124],[18.4446,-33.9067],[18.455,-33.9155],[18.4501,-33.9196],[18.4482,-33.9162],[18.4374,-33.9088],[18.4461,-33.9152],[18.4436,-33.9183],[18.4459,-33.9203],[18.4423,-33.9205],[18.4422,-33.9187],[18.4385,-33.916],[18.4421,-33.9189],[18.4401,-33.9204],[18.4256,-33.9097],[18.4306,-33.9057],[18.4336,-33.9072],[18.4307,-33.9037],[18.4276,-33.9032],[18.424,-33.9083],[18.4212,-33.9068],[18.4208,-33.9097],[18.4174,-33.9085],[18.4345,-33.8976],[18.4186,-33.9025],[18.4121,-33.8988],[18.3983,-33.9009],[18.3978,-33.9065],[18.3907,-33.9093],[18.386,-33.9172],[18.3773,-33.9221],[18.3784,-33.9266],[18.3749,-33.9292],[18.3775,-33.9379],[18.3716,-33.9421],[18.3787,-33.9497],[18.3748,-33.9539],[18.3773,-33.9584],[18.3725,-33.9596],[18.3709,-33.974],[18.3447,-33.991],[18.3429,-34.0041],[18.3391,-34.0049],[18.3416,-34.0083],[18.3343,-34.0116],[18.3322,-34.0232],[18.3108,-34.0277],[18.3174,-34.03],[18.3078,-34.0404],[18.3219,-34.0471],[18.3292,-34.0574],[18.3425,-34.061],[18.3482,-34.0555],[18.3451,-34.0516],[18.3485,-34.0472],[18.3573,-34.0457],[18.3688,-34.0627],[18.3641,-34.0725],[18.3552,-34.0768],[18.3532,-34.0854],[18.3552,-34.0872],[18.3497,-34.0908],[18.3556,-34.0975],[18.3574,-34.1062],[18.3499,-34.128],[18.3457,-34.1301],[18.3391,-34.1273],[18.3323,-34.1361],[18.3227,-34.1381],[18.3207,-34.1415],[18.3235,-34.1418],[18.3183,-34.1459],[18.338,-34.1769],[18.3438,-34.1796],[18.3472,-34.1763],[18.3533,-34.1773],[18.3628,-34.1844],[18.3705,-34.1961],[18.3704,-34.2104],[18.3787,-34.2303],[18.3765,-34.2401],[18.3811,-34.2513],[18.3783,-34.2533],[18.3828,-34.2563],[18.3803,-34.2615],[18.3843,-34.267],[18.3795,-34.273],[18.3888,-34.2766],[18.3923,-34.286],[18.3968,-34.2884],[18.4049,-34.3034],[18.4004,-34.3077],[18.4146,-34.3166],[18.4153,-34.3213],[18.4287,-34.3314],[18.4435,-34.3374],[18.4572,-34.3386],[18.4592,-34.3444],[18.4725,-34.3546],[18.4719,-34.3581],[18.4815,-34.354],[18.4981,-34.3572],[18.4876,-34.3478],[18.4718,-34.3404],[18.4608,-34.3195],[18.4652,-34.3154],[18.4607,-34.3105],[18.4672,-34.298],[18.4663,-34.2928],[18.4749,-34.2786],[18.4665,-34.2672],[18.4764,-34.2564],[18.4767,-34.2328],[18.4657,-34.2225],[18.4562,-34.2001],[18.4442,-34.1921],[18.4423,-34.1876],[18.4415,-34.1912],[18.4381,-34.1891],[18.4325,-34.1928],[18.4284,-34.1915],[18.4252,-34.1834],[18.4332,-34.166],[18.4312,-34.1606],[18.44,-34.1498],[18.4375,-34.1441],[18.4323,-34.1416],[18.433,-34.1387],[18.4393,-34.1322],[18.4471,-34.1326],[18.4489,-34.1272],[18.4681,-34.1099],[18.4778,-34.1054],[18.5031,-34.0973],[18.6308,-34.0733],[18.6861,-34.0748],[18.6947,-34.0721],[18.739,-34.0753],[18.7734,-34.083],[18.7979,-34.0927],[18.813,-34.1002],[18.8232,-34.1159],[18.8559,-34.151],[18.868,-34.1587],[18.8587,-34.166],[18.8309,-34.1762],[18.8214,-34.1832],[18.8184,-34.19],[18.8337,-34.2117],[18.8308,-34.2176],[18.8528,-34.2381],[18.8559,-34.2524],[18.8526,-34.2636],[18.8458,-34.2696],[18.8502,-34.2703],[18.8654,-34.2641],[18.8677,-34.2574],[18.8802,-34.2482],[18.8753,-34.2294],[18.8929,-34.2343],[18.9004,-34.2275],[18.8994,-34.2169],[18.9084,-34.217],[18.9139,-34.2109],[18.9202,-34.2122],[18.9282,-34.2067],[18.931,-34.1959],[18.9344,-34.1967],[18.9419,-34.1889],[18.9544,-34.1838],[18.9543,-34.1736],[18.9625,-34.1777],[18.9803,-34.155],[18.9638,-34.1529],[18.9652,-34.14],[18.9439,-34.1382],[18.9668,-34.1024],[19.0053,-34.0743],[18.9871,-34.0353],[18.9846,-34.0359],[18.9695,-34.0199],[18.952,-34.0083],[18.9274,-33.9999],[18.9178,-34.0092],[18.9227,-34.0139],[18.8972,-34.0264],[18.8926,-34.0255],[18.8852,-34.0303],[18.8848,-34.0342],[18.8553,-34.0309],[18.862,-34.0337],[18.8619,-34.0383],[18.8418,-34.0471],[18.8189,-34.0397],[18.8052,-34.0512],[18.8148,-34.052],[18.8092,-34.0634],[18.806,-34.054],[18.7897,-34.0537],[18.7663,-34.0437],[18.7677,-34.0404],[18.759,-34.0333],[18.7548,-34.0347],[18.7421,-34.0213],[18.7448,-34.0193],[18.742,-34.0135],[18.7474,-34.0104],[18.7459,-34.0064],[18.7518,-34.0053],[18.7377,-33.9893],[18.7454,-33.9874],[18.7283,-33.9693],[18.7335,-33.9659],[18.7308,-33.9628],[18.7369,-33.9406],[18.744,-33.9322],[18.7396,-33.9328],[18.7274,-33.9247],[18.7083,-33.9227],[18.7153,-33.9036],[18.7172,-33.9056],[18.7193,-33.9035],[18.7173,-33.8985],[18.7356,-33.891],[18.7371,-33.8935],[18.7459,-33.8874],[18.7514,-33.8935],[18.7529,-33.8845],[18.7457,-33.874],[18.7458,-33.8603],[18.7531,-33.85],[18.7529,-33.8344],[18.7684,-33.8327],[18.7678,-33.8262],[18.7921,-33.8195],[18.7877,-33.8155],[18.7844,-33.8038],[18.7962,-33.7982],[18.8098,-33.7813],[18.7877,-33.7667],[18.811,-33.7588],[18.8095,-33.7408],[18.833,-33.7382],[18.8182,-33.7223],[18.822,-33.7083],[18.8132,-33.7064],[18.8134,-33.7131],[18.8102,-33.7137],[18.8092,-33.709],[18.8062,-33.7102],[18.8027,-33.7052],[18.7946,-33.7068],[18.7937,-33.6794],[18.8021,-33.6737],[18.8219,-33.6418],[18.7875,-33.6376]]],[[[18.3738,-33.7922],[18.3624,-33.7906],[18.3567,-33.8018],[18.3607,-33.8144],[18.3708,-33.8202],[18.3808,-33.8176],[18.3824,-33.8143],[18.3755,-33.8017],[18.378,-33.7985],[18.375,-33.7965],[18.3788,-33.7975],[18.3772,-33.796],[18.3742,-33.7965],[18.3738,-33.7922]]]]}},{"type":"Feature","properties":{"name":"Garden Route"},"geometry":{"type":"Polygon","coordinates":[[[20.5033,-33.637],[20.5816,-33.6221],[20.5862,-33.6672],[20.6455,-33.6362],[20.666,-33.622],[20.7189,-33.6406],[20.7756,-33.6917],[20.8072,-33.6897],[20.8095,-33.6985],[20.8003,-33.715],[20.885,-33.7174],[20.8799,-33.6926],[20.9388,-33.6998],[20.9341,-33.7246],[20.9657,-33.7426],[20.9806,-33.7396],[21.0103,-33.7566],[20.9656,-33.8043],[20.9568,-33.8063],[20.9361,-33.8791],[20.9238,-33.8893],[20.9523,-33.9018],[20.9386,-33.925],[20.934,-33.9476],[20.9364,-33.9612],[20.9215,-33.9528],[20.8782,-33.964],[20.8678,-33.955],[20.8539,-33.9632],[20.8426,-33.9644],[20.8411,-33.9731],[20.8266,-33.9655],[20.8191,-33.9405],[20.8164,-33.9402],[20.8066,-33.9464],[20.7073,-33.9551],[20.707,-33.9591],[20.7021,-33.9609],[20.7024,-33.9675],[20.6947,-33.976],[20.7073,-33.9802],[20.7052,-33.9902],[20.7189,-33.9865],[20.729,-33.9884],[20.7321,-33.9989],[20.7281,-34.0066],[20.7296,-34.0181],[20.7128,-34.0179],[20.71,-34.0165],[20.7107,-34.0102],[20.694,-34.0068],[20.6999,-34.0397],[20.7227,-34.0368],[20.7286,-34.0575],[20.7476,-34.0667],[20.7404,-34.0713],[20.7543,-34.0972],[20.7032,-34.0881],[20.7043,-34.0909],[20.693,-34.1008],[20.691,-34.0891],[20.6873,-34.0874],[20.6605,-34.089],[20.6401,-34.086],[20.6393,-34.0976],[20.6474,-34.1092],[20.6487,-34.1194],[20.6421,-34.1353],[20.6562,-34.1448],[20.6497,-34.1491],[20.6453,-34.1755],[20.6543,-34.1714],[20.665,-34.1885],[20.6969,-34.1844],[20.7189,-34.1955],[20.6996,-34.2132],[20.6928,-34.2024],[20.6528,-34.2236],[20.6392,-34.2343],[20.6377,-34.2429],[20.5994,-34.2729],[20.5726,-34.283],[20.5661,-34.2974],[20.5654,-34.302],[20.5681,-34.3042],[20.5814,-34.2946],[20.5888,-34.2977],[20.5913,-34.3043],[20.6178,-34.3027],[20.622,-34.3167],[20.6049,-34.324],[20.6039,-34.3355],[20.5963,-34.348],[20.5974,-34.3518],[20.6224,-34.3436],[20.6293,-34.3448],[20.6359,-34.3533],[20.6415,-34.3555],[20.6477,-34.3549],[20.6552,-34.3487],[20.6688,-34.3498],[20.6861,-34.3466],[20.6907,-34.3587],[20.7066,-34.364],[20.7351,-34.3877],[20.7666,-34.3946],[20.7983,-34.408],[20.82,-34.4013],[20.85,-34.4034],[20.8835,-34.3807],[20.9185,-34.369],[20.9334,-34.366],[21.0012,-34.365],[21.1021,-34.3769],[21.1343,-34.3835],[21.2014,-34.4042],[21.2199,-34.4164],[21.2467,-34.4193],[21.3008,-34.439],[21.311,-34.4379],[21.3201,-34.4312],[21.3365,-34.4334],[21.3387,-34.4266],[21.3438,-34.4272],[21.3542,-34.4194],[21.3728,-34.4228],[21.3824,-34.4111],[21.3878,-34.4085],[21.3967,-34.41],[21.4002,-34.4053],[21.4131,-34.4014],[21.4129,-34.3958],[21.4174,-34.3915],[21.4243,-34.3906],[21.4293,-34.3935],[21.4304,-34.3912],[21.4233,-34.3848],[21.4226,-34.3796],[21.432,-34.3726],[21.4501,-34.3675],[21.4913,-34.3664],[21.51,-34.3596],[21.5166,-34.3611],[21.5226,-34.3571],[21.5357,-34.3564],[21.5523,-34.3612],[21.5808,-34.3629],[21.6337,-34.3815],[21.6673,-34.3866],[21.6829,-34.3922],[21.6924,-34.3916],[21.6962,-34.395],[21.714,-34.3931],[21.7194,-34.3955],[21.7224,-34.3932],[21.7293,-34.3958],[21.735,-34.3942],[21.7369,-34.3892],[21.742,-34.3866],[21.7942,-34.3812],[21.7978,-34.3833],[21.8056,-34.3795],[21.8355,-34.3752],[21.8504,-34.3695],[21.8572,-34.3634],[21.871,-34.3629],[21.8841,-34.3533],[21.8838,-34.3476],[21.8875,-34.3437],[21.9041,-34.3444],[21.9136,-34.3393],[21.9041,-34.3326],[21.9093,-34.3178],[21.9309,-34.3042],[21.945,-34.3018],[21.946,-34.2991],[21.9427,-34.2999],[21.9363,-34.2944],[21.915,-34.2911],[21.9122,-34.2737],[21.9177,-34.2606],[21.9273,-34.2495],[21.9571,-34.2287],[21.9876,-34.2163],[22.0257,-34.2085],[22.0642,-34.205],[22.0894,-34.2093],[22.0963,-34.2029],[22.1122,-34.2038],[22.1404,-34.1943],[22.1444,-34.1966],[22.154,-34.1871],[22.1608,-34.1873],[22.1581,-34.181],[22.1505,-34.1793],[22.1474,-34.1751],[22.1487,-34.1811],[22.1443,-34.1789],[22.1451,-34.1764],[22.1408,-34.1796],[22.1332,-34.1723],[22.1127,-34.1647],[22.1113,-34.1578],[22.1131,-34.14],[22.1259,-34.1149],[22.1595,-34.0841],[22.218,-34.0624],[22.2709,-34.0527],[22.3311,-34.0521],[22.3544,-34.0543],[22.3806,-34.0617],[22.3914,-34.0547],[22.3958,-34.0578],[22.4035,-34.0559],[22.4245,-34.0601],[22.4282,-34.0566],[22.4327,-34.059],[22.4339,-34.0557],[22.4416,-34.0589],[22.4511,-34.0566],[22.4668,-34.0483],[22.4846,-34.0513],[22.4884,-34.0456],[22.4962,-34.043],[22.4986,-34.0366],[22.5083,-34.0348],[22.5121,-34.028],[22.5407,-34.0177],[22.5485,-34.0095],[22.5492,-34.0042],[22.5553,-34.0037],[22.5565,-33.9981],[22.5636,-33.9961],[22.5918,-33.9969],[22.6698,-34.0091],[22.7241,-34.0222],[22.7634,-34.0346],[22.7645,-34.0374],[22.7667,-34.0359],[22.7649,-34.0318],[22.773,-34.0269],[22.7963,-34.0312],[22.8383,-34.0473],[22.8857,-34.0567],[22.9319,-34.0703],[22.9535,-34.0791],[22.96,-34.0871],[22.9703,-34.0861],[22.979,-34.0932],[22.9751,-34.0856],[22.9788,-34.0787],[22.9883,-34.0742],[23.0086,-34.072],[23.0318,-34.076],[23.0336,-34.0794],[23.038,-34.078],[23.0421,-34.0801],[23.0424,-34.0842],[23.0774,-34.0823],[23.0863,-34.0866],[23.0863,-34.0834],[23.0981,-34.0823],[23.1007,-34.0789],[23.1064,-34.0819],[23.1303,-34.0804],[23.1384,-34.087],[23.167,-34.0826],[23.1694,-34.0866],[23.1995,-34.0846],[23.2089,-34.0864],[23.2149,-34.0912],[23.2248,-34.0869],[23.2433,-34.0936],[23.2576,-34.0921],[23.2705,-34.0998],[23.279,-34.0984],[23.2864,-34.1017],[23.2913,-34.0996],[23.3063,-34.1032],[23.3218,-34.0993],[23.3305,-34.1025],[23.3453,-34.1007],[23.3584,-34.1065],[23.3698,-34.1013],[23.383,-34.1019],[23.3878,-34.1054],[23.3869,-34.1088],[23.3908,-34.108],[23.3906,-34.1053],[23.4068,-34.1114],[23.4125,-34.1071],[23.3978,-34.1008],[23.3755,-34.0982],[23.3715,-34.0861],[23.3735,-34.0731],[23.381,-34.0605],[23.3788,-34.0608],[23.3783,-34.0551],[23.3813,-34.0534],[23.3779,-34.0512],[23.3845,-34.0401],[23.3966,-34.0298],[23.4227,-34.0142],[23.4523,-34.005],[23.5282,-34.0001],[23.5362,-33.9897],[23.5474,-33.9888],[23.5565,-33.9827],[23.5751,-33.9817],[23.5799,-33.9846],[23.5991,-33.98],[23.6167,-33.979],[23.636,-33.983],[23.647,-33.9806],[23.6459,-33.9624],[23.6426,-33.9564],[23.6346,-33.9521],[23.637,-33.9347],[23.6399,-33.931],[23.6446,-33.931],[23.64,-33.9242],[23.6432,-33.9223],[23.642,-33.918],[23.6374,-33.913],[23.6396,-33.9098],[23.6567,-33.9071],[23.6566,-33.902],[23.6476,-33.8967],[23.6478,-33.8927],[23.6518,-33.8925],[23.6564,-33.8868],[23.683,-33.8839],[23.6943,-33.868],[23.7033,-33.8641],[23.6203,-33.8432],[23.6081,-33.8329],[23.5619,-33.8289],[23.554,-33.7964],[23.5573,-33.7934],[23.5188,-33.7821],[23.5179,-33.7856],[23.488,-33.7915],[23.4891,-33.8075],[23.468,-33.8075],[23.417,-33.7947],[23.395,-33.7926],[23.4301,-33.7618],[23.4399,-33.7174],[23.4754,-33.7177],[23.5413,-33.6995],[23.5417,-33.683],[23.5555,-33.673],[23.5565,-33.6515],[23.5859,-33.6727],[23.6288,-33.6693],[23.6704,-33.6726],[23.675,-33.6259],[23.6199,-33.5915],[23.6168,-33.5696],[23.5962,-33.5725],[23.6001,-33.5275],[23.6061,-33.5034],[23.604,-33.4964],[23.579,-33.4847],[23.5142,-33.4627],[23.4956,-33.4434],[23.4676,-33.4481],[23.4233,-33.442],[23.3934,-33.4457],[23.3549,-33.4412],[23.364,-33.4616],[23.318,-33.4065],[23.2971,-33.3886],[23.1348,-33.3876],[23.1129,-33.4008],[23.0664,-33.4003],[22.9348,-33.4291],[22.8303,-33.4191],[22.6643,-33.4157],[22.5818,-33.4047],[22.5157,-33.4097],[22.4647,-33.4045],[22.3913,-33.3641],[22.214,-33.315],[22.1822,-33.3217],[22.1453,-33.3354],[22.0509,-33.3515],[22.0058,-33.3555],[21.9629,-33.3662],[21.9021,-33.365],[21.8272,-33.391],[21.7926,-33.3899],[21.7472,-33.3971],[21.7079,-33.3964],[21.68,-33.4048],[21.612,-33.3968],[21.5533,-33.4105],[21.5218,-33.4144],[21.4885,-33.4093],[21.4331,-33.3942],[21.3677,-33.3982],[21.2064,-33.4217],[21.1657,-33.415],[21.1138,-33.4307],[21.0493,-33.4339],[21.0097,-33.4393],[20.9726,-33.4225],[20.9218,-33.4307],[20.762,-33.4908],[20.5476,-33.5195],[20.5494,-33.5287],[20.5771,-33.5281],[20.5743,-33.5388],[20.5033,-33.637]]]}},{"type":"Feature","properties":{"name":"Overberg"},"geometry":{"type":"MultiPolygon","coordinates":[[[[18.9871,-34.0353],[19.0048,-34.0756],[18.9668,-34.1024],[18.9439,-34.1382],[18.9652,-34.14],[18.9638,-34.1529],[18.9803,-34.155],[18.9625,-34.1777],[18.9543,-34.1736],[18.9544,-34.1838],[18.9419,-34.1889],[18.9344,-34.1967],[18.931,-34.1959],[18.9282,-34.2067],[18.9202,-34.2122],[18.9139,-34.2109],[18.9084,-34.217],[18.8994,-34.2169],[18.9004,-34.2275],[18.8929,-34.2343],[18.8753,-34.2294],[18.8802,-34.2482],[18.8677,-34.2574],[18.8654,-34.2641],[18.8317,-34.274],[18.8205,-34.2897],[18.8227,-34.2988],[18.8129,-34.2961],[18.8149,-34.3059],[18.8106,-34.3092],[18.8139,-34.3125],[18.8186,-34.3109],[18.8156,-34.3178],[18.8212,-34.325],[18.8203,-34.3311],[18.8249,-34.337],[18.8318,-34.3391],[18.829,-34.3456],[18.8095,-34.3487],[18.8175,-34.357],[18.8151,-34.3643],[18.8188,-34.3661],[18.8191,-34.3732],[18.8271,-34.3761],[18.8265,-34.3806],[18.8217,-34.3821],[18.8264,-34.3835],[18.8266,-34.3883],[18.8358,-34.3882],[18.832,-34.3805],[18.8436,-34.3781],[18.85,-34.3839],[18.8548,-34.3835],[18.8525,-34.3886],[18.8546,-34.3909],[18.8626,-34.3886],[18.8571,-34.3811],[18.8588,-34.3747],[18.8744,-34.3691],[18.8926,-34.3761],[18.8973,-34.3742],[18.8943,-34.3722],[18.8965,-34.3678],[18.901,-34.3688],[18.9051,-34.3609],[18.9113,-34.3577],[18.9318,-34.3587],[18.9352,-34.3559],[18.9672,-34.3626],[18.9767,-34.3591],[18.9804,-34.3532],[18.9946,-34.3448],[19.0154,-34.3475],[19.0421,-34.3411],[19.0691,-34.3512],[19.1026,-34.3721],[19.1247,-34.3958],[19.1252,-34.3998],[19.1197,-34.4024],[19.1177,-34.408],[19.123,-34.4132],[19.1213,-34.4151],[19.1356,-34.4184],[19.1422,-34.4236],[19.1702,-34.416],[19.1724,-34.4205],[19.1816,-34.4199],[19.1879,-34.423],[19.1936,-34.4295],[19.2038,-34.4283],[19.2033,-34.4355],[19.2185,-34.4381],[19.2258,-34.4356],[19.2273,-34.4301],[19.2363,-34.4229],[19.2443,-34.4228],[19.252,-34.4136],[19.2754,-34.4091],[19.3047,-34.4251],[19.341,-34.4611],[19.3665,-34.5024],[19.379,-34.544],[19.3514,-34.562],[19.3534,-34.5663],[19.3422,-34.5791],[19.3457,-34.5849],[19.3386,-34.5884],[19.3282,-34.6085],[19.311,-34.6112],[19.3015,-34.617],[19.3004,-34.6225],[19.2913,-34.6302],[19.2967,-34.6295],[19.297,-34.6325],[19.2934,-34.6331],[19.306,-34.6333],[19.3163,-34.6232],[19.3206,-34.626],[19.3467,-34.6266],[19.3557,-34.616],[19.3775,-34.6151],[19.3774,-34.6128],[19.3849,-34.6149],[19.4013,-34.6067],[19.4116,-34.6074],[19.4211,-34.6117],[19.4361,-34.6275],[19.4506,-34.6558],[19.4723,-34.6608],[19.4762,-34.663],[19.4749,-34.6655],[19.478,-34.663],[19.4886,-34.6636],[19.4904,-34.6678],[19.4971,-34.6678],[19.4949,-34.6721],[19.5205,-34.6713],[19.5325,-34.6807],[19.5301,-34.6897],[19.5415,-34.6918],[19.5401,-34.6951],[19.5457,-34.6978],[19.5447,-34.7034],[19.5496,-34.7116],[19.562,-34.7137],[19.568,-34.7201],[19.5728,-34.72],[19.5747,-34.7231],[19.569,-34.7255],[19.5732,-34.7283],[19.5859,-34.7286],[19.5875,-34.7242],[19.5914,-34.7262],[19.5945,-34.7311],[19.5923,-34.7342],[19.5974,-34.7344],[19.5994,-34.7391],[19.596,-34.7467],[19.6037,-34.7466],[19.5995,-34.7484],[19.6003,-34.7508],[19.6059,-34.7512],[19.6127,-34.7575],[19.6253,-34.7534],[19.6322,-34.7551],[19.6415,-34.77],[19.6411,-34.7775],[19.6347,-34.781],[19.6384,-34.7827],[19.6456,-34.7805],[19.6502,-34.7861],[19.6627,-34.7841],[19.6628,-34.7884],[19.6658,-34.7849],[19.6778,-34.7831],[19.6724,-34.777],[19.6825,-34.7717],[19.685,-34.7653],[19.6979,-34.7625],[19.7464,-34.7714],[19.7681,-34.7647],[19.7984,-34.7678],[19.8164,-34.7626],[19.8505,-34.7689],[19.8575,-34.7656],[19.8639,-34.7677],[19.8722,-34.7659],[19.8853,-34.7725],[19.8901,-34.7822],[19.903,-34.784],[19.9241,-34.7973],[19.9429,-34.8162],[19.9562,-34.8153],[19.9589,-34.8207],[19.9678,-34.8235],[19.9649,-34.827],[19.9737,-34.8246],[19.9859,-34.8327],[20.0071,-34.8339],[20.0143,-34.8317],[20.0127,-34.8291],[20.0164,-34.8245],[20.0275,-34.8248],[20.0307,-34.8143],[20.0537,-34.8142],[20.0638,-34.806],[20.0625,-34.8008],[20.0524,-34.7983],[20.0473,-34.7899],[20.0482,-34.7736],[20.0575,-34.7572],[20.0798,-34.7365],[20.1196,-34.7144],[20.1676,-34.6961],[20.2166,-34.688],[20.236,-34.6916],[20.2347,-34.6801],[20.232,-34.6783],[20.2355,-34.6701],[20.2328,-34.6618],[20.2464,-34.646],[20.2676,-34.6342],[20.3292,-34.6102],[20.3477,-34.5901],[20.3994,-34.5714],[20.4141,-34.553],[20.4221,-34.5336],[20.4385,-34.5159],[20.4618,-34.5],[20.4898,-34.486],[20.5665,-34.4615],[20.6332,-34.4506],[20.6767,-34.4505],[20.683,-34.4531],[20.6911,-34.4503],[20.7253,-34.455],[20.7311,-34.4512],[20.7367,-34.4556],[20.7812,-34.4609],[20.8204,-34.4719],[20.8389,-34.4703],[20.8478,-34.4749],[20.8561,-34.4649],[20.8695,-34.4659],[20.8655,-34.4584],[20.8718,-34.4523],[20.8692,-34.4493],[20.8715,-34.4478],[20.8678,-34.4331],[20.8696,-34.4292],[20.8566,-34.422],[20.8535,-34.4128],[20.8487,-34.4088],[20.85,-34.4034],[20.82,-34.4013],[20.7983,-34.408],[20.7666,-34.3946],[20.7351,-34.3877],[20.7066,-34.364],[20.6907,-34.3587],[20.6861,-34.3466],[20.6688,-34.3498],[20.6552,-34.3487],[20.6477,-34.3549],[20.6415,-34.3555],[20.6359,-34.3533],[20.6293,-34.3448],[20.6224,-34.3436],[20.5974,-34.3518],[20.5963,-34.348],[20.6039,-34.3355],[20.6049,-34.324],[20.622,-34.3167],[20.6178,-34.3027],[20.5913,-34.3043],[20.5888,-34.2977],[20.5828,-34.2946],[20.5681,-34.3042],[20.5656,-34.2993],[20.5726,-34.283],[20.5994,-34.2729],[20.6377,-34.2429],[20.6392,-34.2343],[20.6528,-34.2236],[20.6928,-34.2024],[20.6996,-34.2132],[20.7189,-34.1955],[20.6969,-34.1844],[20.665,-34.1885],[20.6543,-34.1714],[20.6453,-34.1755],[20.6497,-34.1491],[20.6562,-34.1448],[20.6421,-34.1353],[20.6487,-34.1194],[20.6474,-34.1092],[20.6393,-34.0976],[20.6401,-34.086],[20.6605,-34.089],[20.6873,-34.0874],[20.691,-34.0891],[20.693,-34.1008],[20.7043,-34.0909],[20.7032,-34.0881],[20.7543,-34.0972],[20.7404,-34.0713],[20.7476,-34.0667],[20.7286,-34.0575],[20.7227,-34.0368],[20.6999,-34.0397],[20.694,-34.0068],[20.7107,-34.0102],[20.71,-34.0165],[20.7128,-34.0179],[20.7296,-34.0181],[20.7281,-34.0066],[20.7321,-33.9989],[20.729,-33.9884],[20.7189,-33.9865],[20.7052,-33.9902],[20.7073,-33.9802],[20.6947,-33.976],[20.7024,-33.9675],[20.7021,-33.9609],[20.707,-33.9591],[20.7073,-33.9551],[20.8066,-33.9464],[20.8164,-33.9402],[20.8191,-33.9405],[20.8266,-33.9655],[20.8411,-33.9731],[20.8426,-33.9644],[20.8539,-33.9632],[20.8678,-33.955],[20.8782,-33.964],[20.9215,-33.9528],[20.9364,-33.9612],[20.934,-33.9476],[20.9386,-33.925],[20.9523,-33.9018],[20.9238,-33.8893],[20.9361,-33.8791],[20.9568,-33.8063],[20.9656,-33.8043],[21.0103,-33.7566],[20.9806,-33.7396],[20.9657,-33.7426],[20.9341,-33.7246],[20.9388,-33.6998],[20.8799,-33.6926],[20.885,-33.7174],[20.8003,-33.715],[20.8095,-33.6985],[20.8072,-33.6897],[20.7756,-33.6917],[20.7189,-33.6406],[20.666,-33.622],[20.6455,-33.6362],[20.5862,-33.6672],[20.5816,-33.6221],[20.5033,-33.637],[20.5352,-33.6607],[20.5039,-33.682],[20.4692,-33.682],[20.4728,-33.7292],[20.4479,-33.774],[20.5145,-33.8026],[20.4805,-33.8228],[20.4684,-33.8183],[20.4682,-33.8134],[20.4502,-33.8068],[20.4437,-33.8101],[20.4266,-33.8109],[20.4415,-33.8198],[20.4353,-33.8264],[20.4418,-33.8371],[20.4425,-33.8579],[20.4607,-33.8764],[20.4683,-33.8803],[20.4699,-33.8897],[20.4695,-33.8957],[20.4602,-33.9063],[20.436,-33.9577],[20.3244,-33.9496],[20.2344,-33.8979],[20.2225,-33.9128],[20.2584,-33.9417],[20.2832,-33.9574],[20.2803,-33.9538],[20.2969,-33.964],[20.328,-33.9731],[20.3178,-33.9936],[20.3242,-34.0018],[20.3138,-34.0017],[20.3071,-34.0056],[20.3041,-34.0141],[20.3071,-34.0294],[20.2908,-34.0419],[20.2792,-34.0396],[20.284,-34.0414],[20.2865,-34.0511],[20.2945,-34.0504],[20.2989,-34.0603],[20.2858,-34.065],[20.2861,-34.0789],[20.3057,-34.0773],[20.2913,-34.0913],[20.2701,-34.0902],[20.2727,-34.1062],[20.2497,-34.1061],[20.2468,-34.1173],[20.2218,-34.1111],[20.23,-34.0952],[20.2031,-34.0884],[20.1974,-34.1005],[20.1873,-34.102],[20.1878,-34.0974],[20.1405,-34.0854],[20.1376,-34.0824],[20.1493,-34.0766],[20.2022,-34.0786],[20.2049,-34.0655],[20.2003,-34.053],[20.1925,-34.0462],[20.1961,-34.04],[20.1778,-34.0298],[20.1724,-34.0398],[20.1517,-34.0446],[20.1417,-34.0592],[20.0808,-34.0646],[20.0328,-34.0597],[20.0085,-34.0639],[20.0108,-34.0916],[20.0075,-34.0939],[19.9893,-34.0855],[19.9865,-34.0782],[19.9062,-34.0762],[19.8855,-34.0662],[19.8103,-34.0554],[19.7552,-34.0544],[19.735,-34.0412],[19.7148,-34.049],[19.7001,-34.0464],[19.6807,-34.0091],[19.6406,-34.0028],[19.5898,-34.0124],[19.5662,-34.002],[19.5333,-33.9695],[19.5069,-33.9717],[19.4558,-33.9999],[19.4267,-33.9932],[19.3618,-33.9715],[19.3486,-33.9552],[19.3359,-33.9582],[19.3251,-33.9521],[19.3189,-33.9472],[19.3128,-33.935],[19.3105,-33.9137],[19.2974,-33.8897],[19.2782,-33.8795],[19.2584,-33.8831],[19.2653,-33.9003],[19.2438,-33.8974],[19.2066,-33.9504],[19.191,-33.9472],[19.1646,-33.9714],[19.1456,-33.956],[19.1261,-33.9617],[19.0424,-34.0083],[19.0264,-34.0206],[18.9871,-34.0353]]],[[[19.4188,-34.6782],[19.4124,-34.6829],[19.4118,-34.6855],[19.4149,-34.6865],[19.4234,-34.6801],[19.4188,-34.6782]]],[[[19.4181,-34.6867],[19.4131,-34.6895],[19.4099,-34.6882],[19.4126,-34.6905],[19.4181,-34.6867]]]]}},{"type":"Feature","properties":{"name":"West Coast"},"geometry":{"type":"MultiPolygon","coordinates":[[[[19.485,-32.58],[19.495,-32.4989],[19.5164,-32.4859],[19.5071,-32.4731],[19.4952,-32.4735],[19.4798,-32.4413],[19.4729,-32.4363],[19.4719,-32.4279],[19.4645,-32.4148],[19.443,-32.3881],[19.4347,-32.3732],[19.4353,-32.3683],[19.4302,-32.3657],[19.4091,-32.2901],[19.4919,-32.2517],[19.4951,-32.245],[19.4882,-32.2427],[19.4858,-32.2358],[19.4958,-32.2216],[19.497,-32.2142],[19.4942,-32.2087],[19.5023,-32.2054],[19.4927,-32.1986],[19.5014,-32.1799],[19.4873,-32.1637],[19.4793,-32.1677],[19.4841,-32.1614],[19.4752,-32.1463],[19.4911,-32.1301],[19.5083,-32.1259],[19.5152,-32.1152],[19.5075,-32.0861],[19.4885,-32.1212],[19.4834,-32.1137],[19.488,-32.0915],[19.4861,-32.0762],[19.4799,-32.073],[19.4675,-32.0731],[19.4259,-32.0313],[19.3958,-32.0151],[19.3804,-32.0376],[19.363,-32.0428],[19.353,-32.0279],[19.3298,-32.0126],[19.3233,-31.9848],[19.2899,-31.9651],[19.2775,-31.9797],[19.2648,-31.9657],[19.2798,-31.922],[19.2897,-31.863],[19.2107,-31.948],[19.1997,-31.9048],[19.1723,-31.9098],[19.1561,-31.8997],[19.1415,-31.912],[19.1308,-31.9066],[19.1181,-31.9071],[19.1094,-31.8981],[19.0849,-31.8936],[19.0822,-31.8898],[19.0614,-31.8814],[19.0262,-31.8764],[19.0259,-31.8707],[19.031,-31.8687],[19.0301,-31.8629],[19.0346,-31.8586],[19.0314,-31.8541],[19.0328,-31.8487],[19.0267,-31.8438],[19.0323,-31.8398],[19.0305,-31.8336],[19.0387,-31.8286],[19.0468,-31.8295],[19.0605,-31.8104],[19.0782,-31.8024],[19.08,-31.794],[19.0872,-31.7936],[19.0835,-31.7862],[19.0768,-31.7883],[19.0757,-31.7819],[19.0691,-31.7836],[19.0661,-31.7809],[19.0667,-31.7658],[19.0801,-31.7598],[19.0914,-31.7625],[19.0947,-31.7502],[19.0811,-31.7307],[19.0769,-31.7185],[19.0656,-31.7063],[19.0577,-31.6878],[19.0549,-31.6703],[19.0737,-31.6669],[19.079,-31.6432],[19.0705,-31.6241],[19.0905,-31.5978],[19.0854,-31.572],[19.0556,-31.575],[19.0518,-31.5727],[19.0854,-31.5269],[19.0675,-31.5179],[19.0418,-31.5185],[19.0231,-31.5051],[19.012,-31.5144],[19.0062,-31.512],[19.0197,-31.4993],[19.0246,-31.4821],[19.0369,-31.4643],[19.043,-31.425],[19.0307,-31.4154],[19.034,-31.4022],[19.0309,-31.3895],[19.0124,-31.3701],[18.9801,-31.3552],[19.013,-31.3057],[18.9664,-31.2845],[18.9445,-31.2373],[18.9497,-31.1959],[18.9476,-31.1129],[18.9123,-31.0608],[18.9035,-31.0418],[18.9118,-30.9789],[18.9845,-30.9458],[18.9242,-30.916],[18.8754,-30.8871],[18.9605,-30.8661],[18.9519,-30.7447],[18.863,-30.7171],[18.7945,-30.6676],[18.7959,-30.6249],[18.7587,-30.5679],[18.6551,-30.5567],[18.5701,-30.4303],[18.5022,-30.4444],[18.4836,-30.5219],[18.5223,-30.6065],[18.4441,-30.5113],[18.3806,-30.4596],[18.4138,-30.5273],[18.3712,-30.5921],[18.371,-30.6596],[18.2642,-30.8183],[18.2518,-30.8275],[18.2135,-30.8104],[18.1952,-30.816],[18.2058,-30.8313],[18.1904,-30.8347],[18.1692,-30.8486],[18.0892,-30.7879],[18.0809,-30.7848],[18.0579,-30.7769],[18.0065,-30.7912],[17.9948,-30.8192],[17.9934,-30.9187],[17.9721,-30.9139],[17.9344,-30.9174],[17.914,-30.9247],[17.8803,-30.9239],[17.8779,-30.9487],[17.9264,-31.0114],[17.8945,-31.0304],[17.8886,-31.0403],[17.8786,-31.0405],[17.8113,-31.0925],[17.8344,-31.1765],[17.7576,-31.152],[17.7926,-31.1918],[17.7973,-31.2021],[17.817,-31.2177],[17.8178,-31.2228],[17.8224,-31.2231],[17.8388,-31.2345],[17.8634,-31.2576],[17.8815,-31.2869],[17.8795,-31.2908],[17.8829,-31.3015],[17.8771,-31.3074],[17.8801,-31.3103],[17.8785,-31.3194],[17.8996,-31.3438],[17.9004,-31.3521],[17.9269,-31.374],[17.949,-31.4064],[17.971,-31.4246],[18.0089,-31.4734],[18.0326,-31.4928],[18.0425,-31.5098],[18.0662,-31.5274],[18.1056,-31.568],[18.1179,-31.5863],[18.1145,-31.5985],[18.1296,-31.6108],[18.1318,-31.6215],[18.146,-31.6378],[18.1521,-31.6558],[18.1583,-31.6599],[18.1841,-31.6933],[18.1861,-31.7014],[18.1893,-31.7006],[18.2228,-31.7443],[18.2253,-31.754],[18.221,-31.7604],[18.2245,-31.7636],[18.2262,-31.7812],[18.2328,-31.7951],[18.2291,-31.8003],[18.2354,-31.8132],[18.2303,-31.8172],[18.2334,-31.8177],[18.2317,-31.8207],[18.2639,-31.8617],[18.2801,-31.8982],[18.28,-31.9084],[18.2778,-31.9122],[18.2726,-31.9129],[18.2759,-31.92],[18.2749,-31.9298],[18.2655,-31.934],[18.2654,-31.9396],[18.2857,-31.9833],[18.2868,-31.9875],[18.2824,-31.9955],[18.2932,-32.0126],[18.2932,-32.0221],[18.314,-32.071],[18.3132,-32.0848],[18.2995,-32.0943],[18.3038,-32.1063],[18.3009,-32.1071],[18.3031,-32.109],[18.3002,-32.1137],[18.304,-32.1226],[18.3068,-32.1509],[18.3113,-32.1599],[18.311,-32.1764],[18.3253,-32.2032],[18.3241,-32.2102],[18.3365,-32.2434],[18.3447,-32.2823],[18.3416,-32.3063],[18.3375,-32.314],[18.3228,-32.3179],[18.3168,-32.3147],[18.3142,-32.3165],[18.3155,-32.3374],[18.3292,-32.3901],[18.3344,-32.4392],[18.3324,-32.4934],[18.3241,-32.5348],[18.3111,-32.5718],[18.2935,-32.6087],[18.2794,-32.6332],[18.2465,-32.6784],[18.2291,-32.6948],[18.1998,-32.7141],[18.1615,-32.7587],[18.1389,-32.7733],[18.1126,-32.7803],[18.106,-32.7782],[18.0997,-32.781],[18.0955,-32.7778],[18.0901,-32.7804],[18.0877,-32.7774],[18.0788,-32.7767],[18.0551,-32.7837],[18.0509,-32.775],[18.0416,-32.7664],[18.0141,-32.7499],[18.0107,-32.7428],[18.0153,-32.7404],[17.9786,-32.7254],[17.9748,-32.7184],[17.9794,-32.715],[17.9775,-32.7103],[17.9813,-32.7045],[17.9733,-32.705],[17.9674,-32.7004],[17.9677,-32.7058],[17.9612,-32.7148],[17.9486,-32.7223],[17.9411,-32.7213],[17.9397,-32.7155],[17.9305,-32.7198],[17.9206,-32.7139],[17.9235,-32.7196],[17.9219,-32.7259],[17.9167,-32.7278],[17.9121,-32.735],[17.9036,-32.7357],[17.8952,-32.7422],[17.8951,-32.7491],[17.9018,-32.7546],[17.9069,-32.7679],[17.9077,-32.7874],[17.9026,-32.8009],[17.8898,-32.8079],[17.8851,-32.8073],[17.8827,-32.8024],[17.881,-32.8124],[17.8724,-32.8154],[17.8677,-32.8126],[17.8592,-32.8194],[17.8541,-32.8165],[17.851,-32.8234],[17.844,-32.8248],[17.8459,-32.8289],[17.8483,-32.8279],[17.8482,-32.8325],[17.8618,-32.8399],[17.8595,-32.8433],[17.866,-32.8419],[17.8792,-32.851],[17.8829,-32.863],[17.8804,-32.8682],[17.8836,-32.8686],[17.8847,-32.8735],[17.8817,-32.8821],[17.8781,-32.8857],[17.8648,-32.8882],[17.8659,-32.8913],[17.8628,-32.8921],[17.8684,-32.8962],[17.8568,-32.9057],[17.8601,-32.9111],[17.8668,-32.9101],[17.8716,-32.9164],[17.8788,-32.919],[17.8844,-32.9313],[17.8865,-32.9479],[17.8785,-32.9559],[17.8837,-32.9589],[17.8813,-32.9651],[17.8876,-32.9652],[17.8844,-32.9757],[17.8801,-32.9767],[17.8863,-32.9785],[17.8768,-32.9843],[17.8762,-32.9894],[17.8715,-32.9928],[17.8771,-33.005],[17.8813,-33.0061],[17.8841,-33.0016],[17.8894,-33.0018],[17.898,-33.0065],[17.9032,-33.0152],[17.8999,-33.0274],[17.8894,-33.0269],[17.8971,-33.0359],[17.8935,-33.041],[17.9017,-33.0402],[17.9041,-33.0474],[17.9111,-33.0518],[17.9256,-33.0418],[17.9382,-33.0381],[17.9336,-33.0323],[17.9347,-33.0292],[17.9476,-33.0256],[17.9687,-33.0338],[17.9702,-33.0414],[17.9643,-33.0422],[17.9705,-33.045],[17.973,-33.0352],[17.9649,-33.0294],[17.9637,-33.0245],[17.9587,-33.0267],[17.948,-33.0211],[17.9511,-33.0112],[17.9461,-33.0073],[17.9542,-33.0001],[17.9682,-32.9962],[17.9884,-32.996],[17.9964,-32.9999],[17.9834,-33.0321],[17.9974,-33.0078],[18.0105,-33.0086],[18.0301,-33.0239],[18.037,-33.0381],[18.0362,-33.0444],[18.0409,-33.0462],[18.0428,-33.0516],[18.0402,-33.0689],[18.0279,-33.0843],[18.0323,-33.1054],[18.0476,-33.1146],[18.0601,-33.1291],[18.0901,-33.1425],[18.0933,-33.1514],[18.0978,-33.1529],[18.0896,-33.1641],[18.0946,-33.1645],[18.0961,-33.1685],[18.0899,-33.1671],[18.0887,-33.17],[18.0853,-33.1647],[18.0815,-33.1669],[18.083,-33.1716],[18.0875,-33.1752],[18.1026,-33.1769],[18.1056,-33.1787],[18.1033,-33.1817],[18.1092,-33.1852],[18.1117,-33.1856],[18.1068,-33.1831],[18.1103,-33.1797],[18.1239,-33.1805],[18.1255,-33.1863],[18.1223,-33.1933],[18.1079,-33.2021],[18.0948,-33.2039],[18.0897,-33.1988],[18.0904,-33.1901],[18.0807,-33.1823],[18.0645,-33.1756],[18.0591,-33.1677],[18.0494,-33.1614],[18.05,-33.1545],[18.0406,-33.1532],[18.025,-33.1447],[18.0233,-33.1412],[18.0307,-33.1283],[18.0133,-33.1209],[18.0145,-33.1124],[18.0101,-33.1012],[18.0132,-33.0956],[18.0047,-33.0927],[17.9819,-33.0948],[17.9851,-33.0895],[18.0045,-33.0877],[18.002,-33.0812],[18.0046,-33.0786],[17.995,-33.0772],[17.9952,-33.0701],[17.9722,-33.0677],[17.976,-33.072],[17.9735,-33.0759],[17.9756,-33.0817],[17.9798,-33.0842],[17.9785,-33.0925],[17.9663,-33.0995],[17.9583,-33.0957],[17.9582,-33.1023],[17.9522,-33.107],[17.9728,-33.118],[17.9764,-33.1282],[17.9706,-33.1314],[17.9707,-33.1375],[17.9782,-33.1423],[17.9978,-33.1458],[17.999,-33.1492],[18.0057,-33.1484],[18.0154,-33.1555],[18.0594,-33.1913],[18.1065,-33.2407],[18.1325,-33.2765],[18.1574,-33.3234],[18.1601,-33.3431],[18.1472,-33.3467],[18.1472,-33.3548],[18.1535,-33.3562],[18.1623,-33.3682],[18.2123,-33.3945],[18.2388,-33.4134],[18.2744,-33.4452],[18.3046,-33.4816],[18.3074,-33.4815],[18.3104,-33.4966],[18.3164,-33.497],[18.3129,-33.5071],[18.3253,-33.5166],[18.3183,-33.5226],[18.3149,-33.5312],[18.3182,-33.5401],[18.3119,-33.5409],[18.3129,-33.5463],[18.3101,-33.5478],[18.3089,-33.5561],[18.3118,-33.5626],[18.3079,-33.5645],[18.311,-33.5689],[18.3235,-33.5754],[18.3268,-33.5699],[18.3308,-33.5719],[18.3358,-33.5691],[18.3416,-33.5724],[18.3413,-33.5586],[18.3604,-33.5489],[18.3594,-33.5423],[18.3691,-33.5253],[18.3837,-33.5117],[18.3888,-33.5089],[18.4025,-33.5143],[18.4262,-33.5112],[18.4399,-33.4979],[18.4555,-33.4713],[18.4848,-33.4777],[18.5094,-33.4895],[18.5245,-33.5036],[18.5242,-33.5252],[18.5365,-33.5271],[18.564,-33.5235],[18.5764,-33.5315],[18.58,-33.5577],[18.5686,-33.5621],[18.5744,-33.5735],[18.6059,-33.5855],[18.618,-33.5844],[18.6221,-33.6145],[18.627,-33.6246],[18.645,-33.6357],[18.6554,-33.6341],[18.6692,-33.6489],[18.6709,-33.6474],[18.6897,-33.6652],[18.6927,-33.6813],[18.7069,-33.6813],[18.7119,-33.6759],[18.7367,-33.687],[18.752,-33.6768],[18.7542,-33.6649],[18.7598,-33.6656],[18.7632,-33.6489],[18.7781,-33.6491],[18.8182,-33.5952],[18.8363,-33.6044],[18.8383,-33.5897],[18.8419,-33.5887],[18.8393,-33.5776],[18.8559,-33.5692],[18.8623,-33.5754],[18.8928,-33.5715],[18.8997,-33.5511],[18.9135,-33.5514],[18.9381,-33.546],[18.9314,-33.5249],[18.9399,-33.5214],[18.9362,-33.5067],[18.9398,-33.4994],[18.9341,-33.4922],[18.938,-33.4701],[18.9398,-33.4664],[18.9542,-33.4619],[18.9486,-33.4565],[18.9492,-33.4521],[18.9596,-33.4426],[18.9553,-33.4302],[18.9583,-33.4279],[18.97,-33.4299],[18.9674,-33.4213],[18.9772,-33.4075],[18.9824,-33.407],[18.9783,-33.3993],[18.9924,-33.3944],[18.9887,-33.3889],[18.993,-33.3821],[18.9847,-33.3784],[18.9939,-33.3659],[18.9858,-33.3618],[18.9928,-33.3537],[18.9792,-33.3417],[18.9899,-33.3316],[18.9803,-33.3285],[18.9784,-33.3189],[18.984,-33.3131],[18.9962,-33.3135],[18.9974,-33.3079],[18.9885,-33.3053],[18.9897,-33.2995],[18.9796,-33.2969],[18.9808,-33.292],[18.9731,-33.2879],[18.9761,-33.2819],[18.9743,-33.2771],[18.9664,-33.2742],[18.9641,-33.2675],[18.952,-33.2666],[18.9545,-33.2592],[18.9457,-33.253],[18.9507,-33.2475],[18.9475,-33.2391],[18.9564,-33.2336],[18.9571,-33.2218],[18.9435,-33.2086],[18.9481,-33.2051],[18.9471,-33.2024],[18.9318,-33.2018],[18.9565,-33.1881],[18.956,-33.1674],[18.9801,-33.1521],[19.0001,-33.1455],[19.0198,-33.1417],[19.051,-33.142],[19.0896,-33.1141],[19.1462,-33.1061],[19.173,-33.0919],[19.1774,-33.06],[19.1655,-33.0354],[19.1537,-32.984],[19.1861,-32.8682],[19.1844,-32.8271],[19.1706,-32.7958],[19.1718,-32.7368],[19.2086,-32.731],[19.2048,-32.7111],[19.143,-32.6214],[19.1376,-32.6046],[19.1564,-32.6043],[19.1486,-32.5857],[19.1592,-32.5719],[19.2026,-32.5776],[19.2231,-32.5747],[19.2647,-32.5887],[19.2812,-32.5814],[19.3201,-32.5746],[19.3412,-32.5831],[19.3569,-32.6164],[19.3712,-32.6089],[19.3961,-32.6067],[19.419,-32.6223],[19.4379,-32.6259],[19.4413,-32.6381],[19.4533,-32.6257],[19.4522,-32.6078],[19.4608,-32.6076],[19.4756,-32.5969],[19.485,-32.58]]],[[[18.0743,-33.4126],[18.0737,-33.4172],[18.0847,-33.4284],[18.0823,-33.4326],[18.0985,-33.4315],[18.0892,-33.4134],[18.0827,-33.4186],[18.0743,-33.4126]]],[[[17.9535,-33.0801],[17.9506,-33.0817],[17.9553,-33.0875],[17.96,-33.0851],[17.9535,-33.0801]]],[[[18.0211,-33.088],[18.0178,-33.0931],[18.0241,-33.0944],[18.0264,-33.0911],[18.0211,-33.088]]],[[[17.9253,-33.0506],[17.9238,-33.0545],[17.9293,-33.0533],[17.9279,-33.051],[17.9253,-33.0506]]],[[[17.9859,-33.1507],[17.9804,-33.1507],[17.9791,-33.1521],[17.9852,-33.1544],[17.9859,-33.1507]]],[[[18.0108,-33.085],[18.0059,-33.0858],[18.0108,-33.0868],[18.0108,-33.085]]],[[[17.9934,-33.1471],[17.9909,-33.1465],[17.9913,-33.148],[17.9934,-33.1471]]]]}}]}