{"type":"FeatureCollection","features":[{"type":"Feature","properties":{"name":"Beaufort West","district":"Central Karoo"},"geometry":{"type":"Polygon","coordinates":[[[22.9341,-33.0217],[22.9352,-33.013],[22.9693,-32.9934],[22.9488,-32.95],[23.0037,-32.8983],[23.0074,-32.8728],[23.098,-32.8737],[23.1164,-32.858],[23.0894,-32.7992],[23.1493,-32.7667],[23.1875,-32.7674],[23.2011,-32.7854],[23.2504,-32.7886],[23.3052,-32.8095],[23.3786,-32.825],[23.3977,-32.7635],[23.3516,-32.7638],[23.3535,-32.7294],[23.3329,-32.7036],[23.2696,-32.6715],[23.3013,-32.6518],[23.3073,-32.6116],[23.2882,-32.5512],[23.2445,-32.5132],[23.2475,-32.4653],[23.2216,-32.425],[23.2721,-32.4007],[23.2872,-32.4042],[23.3073,-32.3959],[23.3331,-32.3511],[23.3493,-32.3644],[23.4099,-32.3892],[23.4247,-32.3562],[23.449,-32.3233],[23.5236,-32.3288],[23.5918,-32.3408],[23.6651,-32.3442],[23.6784,-32.3291],[23.6489,-32.298],[23.6705,-32.2377],[23.6924,-32.2335],[23.7082,-32.2192],[23.7471,-32.2007],[23.7662,-32.1787],[23.7979,-32.1941],[23.8511,-32.2425],[23.8645,-32.249],[23.8923,-32.2549],[23.921,-32.2334],[23.9352,-32.232],[23.9611,-32.2065],[23.9845,-32.1966],[24.0305,-32.1935],[24.0439,-32.1819],[24.038,-32.1581],[24.1001,-32.164],[24.1129,-32.1509],[24.1022,-32.1488],[24.1176,-32.1352],[24.1304,-32.132],[24.1355,-32.1231],[24.1354,-32.0979],[24.1097,-32.0843],[24.0979,-32.1108],[24.0979,-32.0852],[24.1029,-32.0699],[24.1044,-32.0676],[24.1126,-32.07],[24.1119,-32.0616],[24.1233,-32.0559],[24.1348,-32.0602],[24.1411,-32.0514],[24.1286,-32.0413],[24.1409,-32.0117],[24.1745,-32.0199],[24.1749,-32.0126],[24.1894,-32.0122],[24.1878,-32.0082],[24.1937,-32.0048],[24.183,-31.9959],[24.2224,-31.9556],[24.2054,-31.9417],[24.1998,-31.9426],[24.188,-31.9336],[24.1912,-31.9268],[24.1972,-31.9235],[24.1642,-31.9024],[24.1472,-31.8969],[24.1468,-31.9027],[24.1386,-31.9054],[24.1054,-31.9069],[24.1048,-31.8868],[24.1083,-31.8861],[24.1238,-31.8472],[24.1533,-31.8549],[24.1548,-31.8225],[24.1797,-31.8194],[24.1837,-31.8133],[24.1543,-31.7983],[24.1525,-31.7886],[24.1022,-31.7926],[24.0709,-31.8071],[24.0561,-31.776],[24.0431,-31.7673],[24.0285,-31.7302],[24.0291,-31.722],[24.0467,-31.7067],[23.9631,-31.7067],[23.9665,-31.7154],[23.9513,-31.7495],[23.9487,-31.7733],[23.9179,-31.7954],[23.9159,-31.822],[23.894,-31.8368],[23.8786,-31.8337],[23.8379,-31.7833],[23.8294,-31.7803],[23.8372,-31.7679],[23.8085,-31.7637],[23.8476,-31.7292],[23.8416,-31.7151],[23.8157,-31.7142],[23.7775,-31.6971],[23.7565,-31.6957],[23.7345,-31.6546],[23.7151,-31.647],[23.6395,-31.6601],[23.6191,-31.6494],[23.5945,-31.6623],[23.5745,-31.6892],[23.5355,-31.6918],[23.5239,-31.7053],[23.4961,-31.7027],[23.4231,-31.6821],[23.4165,-31.6722],[23.4017,-31.6996],[23.4071,-31.7138],[23.3451,-31.7109],[23.3024,-31.7301],[23.2634,-31.7783],[23.2624,-31.8154],[23.225,-31.854],[23.2304,-31.8757],[23.1712,-31.9181],[23.1394,-31.9515],[23.1188,-31.9601],[23.1043,-31.9606],[23.0985,-31.9777],[23.0876,-31.9723],[23.0709,-31.9538],[23.0587,-31.9548],[23.0526,-31.9398],[23.0523,-31.9103],[23.0674,-31.8907],[23.0387,-31.8774],[22.9758,-31.8608],[22.9538,-31.863],[22.902,-31.8758],[22.8747,-31.8616],[22.859,-31.8183],[22.8253,-31.8377],[22.7769,-31.8569],[22.7351,-31.7994],[22.6515,-31.8217],[22.6449,-31.8145],[22.6353,-31.8149],[22.6307,-31.8235],[22.6149,-31.8229],[22.5783,-31.8055],[22.6191,-31.7247],[22.5661,-31.7132],[22.5648,-31.6779],[22.4958,-31.6703],[22.4332,-31.6382],[22.3551,-31.6054],[22.3123,-31.5835],[22.2729,-31.5925],[22.2601,-31.6625],[22.2499,-31.6647],[22.2374,-31.703],[22.204,-31.764],[22.2063,-31.7923],[22.1599,-31.8097],[22.1769,-31.8207],[22.1666,-31.8931],[22.1315,-31.8843],[22.1159,-31.8626],[22.0789,-31.8549],[22.084,-31.8759],[22.1,-31.8924],[22.1017,-31.9005],[22.1004,-31.9243],[22.0713,-31.9393],[22.0892,-31.9744],[22.095,-32.0011],[22.0741,-32.0179],[22.0936,-32.0459],[22.134,-32.0644],[22.12,-32.077],[22.0897,-32.1464],[22.0696,-32.0814],[22.0164,-32.1143],[21.9995,-32.206],[21.9959,-32.203],[21.9712,-32.2164],[21.9362,-32.2229],[21.9246,-32.262],[21.9074,-32.2528],[21.9017,-32.2709],[21.8742,-32.2766],[21.8551,-32.2755],[21.7806,-32.2509],[21.7702,-32.2384],[21.773,-32.2268],[21.746,-32.2252],[21.7359,-32.205],[21.7114,-32.2248],[21.6916,-32.2486],[21.6738,-32.2433],[21.6446,-32.2087],[21.6065,-32.2097],[21.5786,-32.2215],[21.536,-32.2292],[21.549,-32.2908],[21.5618,-32.3147],[21.5504,-32.3269],[21.5191,-32.337],[21.4756,-32.3315],[21.4437,-32.3548],[21.4299,-32.3752],[21.4084,-32.3688],[21.3528,-32.3915],[21.3015,-32.3773],[21.303,-32.4024],[21.2815,-32.4397],[21.2695,-32.4503],[21.2311,-32.4631],[21.1975,-32.4998],[21.1883,-32.503],[21.1876,-32.5096],[21.1918,-32.5137],[21.2267,-32.5218],[21.2345,-32.5294],[21.2366,-32.537],[21.2505,-32.5479],[21.2638,-32.5477],[21.2896,-32.5578],[21.3005,-32.575],[21.2948,-32.5851],[21.2956,-32.5909],[21.3091,-32.5984],[21.325,-32.6142],[21.3244,-32.6181],[21.3325,-32.6262],[21.3374,-32.6396],[21.3507,-32.6525],[21.3522,-32.6577],[21.4266,-32.6671],[21.4249,-32.7059],[21.4321,-32.7567],[21.4798,-32.7866],[21.5247,-32.7591],[21.5771,-32.7595],[21.649,-32.7282],[21.6912,-32.7144],[21.6828,-32.6844],[21.7178,-32.6416],[21.7484,-32.6376],[21.7604,-32.6584],[21.8765,-32.6255],[21.9144,-32.6193],[21.9459,-32.6098],[21.9938,-32.576],[22.0334,-32.5549],[22.0366,-32.5997],[22.0719,-32.6427],[22.0431,-32.6724],[22.012,-32.7242],[22.065,-32.7106],[22.1242,-32.7328],[22.1914,-32.7906],[22.2173,-32.7441],[22.3013,-32.7399],[22.2993,-32.7569],[22.3154,-32.7823],[22.3213,-32.8206],[22.384,-32.8708],[22.4557,-32.8765],[22.5219,-32.864],[22.5174,-32.8927],[22.6646,-32.9288],[22.7832,-32.9306],[22.7678,-32.9785],[22.8003,-32.9853],[22.8354,-33.0377],[22.8775,-33.031],[22.873,-33.0244],[22.912,-33.0145],[22.9341,-33.0217]]]}},{"type":"Feature","properties":{"name":"Bergrivier","district":"West Coast"},"geometry":{"type":"Polygon","coordinates":[[[19.1844,-32.8271],[19.1505,-32.8721],[19.1207,-32.8779],[19.1084,-32.8758],[19.0986,-32.8791],[19.0818,-32.8667],[19.0828,-32.8562],[19.0686,-32.8553],[19.0563,-32.8593],[19.0643,-32.8346],[19.0357,-32.8489],[19.0341,-32.8256],[19.0411,-32.8242],[19.0348,-32.7858],[19.0239,-32.7973],[19.0206,-32.7786],[19.0329,-32.7783],[19.0314,-32.7725],[19.0191,-32.77],[19.0072,-32.7162],[18.973,-32.6705],[18.9655,-32.6539],[18.9607,-32.633],[18.9631,-32.6173],[18.9499,-32.5991],[18.931,-32.6068],[18.9058,-32.5749],[18.8862,-32.5556],[18.8655,-32.5424],[18.8673,-32.5391],[18.8489,-32.5218],[18.8277,-32.5113],[18.7866,-32.5204],[18.7831,-32.5297],[18.7914,-32.5594],[18.8039,-32.572],[18.7684,-32.5653],[18.7249,-32.5665],[18.7079,-32.5576],[18.7063,-32.5367],[18.6852,-32.5191],[18.6622,-32.4909],[18.6727,-32.4699],[18.6576,-32.4612],[18.6427,-32.456],[18.6067,-32.4643],[18.5913,-32.4648],[18.5752,-32.48],[18.571,-32.4769],[18.5719,-32.4541],[18.558,-32.4524],[18.541,-32.4441],[18.5197,-32.4495],[18.5009,-32.434],[18.4928,-32.4383],[18.4585,-32.4764],[18.3988,-32.4255],[18.3345,-32.4429],[18.3324,-32.4934],[18.3241,-32.5348],[18.309,-32.5768],[18.2842,-32.6255],[18.2435,-32.6816],[18.2291,-32.6948],[18.1998,-32.7141],[18.167,-32.7542],[18.1389,-32.7733],[18.1248,-32.7778],[18.1157,-32.8062],[18.101,-32.8252],[18.1245,-32.8105],[18.1551,-32.8133],[18.1482,-32.8345],[18.1449,-32.8371],[18.1717,-32.8511],[18.1964,-32.8559],[18.1817,-32.8655],[18.1709,-32.8641],[18.1641,-32.8883],[18.2053,-32.8918],[18.2003,-32.9022],[18.2328,-32.8968],[18.2416,-32.9137],[18.2404,-32.9323],[18.2719,-32.9533],[18.2926,-32.962],[18.3401,-32.9465],[18.3411,-32.9426],[18.3622,-32.9442],[18.368,-32.9376],[18.3684,-32.957],[18.3728,-32.9585],[18.3992,-32.9576],[18.4052,-32.9433],[18.4113,-32.9438],[18.4146,-32.9535],[18.4232,-32.9448],[18.4444,-32.9461],[18.4452,-32.9381],[18.4552,-32.9393],[18.4539,-32.9517],[18.4562,-32.9546],[18.47,-32.9447],[18.4896,-32.9538],[18.4978,-32.9457],[18.5076,-32.9486],[18.5142,-32.9428],[18.5274,-32.9437],[18.5322,-32.9399],[18.5479,-32.94],[18.5534,-32.9317],[18.5482,-32.921],[18.5504,-32.917],[18.5603,-32.9171],[18.5658,-32.9117],[18.5726,-32.9134],[18.5728,-32.9031],[18.5884,-32.9002],[18.5968,-32.9014],[18.6081,-32.9199],[18.6136,-32.9139],[18.6255,-32.9186],[18.6361,-32.9129],[18.6547,-32.9152],[18.6584,-32.9192],[18.6701,-32.9218],[18.6775,-32.9207],[18.6759,-32.9293],[18.6829,-32.9441],[18.6885,-32.9386],[18.6937,-32.9451],[18.704,-32.9457],[18.7128,-32.951],[18.7266,-32.9505],[18.748,-32.9729],[18.7548,-32.9727],[18.758,-32.9801],[18.7717,-32.9862],[18.7735,-32.9922],[18.7826,-32.9999],[18.7894,-33.0281],[18.7944,-33.0291],[18.8014,-33.0238],[18.8062,-33.0294],[18.8159,-33.0311],[18.811,-33.0377],[18.8107,-33.0458],[18.8057,-33.0503],[18.8159,-33.0518],[18.8195,-33.0552],[18.8228,-33.0655],[18.8211,-33.0715],[18.8315,-33.0696],[18.8295,-33.0811],[18.8355,-33.0861],[18.8345,-33.0957],[18.8416,-33.0988],[18.8446,-33.1173],[18.8555,-33.119],[18.8524,-33.1254],[18.8541,-33.1294],[18.8634,-33.1311],[18.8603,-33.1351],[18.8645,-33.1405],[18.8641,-33.1458],[18.8706,-33.1494],[18.8789,-33.1475],[18.8866,-33.1591],[18.912,-33.1582],[18.9104,-33.1645],[18.9182,-33.1708],[18.9214,-33.1862],[18.9405,-33.1967],[18.9565,-33.1881],[18.956,-33.1674],[18.9801,-33.1521],[19.0198,-33.1417],[19.051,-33.142],[19.0896,-33.1141],[19.1462,-33.1061],[19.173,-33.0919],[19.1774,-33.06],[19.1655,-33.0354],[19.1537,-32.984],[19.1861,-32.8682],[19.1844,-32.8271]]]}},{"type":"Feature","properties":{"name":"Bitou","district":"Garden Route"},"geometry":{"type":"Polygon","coordinates":[[[23.1641,-34.0831],[23.1718,-34.0864],[23.1995,-34.0846],[23.2089,-34.0864],[23.2149,-34.0912],[23.2248,-34.0869],[23.2433,-34.0936],[23.2576,-34.0921],[23.2705,-34.0998],[23.279,-34.0984],[23.2864,-34.1017],[23.2913,-34.0996],[23.3063,-34.1032],[23.3218,-34.0993],[23.3305,-34.1025],[23.3453,-34.1007],[23.3584,-34.1065],[23.3698,-34.1013],[23.383,-34.1019],[23.3878,-34.1054],[23.3869,-34.1088],[23.3908,-34.108],[23.3906,-34.1053],[23.4068,-34.1114],[23.4125,-34.1071],[23.3978,-34.1008],[23.3755,-34.0982],[23.3715,-34.0861],[23.3735,-34.0731],[23.381,-34.0605],[23.3788,-34.0608],[23.3783,-34.0551],[23.3813,-34.0534],[23.3779,-34.0512],[23.3845,-34.0401],[23.3966,-34.0298],[23.4227,-34.0142],[23.4523,-34.005],[23.5294,-33.9997],[23.5362,-33.9897],[23.5474,-33.9888],[23.5565,-33.9827],[23.5751,-33.9817],[23.5799,-33.9846],[23.5991,-33.98],[23.6167,-33.979],[23.6361,-33.9825],[23.647,-33.9806],[23.6459,-33.9624],[23.6426,-33.9564],[23.6346,-33.9521],[23.637,-33.9347],[23.6399,-33.931],[23.6446,-33.931],[23.6401,-33.9238],[23.6433,-33.9215],[23.642,-33.918],[23.6374,-33.913],[23.6396,-33.9098],[23.6567,-33.9071],[23.6566,-33.902],[23.6476,-33.8967],[23.6478,-33.8927],[23.6518,-33.8925],[23.6564,-33.8868],[23.683,-33.8839],[23.6943,-33.868],[23.7033,-33.8641],[23.6203,-33.8432],[23.6081,-33.8329],[23.5619,-33.8289],[23.554,-33.7964],[23.5573,-33.7934],[23.5188,-33.7821],[23.5179,-33.7856],[23.488,-33.7915],[23.4891,-33.8075],[23.468,-33.8075],[23.417,-33.7947],[23.395,-33.7926],[23.3255,-33.7991],[23.3344,-33.8566],[23.2839,-33.8438],[23.2888,-33.8658],[23.2794,-33.8771],[23.229,-33.8783],[23.2385,-33.8946],[23.2485,-33.8995],[23.2225,-33.9086],[23.2209,-33.9288],[23.241,-33.973],[23.2107,-33.9629],[23.1845,-33.9814],[23.1687,-34.0063],[23.1785,-34.0457],[23.1641,-34.0831]]]}},{"type":"Feature","properties":{"name":"Breede Valley","district":"Cape Winelands"},"geometry":{"type":"Polygon","coordinates":[[[20.3157,-33.502],[20.3861,-33.4592],[20.4198,-33.453],[20.4275,-33.4489],[20.4167,-33.4355],[20.4081,-33.4343],[20.3898,-33.4241],[20.3356,-33.4256],[20.3489,-33.4049],[20.3456,-33.3943],[20.3537,-33.3941],[20.3663,-33.3816],[20.368,-33.3663],[20.2092,-33.3798],[20.2395,-33.3099],[20.2035,-33.3027],[20.2512,-33.2915],[20.2356,-33.2624],[20.2471,-33.2458],[20.244,-33.2365],[20.258,-33.1884],[20.2022,-33.1701],[20.1461,-33.1735],[20.1202,-33.1916],[20.087,-33.1933],[20.0138,-33.2388],[19.9976,-33.2591],[19.9891,-33.2872],[19.972,-33.3168],[19.9554,-33.3177],[19.9344,-33.348],[19.9085,-33.3627],[19.8298,-33.381],[19.8199,-33.3769],[19.7545,-33.3726],[19.6687,-33.3819],[19.5807,-33.3645],[19.5671,-33.382],[19.5497,-33.3953],[19.5379,-33.4264],[19.4732,-33.4617],[19.4053,-33.4805],[19.3954,-33.5574],[19.3672,-33.5678],[19.3723,-33.5776],[19.3755,-33.5767],[19.3811,-33.5837],[19.3767,-33.5883],[19.3786,-33.6191],[19.3623,-33.624],[19.3481,-33.6008],[19.328,-33.599],[19.3227,-33.6034],[19.3231,-33.5993],[19.3167,-33.5975],[19.3113,-33.6071],[19.2867,-33.6067],[19.28,-33.6139],[19.2766,-33.6102],[19.2885,-33.5979],[19.2786,-33.5872],[19.2774,-33.59],[19.2521,-33.5797],[19.2395,-33.5588],[19.2219,-33.5624],[19.1987,-33.5572],[19.1854,-33.562],[19.1694,-33.5975],[19.1402,-33.5647],[19.107,-33.5411],[19.1045,-33.5586],[19.1065,-33.5901],[19.102,-33.6068],[19.1268,-33.6391],[19.1475,-33.6561],[19.1488,-33.7022],[19.184,-33.7154],[19.1881,-33.7539],[19.214,-33.8571],[19.2438,-33.8974],[19.2653,-33.9003],[19.2584,-33.8831],[19.2782,-33.8795],[19.2974,-33.8897],[19.3105,-33.9137],[19.3128,-33.935],[19.3189,-33.9472],[19.3251,-33.9521],[19.3359,-33.9582],[19.3486,-33.9552],[19.3618,-33.9715],[19.4005,-33.9855],[19.4558,-33.9999],[19.5069,-33.9717],[19.5454,-33.9156],[19.5323,-33.8784],[19.5626,-33.8664],[19.5618,-33.8595],[19.5658,-33.8492],[19.566,-33.8637],[19.5979,-33.8782],[19.5945,-33.8542],[19.6285,-33.8348],[19.6527,-33.8346],[19.6522,-33.8136],[19.683,-33.7995],[19.6704,-33.782],[19.6596,-33.7751],[19.6828,-33.7488],[19.6898,-33.7524],[19.702,-33.7464],[19.6912,-33.7394],[19.7021,-33.7184],[19.69,-33.7043],[19.695,-33.6797],[19.7148,-33.6752],[19.7175,-33.6602],[19.7412,-33.6496],[19.6996,-33.6379],[19.6669,-33.6157],[19.651,-33.6096],[19.6452,-33.6046],[19.6504,-33.5935],[19.6244,-33.5679],[19.6026,-33.5619],[19.6376,-33.5366],[19.6907,-33.5277],[19.7363,-33.5373],[19.7477,-33.5303],[19.7552,-33.5367],[19.775,-33.5333],[19.7985,-33.5379],[19.8388,-33.5659],[19.8652,-33.57],[19.8701,-33.5421],[19.9171,-33.5193],[19.9257,-33.5333],[19.9587,-33.5176],[19.9833,-33.5333],[19.9925,-33.5568],[20.0487,-33.5516],[20.0631,-33.5429],[20.0781,-33.553],[20.1054,-33.5507],[20.1254,-33.5563],[20.1611,-33.5364],[20.1731,-33.5262],[20.2149,-33.5413],[20.2415,-33.538],[20.2678,-33.5129],[20.3157,-33.502]]]}},{"type":"Feature","properties":{"name":"Cape Agulhas","district":"Overberg"},"geometry":{"type":"Polygon","coordinates":[[[20.8714,-34.4524],[20.8181,-34.443],[20.8168,-34.4289],[20.7821,-34.4242],[20.775,-34.4265],[20.7629,-34.4172],[20.7118,-34.4126],[20.6878,-34.4176],[20.6829,-34.3888],[20.6593,-34.3991],[20.6009,-34.3826],[20.6026,-34.3798],[20.5611,-34.3633],[20.5317,-34.3605],[20.5271,-34.3614],[20.5282,-34.3646],[20.5194,-34.3658],[20.5178,-34.3732],[20.4834,-34.3729],[20.4848,-34.4013],[20.5,-34.406],[20.5085,-34.4195],[20.4547,-34.417],[20.4186,-34.4268],[20.4198,-34.4186],[20.392,-34.4263],[20.3573,-34.3884],[20.2891,-34.4178],[20.2715,-34.375],[20.2637,-34.375],[20.2863,-34.3452],[20.2857,-34.3371],[20.2818,-34.338],[20.2675,-34.3136],[20.2827,-34.302],[20.2913,-34.2763],[20.2621,-34.2742],[20.2448,-34.2889],[20.2119,-34.2883],[20.1772,-34.2752],[20.175,-34.2794],[20.1486,-34.2712],[20.134,-34.2504],[20.1113,-34.2427],[20.0948,-34.2506],[20.0655,-34.2413],[20.0635,-34.217],[20.0324,-34.2036],[20.011,-34.2206],[19.9778,-34.2132],[19.94,-34.2396],[19.9177,-34.2383],[19.8804,-34.2201],[19.8561,-34.2336],[19.8502,-34.2588],[19.8458,-34.2615],[19.8375,-34.2603],[19.8468,-34.262],[19.8501,-34.2596],[19.8454,-34.2804],[19.8052,-34.2786],[19.7977,-34.2846],[19.7944,-34.3207],[19.7746,-34.3328],[19.7606,-34.3306],[19.7409,-34.3126],[19.7342,-34.3166],[19.7052,-34.3501],[19.6918,-34.3489],[19.6808,-34.3533],[19.675,-34.3605],[19.6684,-34.3572],[19.6645,-34.3439],[19.6722,-34.3273],[19.6692,-34.3211],[19.6575,-34.3173],[19.6424,-34.3395],[19.6419,-34.3368],[19.6358,-34.342],[19.6275,-34.3408],[19.6282,-34.3444],[19.6183,-34.3495],[19.6174,-34.3528],[19.6351,-34.3563],[19.6303,-34.3651],[19.6356,-34.3631],[19.6411,-34.372],[19.6371,-34.3788],[19.6288,-34.3803],[19.6172,-34.3994],[19.6246,-34.4032],[19.6269,-34.4169],[19.6242,-34.4187],[19.6637,-34.4167],[19.6747,-34.4308],[19.6959,-34.4322],[19.7027,-34.4436],[19.6947,-34.4601],[19.6987,-34.4663],[19.7133,-34.4686],[19.6867,-34.5165],[19.7027,-34.5381],[19.6922,-34.5479],[19.6882,-34.5622],[19.6936,-34.5756],[19.7043,-34.5828],[19.7095,-34.5963],[19.7197,-34.5998],[19.7102,-34.6303],[19.7202,-34.6442],[19.7146,-34.6878],[19.74,-34.7124],[19.7334,-34.7455],[19.7247,-34.7672],[19.7474,-34.7714],[19.7681,-34.7647],[19.7984,-34.7678],[19.8164,-34.7626],[19.8505,-34.7689],[19.8575,-34.7656],[19.8639,-34.7677],[19.8722,-34.7659],[19.8853,-34.7725],[19.8901,-34.7822],[19.903,-34.784],[19.9211,-34.7952],[19.9429,-34.8162],[19.9552,-34.8149],[19.9589,-34.8207],[19.9678,-34.8235],[19.9649,-34.827],[19.9737,-34.8246],[19.9859,-34.8327],[19.9984,-34.8341],[20.0143,-34.8317],[20.0127,-34.8291],[20.0172,-34.8242],[20.0275,-34.8248],[20.0307,-34.8143],[20.0537,-34.8142],[20.0638,-34.806],[20.0625,-34.8008],[20.0524,-34.7983],[20.0473,-34.7899],[20.0482,-34.7736],[20.0575,-34.7572],[20.0798,-34.7365],[20.1196,-34.7144],[20.1676,-34.6961],[20.2166,-34.688],[20.236,-34.6916],[20.2347,-34.6801],[20.232,-34.6783],[20.2355,-34.6701],[20.2328,-34.6618],[20.2448,-34.6474],[20.2676,-34.6342],[20.3292,-34.6102],[20.3477,-34.5901],[20.3994,-34.5714],[20.4141,-34.553],[20.4221,-34.5336],[20.4385,-34.5159],[20.4618,-34.5],[20.4898,-34.486],[20.5334,-34.47],[20.6165,-34.452],[20.6559,-34.4497],[20.683,-34.4531],[20.6911,-34.4503],[20.7253,-34.455],[20.7311,-34.4512],[20.7367,-34.4556],[20.7812,-34.4609],[20.8204,-34.4719],[20.8389,-34.4703],[20.8478,-34.4749],[20.8561,-34.4649],[20.8695,-34.4659],[20.8655,-34.4584],[20.8714,-34.4524]]]}},{"type":"Feature","properties":{"name":"Cederberg","district":"West Coast"},"geometry":{"type":"Polygon","coordinates":[[[19.1844,-32.8271],[19.1706,-32.7958],[19.1718,-32.7368],[19.2086,-32.731],[19.2048,-32.7111],[19.143,-32.6214],[19.1376,-32.6046],[19.1564,-32.6043],[19.1486,-32.5857],[19.1592,-32.5719],[19.2026,-32.5776],[19.2231,-32.5747],[19.2647,-32.5887],[19.2812,-32.5814],[19.3201,-32.5746],[19.3412,-32.5831],[19.3569,-32.6164],[19.3712,-32.6089],[19.3961,-32.6067],[19.419,-32.6223],[19.4379,-32.6259],[19.4413,-32.6381],[19.4533,-32.6257],[19.4522,-32.6078],[19.4608,-32.6076],[19.4756,-32.5969],[19.485,-32.58],[19.495,-32.4989],[19.5162,-32.4861],[19.5071,-32.4731],[19.4952,-32.4735],[19.4798,-32.4413],[19.4729,-32.4363],[19.4719,-32.4279],[19.4645,-32.4148],[19.443,-32.3881],[19.4347,-32.3732],[19.4353,-32.3683],[19.4302,-32.3657],[19.4091,-32.2901],[19.4919,-32.2517],[19.4951,-32.245],[19.4882,-32.2427],[19.4858,-32.2358],[19.4958,-32.2216],[19.497,-32.2142],[19.4942,-32.2087],[19.5023,-32.2054],[19.4927,-32.1986],[19.5014,-32.1799],[19.4873,-32.1637],[19.4793,-32.1677],[19.484,-32.1616],[19.4752,-32.1463],[19.4911,-32.1301],[19.5083,-32.1259],[19.5152,-32.1152],[19.5075,-32.0861],[19.4885,-32.1212],[19.4834,-32.1137],[19.488,-32.0915],[19.4861,-32.0762],[19.4799,-32.073],[19.4675,-32.0731],[19.4259,-32.0313],[19.3958,-32.0151],[19.3804,-32.0376],[19.363,-32.0428],[19.353,-32.0279],[19.3298,-32.0126],[19.3233,-31.9848],[19.2899,-31.9651],[19.2775,-31.9797],[19.2648,-31.9657],[19.2798,-31.922],[19.2897,-31.863],[19.2107,-31.948],[19.1997,-31.9048],[19.1723,-31.9098],[19.1561,-31.8997],[19.1425,-31.9121],[19.1308,-31.9066],[19.1181,-31.9071],[19.1094,-31.8981],[19.0849,-31.8936],[19.0822,-31.8898],[19.0535,-31.879],[19.0346,-31.8762],[18.9878,-31.8793],[18.9833,-31.8749],[18.985,-31.8692],[18.982,-31.8557],[18.9599,-31.8591],[18.9341,-31.854],[18.9061,-31.8585],[18.8913,-31.8525],[18.8794,-31.8518],[18.8652,-31.8587],[18.8467,-31.859],[18.8236,-31.8686],[18.8152,-31.8627],[18.8036,-31.862],[18.7903,-31.8655],[18.7813,-31.8752],[18.7582,-31.8733],[18.7409,-31.8789],[18.7181,-31.8632],[18.711,-31.8546],[18.7028,-31.8522],[18.689,-31.8661],[18.7072,-31.8967],[18.6557,-31.9312],[18.6647,-31.9557],[18.6229,-31.9563],[18.5612,-31.8789],[18.5454,-31.8844],[18.5109,-31.8837],[18.4992,-31.889],[18.4837,-31.8846],[18.4903,-31.8784],[18.4945,-31.8681],[18.4599,-31.8578],[18.4516,-31.8438],[18.3957,-31.874],[18.436,-31.9041],[18.4361,-31.9111],[18.402,-31.9121],[18.4119,-31.9456],[18.3925,-31.9542],[18.3951,-31.9625],[18.3254,-31.9807],[18.3118,-31.9981],[18.2903,-32.0067],[18.2949,-32.0172],[18.2932,-32.0221],[18.308,-32.052],[18.3147,-32.074],[18.3112,-32.0878],[18.2995,-32.0943],[18.3035,-32.1016],[18.3002,-32.1137],[18.304,-32.1226],[18.3068,-32.1509],[18.3113,-32.1599],[18.311,-32.1764],[18.3253,-32.2032],[18.3241,-32.2096],[18.3365,-32.2434],[18.3444,-32.2788],[18.3441,-32.2937],[18.3375,-32.314],[18.3228,-32.3179],[18.3168,-32.3147],[18.3142,-32.3165],[18.3155,-32.3374],[18.3292,-32.3901],[18.3345,-32.4429],[18.3988,-32.4255],[18.4585,-32.4764],[18.4928,-32.4383],[18.5009,-32.434],[18.5197,-32.4495],[18.541,-32.4441],[18.558,-32.4524],[18.5719,-32.4541],[18.571,-32.4769],[18.5752,-32.48],[18.5913,-32.4648],[18.6067,-32.4643],[18.6427,-32.456],[18.6727,-32.4699],[18.6622,-32.4909],[18.6852,-32.5191],[18.7063,-32.5367],[18.7079,-32.5576],[18.7249,-32.5665],[18.7684,-32.5653],[18.8039,-32.572],[18.7914,-32.5594],[18.7831,-32.5297],[18.7847,-32.5226],[18.8277,-32.5113],[18.8489,-32.5218],[18.8673,-32.5391],[18.8655,-32.5424],[18.8862,-32.5556],[18.9058,-32.5749],[18.931,-32.6068],[18.9499,-32.5991],[18.9631,-32.6173],[18.9607,-32.633],[18.9655,-32.6539],[18.973,-32.6705],[19.0072,-32.7162],[19.0191,-32.77],[19.0314,-32.7725],[19.0329,-32.7783],[19.0206,-32.7786],[19.0239,-32.7973],[19.0348,-32.7858],[19.0411,-32.8242],[19.0341,-32.8256],[19.0357,-32.8489],[19.0643,-32.8346],[19.0563,-32.8593],[19.0686,-32.8553],[19.0828,-32.8562],[19.0818,-32.8667],[19.0986,-32.8791],[19.1084,-32.8758],[19.1207,-32.8779],[19.1505,-32.8721],[19.1844,-32.8271]]]}},{"type":"Feature","properties":{"name":"City of Cape Town","district":"City of Cape Town"},"geometry":{"type":"MultiPolygon","coordinates":[[[[18.7875,-33.6376],[18.7781,-33.6491],[18.7632,-33.6489],[18.7598,-33.6656],[18.7542,-33.6649],[18.752,-33.6768],[18.7367,-33.687],[18.7119,-33.6759],[18.7069,-33.6813],[18.6927,-33.6813],[18.6897,-33.6652],[18.6709,-33.6474],[18.6692,-33.6489],[18.6554,-33.6341],[18.645,-33.6357],[18.627,-33.6246],[18.6221,-33.6145],[18.618,-33.5844],[18.6059,-33.5855],[18.5744,-33.5735],[18.5686,-33.5621],[18.58,-33.5577],[18.5764,-33.5315],[18.564,-33.5235],[18.5365,-33.5271],[18.5242,-33.5252],[18.5245,-33.5036],[18.5094,-33.4895],[18.4957,-33.4811],[18.4555,-33.4713],[18.4399,-33.4979],[18.4262,-33.5112],[18.4025,-33.5143],[18.3888,-33.5089],[18.3837,-33.5117],[18.3691,-33.5253],[18.3594,-33.5423],[18.3604,-33.5489],[18.3413,-33.5586],[18.343,-33.5706],[18.355,-33.5786],[18.3605,-33.5871],[18.3588,-33.5913],[18.3616,-33.5945],[18.357,-33.5989],[18.3679,-33.5996],[18.3777,-33.6187],[18.3956,-33.6234],[18.4202,-33.6576],[18.438,-33.6926],[18.4442,-33.72],[18.4352,-33.7316],[18.4355,-33.736],[18.4415,-33.7471],[18.4432,-33.7629],[18.4588,-33.7977],[18.4575,-33.8002],[18.4685,-33.8102],[18.4821,-33.8337],[18.4887,-33.8519],[18.4895,-33.8675],[18.4842,-33.8909],[18.4722,-33.9077],[18.4667,-33.9118],[18.4557,-33.9124],[18.4446,-33.9067],[18.455,-33.9155],[18.4501,-33.9196],[18.4482,-33.9162],[18.4374,-33.9088],[18.4461,-33.9152],[18.4436,-33.9183],[18.4459,-33.9203],[18.4423,-33.9205],[18.4422,-33.9187],[18.4385,-33.916],[18.4421,-33.9189],[18.4401,-33.9204],[18.4256,-33.9097],[18.4306,-33.9057],[18.4336,-33.9072],[18.4307,-33.9037],[18.4276,-33.9032],[18.424,-33.9083],[18.4212,-33.9068],[18.4208,-33.9097],[18.4174,-33.9085],[18.4345,-33.8976],[18.4186,-33.9025],[18.4121,-33.8988],[18.3983,-33.9009],[18.3978,-33.9065],[18.3907,-33.9093],[18.386,-33.9172],[18.3773,-33.9221],[18.3784,-33.9266],[18.3749,-33.9292],[18.3775,-33.9379],[18.3716,-33.9421],[18.3787,-33.9497],[18.3748,-33.9539],[18.3773,-33.9584],[18.3725,-33.9596],[18.3709,-33.974],[18.3443,-33.9917],[18.3429,-34.0041],[18.3391,-34.0049],[18.3416,-34.0083],[18.3348,-34.0108],[18.3322,-34.0232],[18.3108,-34.0277],[18.3174,-34.03],[18.3078,-34.0404],[18.3219,-34.0471],[18.3292,-34.0574],[18.3433,-34.0605],[18.3482,-34.0555],[18.3451,-34.0516],[18.3485,-34.0472],[18.3573,-34.0457],[18.3688,-34.0627],[18.3641,-34.0725],[18.3552,-34.0768],[18.3532,-34.0854],[18.3552,-34.0872],[18.3497,-34.0908],[18.3556,-34.0975],[18.3574,-34.1062],[18.3499,-34.128],[18.3463,-34.1301],[18.3391,-34.1273],[18.3323,-34.1361],[18.3227,-34.1381],[18.3207,-34.1415],[18.3235,-34.1418],[18.3183,-34.1459],[18.338,-34.1769],[18.3438,-34.1796],[18.3472,-34.1763],[18.3533,-34.1773],[18.3628,-34.1844],[18.3705,-34.1961],[18.3704,-34.2104],[18.3787,-34.2303],[18.3765,-34.2401],[18.3811,-34.2513],[18.3783,-34.2533],[18.3828,-34.2563],[18.3803,-34.2615],[18.3843,-34.267],[18.3795,-34.273],[18.3888,-34.2766],[18.3923,-34.286],[18.3968,-34.2884],[18.4049,-34.3034],[18.4004,-34.3077],[18.4146,-34.3166],[18.4153,-34.3213],[18.4287,-34.3314],[18.4435,-34.3374],[18.4572,-34.3386],[18.4592,-34.3444],[18.4664,-34.3479],[18.4728,-34.3574],[18.4815,-34.354],[18.4981,-34.3572],[18.4876,-34.3478],[18.4718,-34.3404],[18.4608,-34.3195],[18.4652,-34.3154],[18.4607,-34.3105],[18.4672,-34.298],[18.4663,-34.2928],[18.4749,-34.2786],[18.4665,-34.2672],[18.4764,-34.2564],[18.4767,-34.2328],[18.4657,-34.2225],[18.4562,-34.2001],[18.4442,-34.1921],[18.4423,-34.1876],[18.4415,-34.1912],[18.4381,-34.1891],[18.4325,-34.1928],[18.4284,-34.1915],[18.4252,-34.1834],[18.4332,-34.166],[18.4312,-34.1606],[18.44,-34.1498],[18.4375,-34.1441],[18.4323,-34.1416],[18.433,-34.1387],[18.4393,-34.1322],[18.4471,-34.1326],[18.4489,-34.1272],[18.4681,-34.1099],[18.4804,-34.1045],[18.5974,-34.0776],[18.6397,-34.073],[18.6877,-34.0748],[18.6947,-34.0721],[18.739,-34.0753],[18.7734,-34.083],[18.8035,-34.0952],[18.813,-34.1002],[18.8232,-34.1159],[18.8559,-34.151],[18.868,-34.1587],[18.8587,-34.166],[18.8309,-34.1762],[18.8214,-34.1832],[18.8184,-34.19],[18.8337,-34.2117],[18.8308,-34.2176],[18.8528,-34.2381],[18.8559,-34.2524],[18.8526,-34.2636],[18.8458,-34.2696],[18.8502,-34.2703],[18.8654,-34.2641],[18.8677,-34.2574],[18.8802,-34.2482],[18.8753,-34.2294],[18.8929,-34.2343],[18.9004,-34.2275],[18.8994,-34.2169],[18.9084,-34.217],[18.9139,-34.2109],[18.9202,-34.2122],[18.9282,-34.2067],[18.931,-34.1959],[18.9344,-34.1967],[18.9419,-34.1889],[18.9544,-34.1838],[18.9543,-34.1736],[18.9625,-34.1777],[18.9803,-34.155],[18.9638,-34.1529],[18.9652,-34.14],[18.9439,-34.1382],[18.9668,-34.1024],[19.0053,-34.0743],[18.9871,-34.0353],[18.9846,-34.0359],[18.9695,-34.0199],[18.952,-34.0083],[18.9274,-33.9999],[18.9178,-34.0092],[18.9227,-34.0139],[18.8972,-34.0264],[18.8926,-34.0255],[18.8852,-34.0303],[18.8848,-34.0342],[18.8553,-34.0309],[18.862,-34.0337],[18.8619,-34.0383],[18.8418,-34.0471],[18.8189,-34.0397],[18.8052,-34.0512],[18.8148,-34.052],[18.8092,-34.0634],[18.806,-34.054],[18.7897,-34.0537],[18.7663,-34.0437],[18.7677,-34.0404],[18.759,-34.0333],[18.7548,-34.0347],[18.7421,-34.0213],[18.7448,-34.0193],[18.742,-34.0135],[18.7474,-34.0104],[18.7459,-34.0064],[18.7518,-34.0053],[18.7377,-33.9893],[18.7454,-33.9874],[18.7283,-33.9693],[18.7335,-33.9659],[18.7308,-33.9628],[18.7369,-33.9406],[18.744,-33.9322],[18.7396,-33.9328],[18.7274,-33.9247],[18.7083,-33.9227],[18.7153,-33.9036],[18.7172,-33.9056],[18.7193,-33.9035],[18.7173,-33.8985],[18.7356,-33.891],[18.7371,-33.8935],[18.7459,-33.8874],[18.7514,-33.8935],[18.7529,-33.8845],[18.7457,-33.874],[18.7458,-33.8603],[18.7531,-33.85],[18.7529,-33.8344],[18.7684,-33.8327],[18.7678,-33.8262],[18.7926,-33.8192],[18.7877,-33.8155],[18.7844,-33.8038],[18.7962,-33.7982],[18.8098,-33.7813],[18.7877,-33.7667],[18.811,-33.7588],[18.8095,-33.7408],[18.833,-33.7382],[18.8182,-33.7223],[18.822,-33.7083],[18.8132,-33.7064],[18.8134,-33.7131],[18.8102,-33.7137],[18.8092,-33.709],[18.8062,-33.7102],[18.804,-33.7059],[18.7946,-33.7068],[18.7937,-33.6794],[18.8021,-33.6737],[18.8219,-33.6418],[18.7875,-33.6376]]],[[[18.3738,-33.7922],[18.3624,-33.7906],[18.3567,-33.8018],[18.3607,-33.8144],[18.3708,-33.8202],[18.3808,-33.8176],[18.3824,-33.8143],[18.3755,-33.8017],[18.378,-33.7985],[18.3753,-33.7987],[18.3738,-33.7922]]]]}},{"type":"Feature","properties":{"name":"Drakenstein","district":"Cape Winelands"},"geometry":{"type":"Polygon","coordinates":[[[18.939,-33.1964],[18.9324,-33.2031],[18.9466,-33.202],[18.9481,-33.2051],[18.9435,-33.2086],[18.9571,-33.2218],[18.9564,-33.2336],[18.9474,-33.2395],[18.9507,-33.2475],[18.9458,-33.2527],[18.9547,-33.2598],[18.9509,-33.2655],[18.9648,-33.2681],[18.9664,-33.2742],[18.9754,-33.2789],[18.9731,-33.2879],[18.9808,-33.292],[18.9796,-33.2969],[18.9897,-33.2995],[18.9882,-33.3047],[18.9974,-33.3079],[18.9962,-33.3135],[18.984,-33.3131],[18.9784,-33.3182],[18.9803,-33.3285],[18.9899,-33.3316],[18.9792,-33.3417],[18.9928,-33.3537],[18.9858,-33.3618],[18.9939,-33.3659],[18.9847,-33.3784],[18.993,-33.3821],[18.9887,-33.3889],[18.9924,-33.3944],[18.9783,-33.3993],[18.9824,-33.407],[18.9772,-33.4075],[18.9674,-33.4213],[18.9694,-33.4303],[18.9583,-33.4279],[18.9553,-33.4302],[18.9596,-33.4426],[18.9492,-33.4521],[18.9486,-33.4565],[18.9542,-33.4619],[18.9398,-33.4664],[18.938,-33.4701],[18.9341,-33.4922],[18.9398,-33.4994],[18.9362,-33.5067],[18.9399,-33.5214],[18.9314,-33.5249],[18.9381,-33.546],[18.9135,-33.5514],[18.8997,-33.5511],[18.8928,-33.5715],[18.8623,-33.5754],[18.8559,-33.5692],[18.8393,-33.5776],[18.8419,-33.5887],[18.8383,-33.5897],[18.8363,-33.6044],[18.8182,-33.5952],[18.7875,-33.6376],[18.8219,-33.6418],[18.8021,-33.6737],[18.7937,-33.6794],[18.7946,-33.7068],[18.804,-33.7059],[18.8062,-33.7102],[18.8092,-33.709],[18.8102,-33.7137],[18.8134,-33.7131],[18.8132,-33.7064],[18.822,-33.7083],[18.8182,-33.7223],[18.833,-33.7382],[18.8095,-33.7408],[18.811,-33.7588],[18.7877,-33.7667],[18.8098,-33.7813],[18.7962,-33.7982],[18.7844,-33.8038],[18.7877,-33.8155],[18.7926,-33.8192],[18.8212,-33.8114],[18.822,-33.7989],[18.8277,-33.7964],[18.8344,-33.8076],[18.8968,-33.7934],[18.8964,-33.7983],[18.9028,-33.7966],[18.9022,-33.8035],[18.8959,-33.8052],[18.8932,-33.8261],[18.8954,-33.8421],[18.8848,-33.8464],[18.9221,-33.8762],[18.9315,-33.8791],[18.9485,-33.8668],[18.9517,-33.8707],[18.965,-33.8627],[18.9666,-33.8531],[18.9724,-33.8444],[18.982,-33.8529],[18.9904,-33.8543],[18.9939,-33.8492],[19.0202,-33.8452],[19.0271,-33.8402],[19.0311,-33.844],[19.0343,-33.8389],[19.0466,-33.8405],[19.0558,-33.8596],[19.0595,-33.854],[19.0942,-33.8317],[19.1432,-33.8605],[19.1427,-33.8634],[19.1462,-33.8614],[19.1646,-33.8685],[19.1791,-33.8624],[19.214,-33.8571],[19.1881,-33.7539],[19.184,-33.7154],[19.1488,-33.7022],[19.1475,-33.6561],[19.1268,-33.6391],[19.102,-33.6068],[19.1065,-33.5901],[19.1045,-33.5586],[19.1076,-33.5442],[19.0995,-33.5299],[19.1113,-33.5092],[19.0864,-33.4311],[19.0831,-33.3509],[19.0867,-33.3326],[19.084,-33.3196],[19.0756,-33.3144],[19.0617,-33.297],[19.0678,-33.2919],[19.0577,-33.2675],[19.0659,-33.2667],[19.063,-33.2313],[19.078,-33.2371],[19.0752,-33.2131],[19.0577,-33.2001],[19.0774,-33.179],[19.08,-33.1796],[19.0824,-33.1654],[19.0657,-33.1496],[19.074,-33.1317],[19.0724,-33.1277],[19.051,-33.142],[19.0198,-33.1417],[18.9801,-33.1521],[18.956,-33.1674],[18.9565,-33.1881],[18.939,-33.1964]]]}},{"type":"Feature","properties":{"name":"George","district":"Garden Route"},"geometry":{"type":"Polygon","coordinates":[[[23.395,-33.7926],[23.4301,-33.7618],[23.4399,-33.7174],[23.4754,-33.7177],[23.5413,-33.6995],[23.5417,-33.683],[23.5555,-33.673],[23.5565,-33.6515],[23.5859,-33.6727],[23.6288,-33.6693],[23.6704,-33.6726],[23.675,-33.6259],[23.6199,-33.5915],[23.6168,-33.5696],[23.5962,-33.5725],[23.6001,-33.5275],[23.6061,-33.5034],[23.604,-33.4964],[23.579,-33.4847],[23.5142,-33.4627],[23.4956,-33.4434],[23.4676,-33.4481],[23.4233,-33.442],[23.3934,-33.4457],[23.3549,-33.4412],[23.364,-33.4616],[23.318,-33.4065],[23.2971,-33.3886],[23.1348,-33.3876],[23.1129,-33.4008],[23.0664,-33.4003],[22.9348,-33.4291],[22.8303,-33.4191],[22.7744,-33.4197],[22.7544,-33.4439],[22.7285,-33.4542],[22.7599,-33.5307],[22.7161,-33.5317],[22.7232,-33.5734],[22.7301,-33.583],[22.7557,-33.6407],[22.6893,-33.6471],[22.6593,-33.6438],[22.6263,-33.6224],[22.5887,-33.6367],[22.5252,-33.6402],[22.5004,-33.6492],[22.5014,-33.6389],[22.4556,-33.647],[22.4308,-33.6657],[22.3718,-33.6594],[22.3659,-33.6849],[22.3453,-33.7253],[22.2942,-33.7109],[22.2849,-33.7053],[22.2959,-33.7403],[22.2934,-33.745],[22.2871,-33.7446],[22.2886,-33.7533],[22.3182,-33.7351],[22.3193,-33.7319],[22.3259,-33.7342],[22.3212,-33.741],[22.3688,-33.7928],[22.3325,-33.8185],[22.3401,-33.8229],[22.3207,-33.8275],[22.2891,-33.858],[22.2754,-33.8514],[22.1935,-33.8514],[22.2337,-33.8882],[22.2335,-33.9031],[22.2679,-33.925],[22.2682,-33.9404],[22.2603,-33.9605],[22.2636,-33.9811],[22.2787,-33.9904],[22.2709,-34.0052],[22.2799,-34.0215],[22.2628,-34.0376],[22.2641,-34.0467],[22.299,-34.045],[22.3066,-34.0457],[22.3076,-34.0481],[22.3086,-34.0434],[22.3114,-34.0432],[22.3097,-34.0397],[22.3144,-34.0401],[22.313,-34.0432],[22.3196,-34.0427],[22.3172,-34.0493],[22.3225,-34.0514],[22.354,-34.0538],[22.3513,-34.0419],[22.3546,-34.0544],[22.3644,-34.0584],[22.3806,-34.0617],[22.3914,-34.0547],[22.3958,-34.0578],[22.4035,-34.0559],[22.4245,-34.0601],[22.4282,-34.0566],[22.4327,-34.059],[22.4339,-34.0557],[22.4416,-34.0589],[22.4511,-34.0566],[22.4668,-34.0483],[22.4846,-34.0513],[22.4884,-34.0456],[22.4962,-34.043],[22.4986,-34.0366],[22.5083,-34.0348],[22.5121,-34.028],[22.5407,-34.0177],[22.5485,-34.0095],[22.5492,-34.0042],[22.5561,-34.0032],[22.5565,-33.9981],[22.5636,-33.9961],[22.5918,-33.9969],[22.6698,-34.0091],[22.7241,-34.0222],[22.7656,-34.0375],[22.7649,-34.0318],[22.7699,-34.0263],[22.7637,-34.031],[22.7376,-34.0248],[22.7389,-34.017],[22.7176,-33.9986],[22.7134,-34.0001],[22.7044,-33.9969],[22.7054,-33.9916],[22.7105,-33.9878],[22.7098,-33.9741],[22.72,-33.9742],[22.7268,-33.9248],[22.7791,-33.9275],[22.774,-33.92],[22.7785,-33.906],[22.7716,-33.9038],[22.776,-33.8997],[22.7744,-33.8978],[22.8006,-33.8729],[22.8003,-33.8412],[22.8515,-33.8299],[22.8766,-33.816],[22.911,-33.8176],[22.9172,-33.8151],[22.9742,-33.8144],[23.0355,-33.794],[23.03,-33.8068],[23.0765,-33.8086],[23.1837,-33.8622],[23.229,-33.8783],[23.2635,-33.8781],[23.2794,-33.8771],[23.2888,-33.8658],[23.2839,-33.8438],[23.3344,-33.8566],[23.3255,-33.7991],[23.395,-33.7926]]]}},{"type":"Feature","properties":{"name":"Hessequa","district":"Garden Route"},"geometry":{"type":"Polygon","coordinates":[[[21.6981,-33.8588],[21.7022,-33.8426],[21.7127,-33.835],[21.703,-33.8256],[21.7038,-33.8189],[21.7144,-33.8236],[21.7356,-33.8203],[21.7409,-33.8274],[21.7476,-33.827],[21.7557,-33.8214],[21.7516,-33.8129],[21.7439,-33.8067],[21.7434,-33.7976],[21.74,-33.7961],[21.6951,-33.807],[21.6483,-33.8304],[21.6396,-33.8264],[21.604,-33.8252],[21.6035,-33.831],[21.5483,-33.8228],[21.4233,-33.8476],[21.3819,-33.8453],[21.3711,-33.8199],[21.2812,-33.8185],[21.2727,-33.822],[21.1856,-33.8233],[21.1541,-33.8323],[21.1075,-33.8319],[21.1014,-33.8267],[21.0846,-33.8229],[21.0726,-33.8244],[21.0607,-33.8293],[21.0532,-33.8385],[21.0516,-33.8343],[21.0415,-33.8542],[20.9916,-33.868],[21.0026,-33.8479],[20.9817,-33.8456],[20.9434,-33.8519],[20.9361,-33.8791],[20.9238,-33.8893],[20.9523,-33.9018],[20.9386,-33.925],[20.934,-33.9476],[20.9364,-33.9612],[20.9215,-33.9528],[20.8782,-33.964],[20.8678,-33.955],[20.8539,-33.9632],[20.8426,-33.9644],[20.8411,-33.9731],[20.8266,-33.9655],[20.8191,-33.9405],[20.8164,-33.9402],[20.8066,-33.9464],[20.7073,-33.9551],[20.707,-33.9591],[20.7021,-33.9609],[20.7024,-33.9675],[20.6947,-33.976],[20.7073,-33.9802],[20.7052,-33.9902],[20.7189,-33.9865],[20.729,-33.9884],[20.7321,-33.9989],[20.7281,-34.0066],[20.7296,-34.0181],[20.7128,-34.0179],[20.71,-34.0165],[20.7107,-34.0102],[20.694,-34.0068],[20.6999,-34.0397],[20.7227,-34.0368],[20.7286,-34.0575],[20.7476,-34.0667],[20.7404,-34.0713],[20.7543,-34.0972],[20.7032,-34.0881],[20.7043,-34.0909],[20.693,-34.1008],[20.691,-34.0891],[20.6873,-34.0874],[20.6605,-34.089],[20.6401,-34.086],[20.6393,-34.0976],[20.6474,-34.1092],[20.6487,-34.1194],[20.6421,-34.1353],[20.6562,-34.1448],[20.6497,-34.1491],[20.6453,-34.1755],[20.6543,-34.1714],[20.665,-34.1885],[20.6969,-34.1844],[20.7189,-34.1955],[20.6996,-34.2132],[20.6928,-34.2024],[20.6528,-34.2236],[20.6392,-34.2343],[20.6377,-34.2429],[20.5994,-34.2729],[20.5726,-34.283],[20.5654,-34.302],[20.5681,-34.3042],[20.5828,-34.2946],[20.5888,-34.2977],[20.5913,-34.3043],[20.6178,-34.3027],[20.622,-34.3167],[20.6049,-34.324],[20.6039,-34.3355],[20.5963,-34.348],[20.5974,-34.3518],[20.6224,-34.3436],[20.6293,-34.3448],[20.6415,-34.3555],[20.6477,-34.3549],[20.6552,-34.3487],[20.6688,-34.3498],[20.6861,-34.3466],[20.6907,-34.3587],[20.7066,-34.364],[20.7351,-34.3877],[20.7666,-34.3946],[20.7983,-34.408],[20.82,-34.4013],[20.85,-34.4034],[20.8835,-34.3807],[20.9185,-34.369],[20.9334,-34.366],[21.0012,-34.365],[21.1021,-34.3769],[21.1343,-34.3835],[21.2014,-34.4042],[21.2199,-34.4164],[21.2467,-34.4193],[21.3008,-34.439],[21.311,-34.4379],[21.3201,-34.4312],[21.3365,-34.4334],[21.3387,-34.4266],[21.3438,-34.4272],[21.3542,-34.4194],[21.3728,-34.4228],[21.3824,-34.4111],[21.3878,-34.4085],[21.3967,-34.41],[21.4002,-34.4053],[21.4131,-34.4014],[21.4129,-34.3958],[21.4174,-34.3915],[21.4243,-34.3906],[21.4293,-34.3935],[21.4304,-34.3912],[21.4233,-34.3848],[21.4226,-34.3796],[21.432,-34.3726],[21.4501,-34.3675],[21.4913,-34.3664],[21.51,-34.3596],[21.5166,-34.3611],[21.5226,-34.3571],[21.5357,-34.3564],[21.5523,-34.3612],[21.5808,-34.3629],[21.6337,-34.3815],[21.6673,-34.3866],[21.6829,-34.3922],[21.6924,-34.3916],[21.6962,-34.395],[21.714,-34.3931],[21.7194,-34.3955],[21.7224,-34.3932],[21.7293,-34.3958],[21.735,-34.3942],[21.7369,-34.3892],[21.742,-34.3866],[21.7942,-34.3812],[21.7978,-34.3833],[21.8425,-34.373],[21.8572,-34.3634],[21.871,-34.3629],[21.8841,-34.3533],[21.887,-34.3436],[21.8769,-34.3369],[21.8565,-34.3344],[21.8292,-34.3137],[21.8243,-34.2979],[21.8339,-34.2912],[21.8303,-34.2848],[21.8192,-34.281],[21.7926,-34.2861],[21.7852,-34.2823],[21.7688,-34.2573],[21.7536,-34.2251],[21.7542,-34.2195],[21.7404,-34.2021],[21.739,-34.1938],[21.7531,-34.1875],[21.7502,-34.1741],[21.7424,-34.1708],[21.7447,-34.16],[21.734,-34.1556],[21.7355,-34.1478],[21.7248,-34.136],[21.7238,-34.1306],[21.7124,-34.1276],[21.7155,-34.1195],[21.6989,-34.1146],[21.7106,-34.103],[21.7048,-34.0973],[21.7045,-34.0927],[21.7319,-34.0905],[21.7343,-34.1026],[21.7439,-34.1022],[21.7483,-34.1003],[21.7509,-34.0836],[21.7648,-34.0857],[21.7708,-34.0829],[21.7712,-34.0779],[21.7644,-34.0746],[21.7347,-34.0821],[21.7183,-34.0795],[21.7173,-34.0537],[21.7383,-34.0378],[21.7358,-34.0327],[21.7262,-34.0297],[21.7183,-34.031],[21.7135,-34.046],[21.6958,-34.0534],[21.6947,-34.0625],[21.685,-34.0625],[21.6824,-34.0383],[21.6662,-34.0242],[21.6666,-34.0094],[21.6483,-34.0109],[21.6402,-34.0072],[21.6411,-33.9955],[21.6531,-33.98],[21.6585,-33.9635],[21.6583,-33.9384],[21.6519,-33.9327],[21.6532,-33.9158],[21.6649,-33.9143],[21.6739,-33.9015],[21.6762,-33.8825],[21.6628,-33.8798],[21.6735,-33.8771],[21.6845,-33.8648],[21.6981,-33.8588]]]}},{"type":"Feature","properties":{"name":"Kannaland","district":"Garden Route"},"geometry":{"type":"Polygon","coordinates":[[[21.74,-33.7961],[21.731,-33.7889],[21.7428,-33.7784],[21.7489,-33.7645],[21.7314,-33.7581],[21.7224,-33.7512],[21.7159,-33.7389],[21.7184,-33.7353],[21.7135,-33.7293],[21.6905,-33.7319],[21.6879,-33.7379],[21.6944,-33.744],[21.6925,-33.7475],[21.6951,-33.7505],[21.6886,-33.7599],[21.6654,-33.7661],[21.6574,-33.762],[21.6749,-33.7368],[21.6774,-33.7237],[21.6909,-33.7126],[21.6973,-33.6974],[21.7078,-33.6866],[21.7155,-33.6816],[21.7225,-33.6938],[21.7228,-33.7053],[21.7679,-33.7213],[21.8375,-33.7373],[21.89,-33.7128],[21.8881,-33.688],[21.8809,-33.6673],[21.905,-33.6796],[21.935,-33.6677],[21.92,-33.627],[21.9392,-33.6218],[21.9273,-33.5792],[21.9757,-33.5807],[21.9328,-33.5164],[21.9285,-33.4791],[21.9198,-33.4619],[21.9034,-33.4017],[21.9021,-33.365],[21.8272,-33.391],[21.7926,-33.3899],[21.7472,-33.3971],[21.7079,-33.3964],[21.68,-33.4048],[21.612,-33.3968],[21.5533,-33.4105],[21.5218,-33.4144],[21.4885,-33.4093],[21.4331,-33.3942],[21.3677,-33.3982],[21.2064,-33.4217],[21.1657,-33.415],[21.1138,-33.4307],[21.0493,-33.4339],[21.0097,-33.4393],[20.9726,-33.4225],[20.9218,-33.4307],[20.762,-33.4908],[20.5476,-33.5195],[20.5494,-33.5287],[20.5771,-33.5281],[20.5743,-33.5388],[20.5031,-33.637],[20.5816,-33.6221],[20.5862,-33.6672],[20.6455,-33.6362],[20.666,-33.622],[20.7189,-33.6406],[20.7756,-33.6917],[20.8072,-33.6897],[20.8095,-33.6985],[20.8003,-33.715],[20.885,-33.7174],[20.8799,-33.6926],[20.9388,-33.6998],[20.9341,-33.7246],[20.9657,-33.7426],[20.9806,-33.7396],[21.0103,-33.7566],[20.9656,-33.8043],[20.9568,-33.8063],[20.9434,-33.8519],[20.9817,-33.8456],[21.0026,-33.8479],[20.9916,-33.868],[21.0415,-33.8542],[21.0516,-33.8343],[21.0532,-33.8385],[21.0607,-33.8293],[21.0846,-33.8229],[21.1014,-33.8267],[21.1075,-33.8319],[21.1541,-33.8323],[21.1856,-33.8233],[21.2727,-33.822],[21.2812,-33.8185],[21.3711,-33.8199],[21.3819,-33.8453],[21.4233,-33.8476],[21.5483,-33.8228],[21.6035,-33.831],[21.604,-33.8252],[21.6396,-33.8264],[21.6483,-33.8304],[21.6951,-33.807],[21.74,-33.7961]]]}},{"type":"Feature","properties":{"name":"Knysna","district":"Garden Route"},"geometry":{"type":"Polygon","coordinates":[[[23.229,-33.8783],[23.1837,-33.8622],[23.0765,-33.8086],[23.03,-33.8068],[23.0355,-33.794],[22.9742,-33.8144],[22.9172,-33.8151],[22.911,-33.8176],[22.8766,-33.816],[22.8515,-33.8299],[22.8003,-33.8412],[22.8006,-33.8729],[22.7744,-33.8978],[22.776,-33.8997],[22.7716,-33.9038],[22.7785,-33.906],[22.774,-33.92],[22.7791,-33.9275],[22.7268,-33.9248],[22.72,-33.9742],[22.7098,-33.9741],[22.7105,-33.9878],[22.7054,-33.9916],[22.7044,-33.9969],[22.7134,-34.0001],[22.7176,-33.9986],[22.7389,-34.017],[22.7376,-34.0248],[22.7637,-34.031],[22.7699,-34.0263],[22.7963,-34.0312],[22.8383,-34.0473],[22.9143,-34.0646],[22.9494,-34.0771],[22.9606,-34.0871],[22.9703,-34.0861],[22.979,-34.0932],[22.9751,-34.0844],[22.9788,-34.0787],[23.0036,-34.0718],[23.0318,-34.076],[23.0336,-34.0794],[23.0412,-34.0793],[23.0424,-34.0842],[23.0552,-34.0853],[23.0622,-34.082],[23.0774,-34.0823],[23.0854,-34.0866],[23.0877,-34.0827],[23.0981,-34.0823],[23.1007,-34.0789],[23.1064,-34.0819],[23.1303,-34.0804],[23.1384,-34.087],[23.162,-34.0839],[23.1785,-34.0457],[23.1687,-34.0063],[23.1845,-33.9814],[23.2107,-33.9629],[23.241,-33.973],[23.2209,-33.9288],[23.2225,-33.9086],[23.2485,-33.8995],[23.2385,-33.8946],[23.229,-33.8783]]]}},{"type":"Feature","properties":{"name":"Laingsburg","district":"Central Karoo"},"geometry":{"type":"Polygon","coordinates":[[[21.1883,-32.503],[21.1821,-32.5087],[21.1401,-32.5898],[21.157,-32.6289],[21.0945,-32.653],[21.0603,-32.6555],[21.0373,-32.6491],[20.9628,-32.6393],[20.8441,-32.6624],[20.8228,-32.6945],[20.7898,-32.7112],[20.7922,-32.735],[20.8303,-32.7846],[20.8324,-32.8174],[20.7986,-32.8948],[20.7442,-32.9129],[20.7312,-32.945],[20.6503,-32.9323],[20.6219,-32.9431],[20.5901,-32.943],[20.5921,-32.9265],[20.5612,-32.881],[20.4993,-32.9416],[20.4386,-32.9401],[20.4347,-32.9719],[20.4278,-32.9794],[20.395,-32.9932],[20.3838,-33.0363],[20.3343,-33.0358],[20.3025,-33.068],[20.2791,-33.0639],[20.3185,-33.1209],[20.3064,-33.1593],[20.2512,-33.1499],[20.2022,-33.1701],[20.258,-33.1884],[20.244,-33.2365],[20.2471,-33.2458],[20.2356,-33.2624],[20.2512,-33.2915],[20.2035,-33.3027],[20.2395,-33.3099],[20.2092,-33.3798],[20.368,-33.3663],[20.3663,-33.3816],[20.3537,-33.3941],[20.3456,-33.3943],[20.3489,-33.4049],[20.3356,-33.4256],[20.3898,-33.4241],[20.4081,-33.4343],[20.4167,-33.4355],[20.4275,-33.4489],[20.4198,-33.453],[20.3861,-33.4592],[20.3362,-33.4878],[20.498,-33.4639],[20.5017,-33.4985],[20.4756,-33.5134],[20.4782,-33.5278],[20.762,-33.4908],[20.9218,-33.4307],[20.9726,-33.4225],[21.0097,-33.4393],[21.0493,-33.4339],[21.1138,-33.4307],[21.1657,-33.415],[21.2064,-33.4217],[21.3677,-33.3982],[21.4331,-33.3942],[21.4885,-33.4093],[21.5218,-33.4144],[21.5533,-33.4105],[21.612,-33.3968],[21.6326,-33.3769],[21.6971,-33.3565],[21.6356,-33.3586],[21.6116,-33.3347],[21.551,-33.3408],[21.6364,-33.3037],[21.6324,-33.28],[21.6366,-33.2697],[21.6318,-33.2694],[21.624,-33.2464],[21.6366,-33.2459],[21.6428,-33.2247],[21.6373,-33.2139],[21.6135,-33.216],[21.6222,-33.1925],[21.6278,-33.1916],[21.6257,-33.1792],[21.6167,-33.1774],[21.6289,-33.1627],[21.6373,-33.1413],[21.6044,-33.1401],[21.5781,-33.1159],[21.5782,-33.1059],[21.5853,-33.0967],[21.5814,-33.0865],[21.5585,-33.0868],[21.544,-33.0751],[21.5458,-33.0562],[21.5248,-33.0474],[21.5072,-33.0443],[21.5012,-33.0389],[21.4987,-33.0294],[21.4863,-33.0197],[21.4846,-33.014],[21.4585,-33.0113],[21.4429,-33.0005],[21.4259,-32.9702],[21.3959,-32.9379],[21.4574,-32.9275],[21.4713,-32.9136],[21.4815,-32.9113],[21.4785,-32.9023],[21.4301,-32.849],[21.4281,-32.8169],[21.4456,-32.792],[21.428,-32.7756],[21.4321,-32.7567],[21.4249,-32.7059],[21.4266,-32.6671],[21.3522,-32.6577],[21.3507,-32.6525],[21.3374,-32.6396],[21.3325,-32.6262],[21.3244,-32.6181],[21.325,-32.6142],[21.3091,-32.5984],[21.2956,-32.5909],[21.2948,-32.5851],[21.3005,-32.575],[21.2896,-32.5578],[21.2638,-32.5477],[21.2505,-32.5479],[21.2366,-32.537],[21.2345,-32.5294],[21.2267,-32.5218],[21.1918,-32.5137],[21.1876,-32.5096],[21.1883,-32.503]]]}},{"type":"Feature","properties":{"name":"Langeberg","district":"Cape Winelands"},"geometry":{"type":"Polygon","coordinates":[[[19.5069,-33.9717],[19.5333,-33.9695],[19.5662,-34.002],[19.5898,-34.0124],[19.6406,-34.0028],[19.6807,-34.0091],[19.7001,-34.0464],[19.7148,-34.049],[19.735,-34.0412],[19.7552,-34.0544],[19.8103,-34.0554],[19.8855,-34.0662],[19.9062,-34.0762],[19.9865,-34.0782],[19.9893,-34.0855],[20.0075,-34.0939],[20.0108,-34.0916],[20.0085,-34.0639],[20.0328,-34.0597],[20.0808,-34.0646],[20.1417,-34.0592],[20.1517,-34.0446],[20.1724,-34.0398],[20.1778,-34.0298],[20.1961,-34.04],[20.1925,-34.0462],[20.2003,-34.053],[20.2049,-34.0655],[20.2022,-34.0786],[20.1493,-34.0766],[20.1376,-34.0824],[20.1405,-34.0854],[20.1878,-34.0974],[20.1873,-34.102],[20.1974,-34.1005],[20.2031,-34.0884],[20.23,-34.0952],[20.2218,-34.1111],[20.2468,-34.1173],[20.2497,-34.1061],[20.2727,-34.1062],[20.2701,-34.0902],[20.2913,-34.0913],[20.3057,-34.0773],[20.2861,-34.0789],[20.2858,-34.065],[20.2989,-34.0603],[20.2945,-34.0504],[20.2865,-34.0511],[20.284,-34.0414],[20.2792,-34.0396],[20.2908,-34.0419],[20.3071,-34.0294],[20.3041,-34.0141],[20.3071,-34.0056],[20.3138,-34.0017],[20.3242,-34.0018],[20.3178,-33.9936],[20.328,-33.9731],[20.2969,-33.964],[20.2803,-33.9538],[20.2832,-33.9574],[20.2584,-33.9417],[20.2225,-33.9128],[20.2344,-33.8979],[20.3244,-33.9496],[20.436,-33.9577],[20.4602,-33.9063],[20.4695,-33.8957],[20.4699,-33.8897],[20.4683,-33.8803],[20.4607,-33.8764],[20.4425,-33.8579],[20.4418,-33.8371],[20.4353,-33.8264],[20.4415,-33.8198],[20.4266,-33.8109],[20.4437,-33.8101],[20.4502,-33.8068],[20.4682,-33.8134],[20.4684,-33.8183],[20.4805,-33.8228],[20.5145,-33.8026],[20.4479,-33.774],[20.4728,-33.7292],[20.4692,-33.682],[20.5039,-33.682],[20.5352,-33.6607],[20.5031,-33.637],[20.5743,-33.5388],[20.5771,-33.5281],[20.5494,-33.5287],[20.5476,-33.5195],[20.4782,-33.5278],[20.4756,-33.5134],[20.5017,-33.4985],[20.498,-33.4639],[20.3361,-33.4878],[20.3157,-33.502],[20.2678,-33.5129],[20.2415,-33.538],[20.2149,-33.5413],[20.1731,-33.5262],[20.1611,-33.5364],[20.1254,-33.5563],[20.1054,-33.5507],[20.0781,-33.553],[20.0631,-33.5429],[20.0487,-33.5516],[19.9925,-33.5568],[19.9833,-33.5333],[19.9587,-33.5176],[19.9257,-33.5333],[19.9171,-33.5193],[19.8701,-33.5421],[19.8652,-33.57],[19.8388,-33.5659],[19.7985,-33.5379],[19.775,-33.5333],[19.7552,-33.5367],[19.7477,-33.5303],[19.7363,-33.5373],[19.6907,-33.5277],[19.6376,-33.5366],[19.6026,-33.5619],[19.6244,-33.5679],[19.6504,-33.5935],[19.6452,-33.6046],[19.651,-33.6096],[19.6669,-33.6157],[19.6996,-33.6379],[19.7412,-33.6496],[19.7175,-33.6602],[19.7148,-33.6752],[19.695,-33.6797],[19.69,-33.7043],[19.7021,-33.7184],[19.6912,-33.7394],[19.702,-33.7464],[19.6898,-33.7524],[19.6828,-33.7488],[19.6596,-33.7751],[19.6704,-33.782],[19.683,-33.7995],[19.6522,-33.8136],[19.6527,-33.8346],[19.6285,-33.8348],[19.5945,-33.8542],[19.5979,-33.8782],[19.566,-33.8637],[19.5658,-33.8492],[19.5618,-33.8595],[19.5626,-33.8664],[19.5323,-33.8784],[19.5454,-33.9156],[19.5069,-33.9717]]]}},{"type":"Feature","properties":{"name":"Matzikama","district":"West Coast"},"geometry":{"type":"Polygon","coordinates":[[[19.0262,-31.8766],[19.0259,-31.8707],[19.031,-31.8687],[19.0301,-31.8629],[19.0346,-31.8586],[19.0316,-31.8552],[19.0328,-31.8487],[19.0267,-31.8438],[19.0323,-31.8398],[19.0305,-31.8336],[19.0387,-31.8286],[19.0468,-31.8295],[19.0605,-31.8104],[19.0782,-31.8024],[19.0806,-31.7938],[19.0872,-31.7936],[19.0835,-31.7862],[19.0768,-31.7883],[19.0757,-31.7819],[19.0691,-31.7836],[19.0661,-31.7809],[19.0667,-31.7658],[19.0801,-31.7598],[19.0914,-31.7625],[19.0947,-31.7502],[19.0811,-31.7307],[19.0769,-31.7185],[19.0656,-31.7063],[19.0577,-31.6878],[19.0549,-31.6703],[19.0737,-31.6669],[19.079,-31.6432],[19.0705,-31.6241],[19.0905,-31.5978],[19.0854,-31.572],[19.0551,-31.5749],[19.0518,-31.5727],[19.0854,-31.5269],[19.0675,-31.5179],[19.0418,-31.5185],[19.0231,-31.5051],[19.012,-31.5144],[19.0062,-31.512],[19.0197,-31.4993],[19.0246,-31.4821],[19.0369,-31.4643],[19.043,-31.425],[19.0307,-31.4154],[19.034,-31.4022],[19.0309,-31.3895],[19.0124,-31.3701],[18.9801,-31.3552],[19.013,-31.3057],[18.9664,-31.2845],[18.9445,-31.2373],[18.9497,-31.1959],[18.9476,-31.1129],[18.9123,-31.0608],[18.9035,-31.0418],[18.9118,-30.9789],[18.9845,-30.9458],[18.9242,-30.916],[18.8754,-30.8871],[18.9605,-30.8661],[18.9519,-30.7447],[18.863,-30.7171],[18.7945,-30.6676],[18.7959,-30.6249],[18.7587,-30.5679],[18.6551,-30.5567],[18.5701,-30.4303],[18.5022,-30.4444],[18.4836,-30.5219],[18.5223,-30.6065],[18.4441,-30.5113],[18.3806,-30.4596],[18.4138,-30.5273],[18.3712,-30.5921],[18.371,-30.6596],[18.2642,-30.8183],[18.2518,-30.8275],[18.2135,-30.8104],[18.1952,-30.816],[18.2058,-30.8313],[18.1904,-30.8347],[18.1692,-30.8486],[18.0892,-30.7879],[18.0809,-30.7848],[18.0579,-30.7769],[18.0065,-30.7912],[17.9948,-30.8192],[17.9934,-30.9187],[17.9721,-30.9139],[17.9344,-30.9174],[17.914,-30.9247],[17.8803,-30.9239],[17.8779,-30.9487],[17.9264,-31.0114],[17.8945,-31.0304],[17.8886,-31.0403],[17.8786,-31.0405],[17.8113,-31.0925],[17.8344,-31.1765],[17.758,-31.153],[17.7741,-31.1735],[17.7837,-31.1806],[17.7973,-31.2021],[17.8169,-31.2181],[17.8178,-31.2228],[17.8224,-31.2231],[17.8388,-31.2345],[17.8634,-31.2576],[17.8815,-31.2869],[17.8795,-31.2908],[17.8829,-31.3015],[17.8771,-31.3074],[17.8801,-31.3103],[17.8785,-31.3194],[17.8996,-31.3438],[17.9004,-31.3521],[17.9269,-31.374],[17.949,-31.4064],[17.971,-31.4246],[18.0089,-31.4734],[18.0326,-31.4928],[18.0425,-31.5098],[18.0662,-31.5274],[18.1056,-31.568],[18.1174,-31.5848],[18.1146,-31.598],[18.1196,-31.6013],[18.1187,-31.6044],[18.1296,-31.6108],[18.1318,-31.6215],[18.146,-31.6378],[18.1521,-31.6558],[18.1583,-31.6599],[18.1841,-31.6933],[18.1861,-31.7014],[18.1893,-31.7006],[18.2228,-31.7443],[18.2253,-31.754],[18.221,-31.7604],[18.2245,-31.7636],[18.2262,-31.7812],[18.2328,-31.7951],[18.2291,-31.8003],[18.2354,-31.8132],[18.2303,-31.8172],[18.2334,-31.8177],[18.2317,-31.8207],[18.263,-31.8603],[18.2801,-31.8982],[18.28,-31.9084],[18.2778,-31.9122],[18.2726,-31.9129],[18.2759,-31.92],[18.2749,-31.9298],[18.265,-31.9356],[18.2678,-31.9484],[18.2868,-31.9866],[18.2824,-31.9955],[18.2903,-32.0067],[18.3118,-31.9981],[18.3254,-31.9807],[18.3951,-31.9625],[18.3925,-31.9542],[18.4119,-31.9456],[18.402,-31.9121],[18.4361,-31.9111],[18.436,-31.9041],[18.3957,-31.874],[18.4516,-31.8438],[18.4599,-31.8578],[18.4945,-31.8681],[18.4903,-31.8784],[18.4837,-31.8846],[18.4992,-31.889],[18.5109,-31.8837],[18.5454,-31.8844],[18.5612,-31.8789],[18.6229,-31.9563],[18.6647,-31.9557],[18.6557,-31.9312],[18.7072,-31.8967],[18.689,-31.8661],[18.7028,-31.8522],[18.711,-31.8546],[18.7181,-31.8632],[18.7409,-31.8789],[18.7582,-31.8733],[18.7813,-31.8752],[18.7903,-31.8655],[18.8036,-31.862],[18.8152,-31.8627],[18.8236,-31.8686],[18.8467,-31.859],[18.8634,-31.8592],[18.8824,-31.8517],[18.9061,-31.8585],[18.9341,-31.854],[18.9599,-31.8591],[18.982,-31.8557],[18.985,-31.8692],[18.9833,-31.8749],[18.9878,-31.8793],[19.0262,-31.8766]]]}},{"type":"Feature","properties":{"name":"Mossel Bay","district":"Garden Route"},"geometry":{"type":"Polygon","coordinates":[[[22.2337,-33.8882],[22.2139,-33.8881],[22.1986,-33.8782],[22.1874,-33.8769],[22.1709,-33.8691],[22.1342,-33.8696],[22.1237,-33.8464],[22.0751,-33.8495],[22.0637,-33.883],[22.0427,-33.8839],[22.017,-33.8594],[21.9853,-33.8662],[21.9328,-33.8654],[21.8644,-33.8554],[21.8038,-33.8549],[21.7839,-33.8521],[21.7445,-33.8547],[21.7004,-33.8529],[21.6981,-33.8588],[21.6845,-33.8648],[21.6735,-33.8771],[21.6628,-33.8798],[21.6762,-33.8825],[21.6739,-33.9015],[21.6649,-33.9143],[21.6532,-33.9158],[21.6519,-33.9327],[21.6583,-33.9384],[21.6585,-33.9635],[21.6531,-33.98],[21.6411,-33.9955],[21.6402,-34.0072],[21.6483,-34.0109],[21.6666,-34.0094],[21.6662,-34.0242],[21.6824,-34.0383],[21.685,-34.0625],[21.6947,-34.0625],[21.6967,-34.0525],[21.7135,-34.046],[21.7197,-34.0299],[21.7327,-34.0313],[21.738,-34.0348],[21.7359,-34.0417],[21.7173,-34.0537],[21.7183,-34.0795],[21.7347,-34.0821],[21.7644,-34.0746],[21.7706,-34.0771],[21.7715,-34.0819],[21.7635,-34.086],[21.7509,-34.0836],[21.7483,-34.1003],[21.741,-34.1027],[21.7343,-34.1026],[21.7319,-34.0905],[21.7045,-34.0927],[21.7048,-34.0973],[21.7106,-34.103],[21.6989,-34.1146],[21.7155,-34.1195],[21.7124,-34.1276],[21.7238,-34.1306],[21.7248,-34.136],[21.7355,-34.1478],[21.734,-34.1556],[21.7447,-34.16],[21.7424,-34.1708],[21.7502,-34.1741],[21.7531,-34.1875],[21.7418,-34.1908],[21.7382,-34.1949],[21.7434,-34.2089],[21.7542,-34.2195],[21.7536,-34.2251],[21.7688,-34.2573],[21.7884,-34.2852],[21.7975,-34.286],[21.8192,-34.281],[21.8278,-34.2825],[21.8339,-34.2912],[21.8243,-34.2979],[21.8273,-34.3107],[21.8544,-34.3334],[21.8769,-34.3369],[21.8885,-34.3442],[21.9041,-34.3444],[21.9145,-34.3383],[21.9041,-34.3326],[21.9093,-34.3178],[21.9309,-34.3042],[21.9364,-34.3052],[21.9462,-34.2996],[21.9363,-34.2944],[21.915,-34.2911],[21.9117,-34.2784],[21.9147,-34.2661],[21.9298,-34.247],[21.9545,-34.2303],[21.9824,-34.218],[22.0103,-34.2111],[22.0642,-34.205],[22.0894,-34.2093],[22.0963,-34.2029],[22.1122,-34.2038],[22.1404,-34.1943],[22.1444,-34.1966],[22.154,-34.1871],[22.1608,-34.1873],[22.1581,-34.181],[22.1505,-34.1793],[22.1474,-34.1751],[22.1487,-34.1811],[22.1443,-34.1789],[22.1451,-34.1764],[22.1401,-34.1793],[22.1332,-34.1723],[22.1127,-34.1647],[22.1113,-34.1578],[22.1131,-34.14],[22.1259,-34.1149],[22.1595,-34.0841],[22.1981,-34.0686],[22.2395,-34.0569],[22.2982,-34.0512],[22.3546,-34.0544],[22.3538,-34.0456],[22.3513,-34.0419],[22.354,-34.0538],[22.3225,-34.0514],[22.3172,-34.0493],[22.3196,-34.0427],[22.313,-34.0432],[22.3144,-34.0401],[22.3097,-34.0397],[22.3114,-34.0432],[22.3086,-34.0434],[22.3076,-34.0481],[22.3066,-34.0457],[22.299,-34.045],[22.2641,-34.0467],[22.2628,-34.0376],[22.2799,-34.0215],[22.2709,-34.0052],[22.2787,-33.9904],[22.2636,-33.9811],[22.2603,-33.9605],[22.2682,-33.9404],[22.2679,-33.925],[22.2335,-33.9031],[22.2337,-33.8882]]]}},{"type":"Feature","properties":{"name":"Oudtshoorn","district":"Garden Route"},"geometry":{"type":"Polygon","coordinates":[[[22.7744,-33.4197],[22.7145,-33.4149],[22.6643,-33.4157],[22.5818,-33.4047],[22.5157,-33.4097],[22.4647,-33.4045],[22.3913,-33.3641],[22.214,-33.315],[22.1822,-33.3217],[22.1453,-33.3354],[22.0509,-33.3515],[22.0058,-33.3555],[21.9629,-33.3662],[21.9021,-33.365],[21.9034,-33.4017],[21.9198,-33.4619],[21.9285,-33.4791],[21.9328,-33.5164],[21.9757,-33.5807],[21.9273,-33.5792],[21.9392,-33.6218],[21.92,-33.627],[21.935,-33.6677],[21.905,-33.6796],[21.8809,-33.6673],[21.8881,-33.688],[21.89,-33.7128],[21.8375,-33.7373],[21.7679,-33.7213],[21.7228,-33.7053],[21.7225,-33.6938],[21.7155,-33.6816],[21.6988,-33.6953],[21.6909,-33.7126],[21.6774,-33.7237],[21.6749,-33.7368],[21.6574,-33.762],[21.6654,-33.7661],[21.6886,-33.7599],[21.6951,-33.7505],[21.6925,-33.7475],[21.6944,-33.744],[21.6879,-33.7379],[21.6905,-33.7319],[21.7079,-33.7286],[21.7135,-33.7293],[21.7184,-33.7353],[21.7159,-33.7389],[21.7224,-33.7512],[21.7314,-33.7581],[21.7489,-33.7645],[21.7428,-33.7784],[21.731,-33.7889],[21.7451,-33.7991],[21.7439,-33.8067],[21.7516,-33.8129],[21.7557,-33.8214],[21.7476,-33.827],[21.7409,-33.8274],[21.7356,-33.8203],[21.7144,-33.8236],[21.7038,-33.8189],[21.703,-33.8256],[21.7127,-33.835],[21.7022,-33.8426],[21.7004,-33.8529],[21.7445,-33.8547],[21.7839,-33.8521],[21.8038,-33.8549],[21.8644,-33.8554],[21.9328,-33.8654],[21.9853,-33.8662],[22.017,-33.8594],[22.0427,-33.8839],[22.0637,-33.883],[22.0751,-33.8495],[22.1237,-33.8464],[22.1342,-33.8696],[22.1709,-33.8691],[22.1874,-33.8769],[22.1986,-33.8782],[22.2139,-33.8881],[22.2337,-33.8882],[22.1935,-33.8514],[22.2754,-33.8514],[22.2891,-33.858],[22.3207,-33.8275],[22.3401,-33.8229],[22.3325,-33.8185],[22.3688,-33.7928],[22.3212,-33.741],[22.3259,-33.7342],[22.3193,-33.7319],[22.3182,-33.7351],[22.2886,-33.7533],[22.2871,-33.7446],[22.2934,-33.745],[22.2959,-33.7403],[22.2849,-33.7053],[22.2942,-33.7109],[22.3453,-33.7253],[22.3659,-33.6849],[22.3718,-33.6594],[22.4308,-33.6657],[22.4556,-33.647],[22.5014,-33.6389],[22.5004,-33.6492],[22.5252,-33.6402],[22.5887,-33.6367],[22.6263,-33.6224],[22.6593,-33.6438],[22.6893,-33.6471],[22.7557,-33.6407],[22.7301,-33.583],[22.7232,-33.5734],[22.7161,-33.5317],[22.7599,-33.5307],[22.7285,-33.4542],[22.7544,-33.4439],[22.7744,-33.4197]]]}},{"type":"Feature","properties":{"name":"Overstrand","district":"Overberg"},"geometry":{"type":"MultiPolygon","coordinates":[[[[19.6242,-34.4187],[19.616,-34.4243],[19.5831,-34.4297],[19.5829,-34.4255],[19.6032,-34.406],[19.5822,-34.4041],[19.5904,-34.3905],[19.5489,-34.3958],[19.556,-34.3897],[19.5245,-34.3903],[19.4951,-34.3998],[19.4462,-34.3909],[19.403,-34.3756],[19.3516,-34.3876],[19.3232,-34.3809],[19.3225,-34.3743],[19.3006,-34.3753],[19.2934,-34.3671],[19.3052,-34.356],[19.2975,-34.3458],[19.2975,-34.3432],[19.3065,-34.3398],[19.303,-34.3286],[19.2579,-34.3163],[19.2134,-34.3267],[19.2109,-34.2936],[19.207,-34.2967],[19.1707,-34.2682],[19.1572,-34.2638],[19.1536,-34.2687],[19.1432,-34.2525],[19.1301,-34.2431],[19.0391,-34.2742],[19.0221,-34.2717],[19.0118,-34.2742],[18.98,-34.254],[18.9477,-34.2454],[18.9456,-34.2281],[18.956,-34.2105],[18.9307,-34.2035],[18.9202,-34.2122],[18.9139,-34.2109],[18.9084,-34.217],[18.8994,-34.2169],[18.9004,-34.2275],[18.8929,-34.2343],[18.8753,-34.2294],[18.8802,-34.2482],[18.8677,-34.2574],[18.8654,-34.2641],[18.8301,-34.2751],[18.8205,-34.2897],[18.8227,-34.2988],[18.8137,-34.2961],[18.8119,-34.2988],[18.8149,-34.3059],[18.8106,-34.3092],[18.8192,-34.3118],[18.8156,-34.3178],[18.8212,-34.325],[18.8203,-34.3311],[18.8249,-34.337],[18.8318,-34.3391],[18.829,-34.3456],[18.8095,-34.3487],[18.8175,-34.357],[18.8151,-34.3643],[18.8188,-34.3661],[18.8191,-34.3732],[18.8271,-34.3761],[18.8265,-34.3806],[18.8218,-34.3811],[18.8264,-34.3835],[18.8266,-34.3883],[18.8358,-34.3882],[18.832,-34.3805],[18.8436,-34.3781],[18.85,-34.3839],[18.8548,-34.3835],[18.8525,-34.3886],[18.8546,-34.3909],[18.8626,-34.3886],[18.8571,-34.3811],[18.8588,-34.3747],[18.8744,-34.3691],[18.8926,-34.3761],[18.8973,-34.3742],[18.8943,-34.3722],[18.8965,-34.3678],[18.901,-34.3688],[18.9051,-34.3609],[18.9113,-34.3577],[18.9318,-34.3587],[18.9352,-34.3559],[18.9672,-34.3626],[18.9767,-34.3591],[18.9804,-34.3532],[18.9946,-34.3448],[19.0154,-34.3475],[19.0421,-34.3411],[19.0691,-34.3512],[19.1026,-34.3721],[19.1247,-34.3958],[19.1252,-34.3998],[19.1197,-34.4024],[19.1177,-34.408],[19.123,-34.4132],[19.1213,-34.4151],[19.1356,-34.4184],[19.1412,-34.4232],[19.1553,-34.4218],[19.1702,-34.416],[19.1724,-34.4205],[19.1816,-34.4199],[19.1879,-34.423],[19.1936,-34.4295],[19.2038,-34.4283],[19.2033,-34.4355],[19.2185,-34.4381],[19.2258,-34.4356],[19.2273,-34.4301],[19.2363,-34.4229],[19.2443,-34.4228],[19.2454,-34.4185],[19.2531,-34.4132],[19.2754,-34.4091],[19.2886,-34.4146],[19.3217,-34.4396],[19.3486,-34.4714],[19.3689,-34.5079],[19.379,-34.544],[19.3514,-34.562],[19.3534,-34.5663],[19.3422,-34.5791],[19.3457,-34.5849],[19.3389,-34.5879],[19.3282,-34.6085],[19.311,-34.6112],[19.3015,-34.617],[19.3004,-34.6225],[19.2911,-34.6316],[19.2956,-34.629],[19.297,-34.6325],[19.2934,-34.6331],[19.306,-34.6333],[19.3163,-34.6232],[19.3247,-34.6264],[19.348,-34.6263],[19.3557,-34.616],[19.3775,-34.6151],[19.3774,-34.6128],[19.3849,-34.6149],[19.3874,-34.6115],[19.4036,-34.6062],[19.4141,-34.6083],[19.4361,-34.6275],[19.4506,-34.6558],[19.4731,-34.6612],[19.4762,-34.663],[19.4749,-34.6655],[19.478,-34.663],[19.4886,-34.6636],[19.4904,-34.6678],[19.4971,-34.6678],[19.4949,-34.6721],[19.5158,-34.6697],[19.5275,-34.6755],[19.5325,-34.6807],[19.5301,-34.6897],[19.5415,-34.6918],[19.5401,-34.6951],[19.5457,-34.6978],[19.5447,-34.7034],[19.5496,-34.7116],[19.562,-34.7137],[19.568,-34.7201],[19.5728,-34.72],[19.5747,-34.7231],[19.569,-34.7255],[19.5732,-34.7283],[19.5859,-34.7286],[19.5886,-34.7242],[19.594,-34.7294],[19.5934,-34.7358],[19.5984,-34.7359],[19.596,-34.7467],[19.6037,-34.7466],[19.5995,-34.7484],[19.6003,-34.7508],[19.6059,-34.7512],[19.6127,-34.7575],[19.6253,-34.7534],[19.6339,-34.7566],[19.642,-34.7733],[19.6411,-34.7775],[19.6347,-34.781],[19.6415,-34.7834],[19.6456,-34.7805],[19.6495,-34.7859],[19.6627,-34.7841],[19.6628,-34.7884],[19.6658,-34.7849],[19.6778,-34.7831],[19.6729,-34.7763],[19.6825,-34.7717],[19.6837,-34.7665],[19.6896,-34.7637],[19.7103,-34.7636],[19.7247,-34.7672],[19.7334,-34.7455],[19.74,-34.7124],[19.7146,-34.6878],[19.7202,-34.6442],[19.7102,-34.6303],[19.7197,-34.5998],[19.7095,-34.5963],[19.7043,-34.5828],[19.6936,-34.5756],[19.6882,-34.5622],[19.6922,-34.5479],[19.7027,-34.5381],[19.6867,-34.5165],[19.7133,-34.4686],[19.6987,-34.4663],[19.6947,-34.4601],[19.7027,-34.4436],[19.6959,-34.4322],[19.6747,-34.4308],[19.6637,-34.4167],[19.6242,-34.4187]]],[[[19.4188,-34.6782],[19.4124,-34.6829],[19.4118,-34.6855],[19.4149,-34.6865],[19.4234,-34.6801],[19.4188,-34.6782]]],[[[19.4181,-34.6867],[19.4164,-34.6885],[19.4112,-34.6895],[19.4155,-34.6899],[19.4181,-34.6867]]]]}},{"type":"Feature","properties":{"name":"Prince Albert","district":"Central Karoo"},"geometry":{"type":"Polygon","coordinates":[[[21.4321,-32.7567],[21.428,-32.7756],[21.4456,-32.792],[21.4281,-32.8169],[21.4301,-32.849],[21.4785,-32.9023],[21.4815,-32.9113],[21.4713,-32.9136],[21.4574,-32.9275],[21.3959,-32.9379],[21.4259,-32.9702],[21.4429,-33.0005],[21.4585,-33.0113],[21.4846,-33.014],[21.4863,-33.0197],[21.4987,-33.0294],[21.5012,-33.0389],[21.5072,-33.0443],[21.5248,-33.0474],[21.5458,-33.0562],[21.544,-33.0751],[21.5585,-33.0868],[21.5814,-33.0865],[21.5853,-33.0967],[21.5782,-33.1059],[21.5781,-33.1159],[21.6044,-33.1401],[21.6373,-33.1413],[21.6289,-33.1627],[21.6167,-33.1774],[21.6257,-33.1792],[21.6278,-33.1916],[21.6222,-33.1925],[21.6135,-33.216],[21.6373,-33.2139],[21.6428,-33.2247],[21.6366,-33.2459],[21.624,-33.2464],[21.6318,-33.2694],[21.6366,-33.2697],[21.6324,-33.28],[21.6364,-33.3037],[21.551,-33.3408],[21.6116,-33.3347],[21.6356,-33.3586],[21.6971,-33.3565],[21.6326,-33.3769],[21.612,-33.3968],[21.68,-33.4048],[21.7079,-33.3964],[21.7472,-33.3971],[21.7926,-33.3899],[21.8272,-33.391],[21.9021,-33.365],[21.9629,-33.3662],[22.0058,-33.3555],[22.0509,-33.3515],[22.1453,-33.3354],[22.1822,-33.3217],[22.214,-33.315],[22.3913,-33.3641],[22.4647,-33.4045],[22.5157,-33.4097],[22.5818,-33.4047],[22.6643,-33.4157],[22.7145,-33.4149],[22.7744,-33.4197],[22.7845,-33.4155],[22.7357,-33.3948],[22.7393,-33.324],[22.7734,-33.3263],[22.7739,-33.309],[22.7903,-33.3073],[22.8402,-33.2202],[22.8772,-33.1869],[22.8923,-33.1416],[22.9553,-33.0731],[22.9578,-33.0451],[22.9341,-33.0217],[22.912,-33.0145],[22.873,-33.0244],[22.8775,-33.031],[22.8354,-33.0377],[22.8003,-32.9853],[22.7678,-32.9785],[22.7832,-32.9306],[22.6646,-32.9288],[22.5174,-32.8927],[22.5219,-32.864],[22.4557,-32.8765],[22.384,-32.8708],[22.3213,-32.8206],[22.3154,-32.7823],[22.2993,-32.7569],[22.3013,-32.7399],[22.2173,-32.7441],[22.1914,-32.7906],[22.1242,-32.7328],[22.065,-32.7106],[22.012,-32.7242],[22.0431,-32.6724],[22.0719,-32.6427],[22.0366,-32.5997],[22.0334,-32.5549],[21.9938,-32.576],[21.9459,-32.6098],[21.9144,-32.6193],[21.8765,-32.6255],[21.7604,-32.6584],[21.7484,-32.6376],[21.7178,-32.6416],[21.6828,-32.6844],[21.6912,-32.7144],[21.649,-32.7282],[21.5771,-32.7595],[21.5247,-32.7591],[21.4798,-32.7866],[21.4321,-32.7567]]]}},{"type":"Feature","properties":{"name":"Saldanha Bay","district":"West Coast"},"geometry":{"type":"MultiPolygon","coordinates":[[[[18.1248,-32.7778],[18.0997,-32.781],[18.0955,-32.7778],[18.0926,-32.7806],[18.0788,-32.7767],[18.0551,-32.7837],[18.0509,-32.775],[18.0416,-32.7664],[18.0141,-32.7499],[18.0107,-32.7428],[18.0153,-32.7404],[17.9786,-32.7254],[17.9748,-32.7184],[17.9794,-32.715],[17.9775,-32.7103],[17.9813,-32.7045],[17.9733,-32.705],[17.9674,-32.7004],[17.9677,-32.7058],[17.9612,-32.7148],[17.9486,-32.7223],[17.9411,-32.7213],[17.9397,-32.7155],[17.9305,-32.7198],[17.9206,-32.7139],[17.9235,-32.7196],[17.9219,-32.7259],[17.9167,-32.7278],[17.9121,-32.735],[17.9036,-32.7357],[17.897,-32.7406],[17.8951,-32.7491],[17.9032,-32.7573],[17.9075,-32.7743],[17.9077,-32.7874],[17.9026,-32.8009],[17.8898,-32.8079],[17.8851,-32.8073],[17.8827,-32.8024],[17.881,-32.8124],[17.8724,-32.8154],[17.8677,-32.8126],[17.8592,-32.8194],[17.8541,-32.8165],[17.851,-32.8234],[17.844,-32.8248],[17.8459,-32.8289],[17.8483,-32.8279],[17.8482,-32.8325],[17.8612,-32.8394],[17.8595,-32.8433],[17.866,-32.8419],[17.8792,-32.851],[17.8829,-32.863],[17.8804,-32.8682],[17.8836,-32.8686],[17.8847,-32.8735],[17.8817,-32.8821],[17.8781,-32.8857],[17.8648,-32.8882],[17.8659,-32.8913],[17.8628,-32.8921],[17.8684,-32.8962],[17.858,-32.9055],[17.8601,-32.9111],[17.8679,-32.9109],[17.8716,-32.9164],[17.8788,-32.919],[17.8853,-32.9347],[17.8865,-32.9479],[17.8785,-32.9559],[17.8837,-32.9589],[17.8813,-32.9651],[17.8876,-32.9652],[17.8844,-32.9757],[17.8801,-32.9767],[17.8863,-32.9785],[17.8768,-32.9843],[17.8762,-32.9894],[17.8715,-32.9928],[17.8771,-33.005],[17.8813,-33.0061],[17.8841,-33.0016],[17.8894,-33.0018],[17.898,-33.0065],[17.9032,-33.0152],[17.8999,-33.0274],[17.8894,-33.0269],[17.8971,-33.0359],[17.8935,-33.041],[17.9017,-33.0402],[17.9041,-33.0474],[17.9111,-33.0518],[17.9256,-33.0418],[17.9382,-33.0381],[17.9336,-33.0323],[17.9347,-33.0292],[17.9476,-33.0256],[17.9687,-33.0338],[17.9702,-33.0414],[17.9643,-33.0422],[17.9705,-33.045],[17.973,-33.0352],[17.9649,-33.0294],[17.9637,-33.0245],[17.9587,-33.0267],[17.948,-33.0211],[17.9511,-33.0112],[17.9461,-33.006],[17.9564,-32.9991],[17.9682,-32.9962],[17.9951,-32.9984],[17.9834,-33.0321],[17.9949,-33.0088],[18.0088,-33.0079],[18.0301,-33.0239],[18.037,-33.0381],[18.0362,-33.0444],[18.0427,-33.0487],[18.0402,-33.0689],[18.0279,-33.0843],[18.0304,-33.0895],[18.029,-33.0982],[18.0331,-33.1054],[18.057,-33.1227],[18.0601,-33.1291],[18.0908,-33.1435],[18.0933,-33.1514],[18.0978,-33.1529],[18.0896,-33.1641],[18.0946,-33.1645],[18.0961,-33.1685],[18.0899,-33.1671],[18.0887,-33.17],[18.087,-33.165],[18.0827,-33.1655],[18.0847,-33.1738],[18.1026,-33.1769],[18.1056,-33.1787],[18.1033,-33.1817],[18.1092,-33.1852],[18.1117,-33.1856],[18.1068,-33.1831],[18.1103,-33.1797],[18.1239,-33.1805],[18.1255,-33.1863],[18.1193,-33.1958],[18.0966,-33.2047],[18.0897,-33.1988],[18.0904,-33.1901],[18.0807,-33.1823],[18.0645,-33.1756],[18.0591,-33.1677],[18.0494,-33.1614],[18.05,-33.1545],[18.0406,-33.1532],[18.025,-33.1447],[18.0233,-33.1412],[18.0307,-33.1283],[18.0133,-33.1209],[18.0145,-33.1124],[18.0101,-33.1012],[18.0132,-33.0956],[18.0047,-33.0927],[17.9819,-33.0948],[17.9851,-33.0895],[18.0041,-33.088],[18.002,-33.0812],[18.0046,-33.0786],[17.995,-33.0772],[17.9952,-33.0701],[17.9722,-33.0677],[17.976,-33.072],[17.9735,-33.0759],[17.9756,-33.0817],[17.9798,-33.0842],[17.9785,-33.0925],[17.9663,-33.0995],[17.9583,-33.0957],[17.9582,-33.1023],[17.9525,-33.1046],[17.9553,-33.1106],[17.9717,-33.1164],[17.9753,-33.1224],[17.9764,-33.1282],[17.9706,-33.1314],[17.9707,-33.1375],[17.9782,-33.1423],[17.9978,-33.1458],[17.999,-33.1492],[18.0069,-33.1491],[18.0786,-33.21],[18.1276,-33.2691],[18.1562,-33.3206],[18.1828,-33.318],[18.1839,-33.3118],[18.1884,-33.3167],[18.1913,-33.2956],[18.2049,-33.308],[18.2266,-33.3095],[18.2062,-33.2733],[18.2021,-33.2112],[18.2066,-33.2131],[18.2384,-33.1957],[18.2317,-33.1527],[18.2444,-33.1534],[18.2879,-33.13],[18.3084,-33.1799],[18.3276,-33.1636],[18.3637,-33.1602],[18.368,-33.1554],[18.3939,-33.186],[18.4068,-33.1941],[18.4201,-33.1922],[18.4466,-33.2091],[18.4443,-33.2181],[18.4993,-33.2276],[18.5169,-33.1983],[18.5048,-33.1777],[18.4909,-33.1669],[18.4871,-33.1587],[18.4977,-33.1453],[18.4941,-33.1431],[18.4944,-33.1263],[18.5026,-33.1238],[18.5065,-33.1169],[18.505,-33.1108],[18.5354,-33.0817],[18.5207,-33.058],[18.5039,-33.0464],[18.5384,-33.0347],[18.5315,-33.0115],[18.5385,-33.0051],[18.5204,-32.9562],[18.5113,-32.946],[18.5076,-32.9486],[18.4966,-32.9461],[18.4896,-32.9538],[18.47,-32.9447],[18.4562,-32.9546],[18.4539,-32.9517],[18.4552,-32.9393],[18.4452,-32.9381],[18.4444,-32.9461],[18.4232,-32.9448],[18.4146,-32.9535],[18.4113,-32.9438],[18.4039,-32.9438],[18.4,-32.9573],[18.3925,-32.9585],[18.3689,-32.9574],[18.368,-32.9376],[18.3622,-32.9442],[18.3411,-32.9426],[18.3401,-32.9465],[18.2926,-32.962],[18.2719,-32.9533],[18.2404,-32.9323],[18.2416,-32.9137],[18.2328,-32.8968],[18.2003,-32.9022],[18.2053,-32.8918],[18.1641,-32.8883],[18.1709,-32.8641],[18.1817,-32.8655],[18.1964,-32.8559],[18.1717,-32.8511],[18.1449,-32.8371],[18.1482,-32.8345],[18.1551,-32.8133],[18.1245,-32.8105],[18.101,-32.8252],[18.1157,-32.8062],[18.1248,-32.7778]]],[[[17.9535,-33.0801],[17.9506,-33.0817],[17.9553,-33.0875],[17.96,-33.0851],[17.9535,-33.0801]]],[[[18.0211,-33.088],[18.0178,-33.0931],[18.0241,-33.0944],[18.0264,-33.0911],[18.0211,-33.088]]],[[[17.9253,-33.0506],[17.9238,-33.0545],[17.9293,-33.0533],[17.9279,-33.051],[17.9253,-33.0506]]],[[[17.9859,-33.1507],[17.9804,-33.1507],[17.9791,-33.1521],[17.9852,-33.1544],[17.9859,-33.1507]]],[[[18.0108,-33.085],[18.0059,-33.0858],[18.0108,-33.0868],[18.0108,-33.085]]],[[[17.9934,-33.1471],[17.9909,-33.1465],[17.9913,-33.148],[17.9934,-33.1471]]]]}},{"type":"Feature","properties":{"name":"Stellenbosch","district":"Cape Winelands"},"geometry":{"type":"Polygon","coordinates":[[[19.214,-33.8571],[19.1791,-33.8624],[19.1646,-33.8685],[19.1462,-33.8614],[19.1427,-33.8634],[19.1432,-33.8605],[19.0942,-33.8317],[19.0595,-33.854],[19.0558,-33.8596],[19.0466,-33.8405],[19.0343,-33.8389],[19.0311,-33.844],[19.0271,-33.8402],[19.0202,-33.8452],[18.9939,-33.8492],[18.9904,-33.8543],[18.982,-33.8529],[18.9724,-33.8444],[18.9666,-33.8531],[18.965,-33.8627],[18.9517,-33.8707],[18.9485,-33.8668],[18.9315,-33.8791],[18.9221,-33.8762],[18.8848,-33.8464],[18.8954,-33.8421],[18.8932,-33.8261],[18.8959,-33.8052],[18.9022,-33.8035],[18.9028,-33.7966],[18.8964,-33.7983],[18.8968,-33.7934],[18.8344,-33.8076],[18.8277,-33.7964],[18.822,-33.7989],[18.8212,-33.8114],[18.7678,-33.8262],[18.7684,-33.8327],[18.7529,-33.8344],[18.7531,-33.85],[18.7458,-33.8603],[18.7457,-33.874],[18.7529,-33.8845],[18.7514,-33.8935],[18.7459,-33.8874],[18.7371,-33.8935],[18.7356,-33.891],[18.7173,-33.8985],[18.7193,-33.9035],[18.7172,-33.9056],[18.7153,-33.9036],[18.7083,-33.9227],[18.7274,-33.9247],[18.7396,-33.9328],[18.744,-33.9322],[18.7369,-33.9406],[18.7308,-33.9628],[18.7335,-33.9659],[18.7283,-33.9693],[18.7454,-33.9874],[18.7377,-33.9893],[18.7518,-34.0053],[18.7459,-34.0064],[18.7474,-34.0104],[18.742,-34.0135],[18.7444,-34.0248],[18.751,-34.0282],[18.7548,-34.0347],[18.759,-34.0333],[18.7677,-34.0404],[18.7663,-34.0437],[18.7897,-34.0537],[18.806,-34.054],[18.8092,-34.0634],[18.8148,-34.052],[18.8052,-34.0512],[18.8189,-34.0397],[18.8418,-34.0471],[18.8619,-34.0383],[18.862,-34.0337],[18.8553,-34.0309],[18.8848,-34.0342],[18.8852,-34.0303],[18.8926,-34.0255],[18.8972,-34.0264],[18.9227,-34.0139],[18.9178,-34.0092],[18.9274,-33.9999],[18.9437,-34.0037],[18.9553,-34.0101],[18.9695,-34.0199],[18.9846,-34.0359],[19.0264,-34.0206],[19.0424,-34.0083],[19.1261,-33.9617],[19.1456,-33.956],[19.1646,-33.9714],[19.191,-33.9472],[19.2066,-33.9504],[19.2438,-33.8974],[19.214,-33.8571]]]}},{"type":"Feature","properties":{"name":"Swartland","district":"West Coast"},"geometry":{"type":"MultiPolygon","coordinates":[[[[18.5113,-32.946],[18.5204,-32.9562],[18.5385,-33.0051],[18.5315,-33.0115],[18.5384,-33.0347],[18.5039,-33.0464],[18.5207,-33.058],[18.5354,-33.0817],[18.505,-33.1108],[18.5065,-33.1169],[18.5026,-33.1238],[18.4944,-33.1263],[18.4941,-33.1431],[18.4977,-33.1453],[18.4871,-33.1587],[18.4909,-33.1669],[18.5048,-33.1777],[18.5169,-33.1983],[18.4993,-33.2276],[18.4443,-33.2181],[18.4466,-33.2091],[18.4201,-33.1922],[18.4068,-33.1941],[18.3939,-33.186],[18.368,-33.1554],[18.3637,-33.1602],[18.3276,-33.1636],[18.3084,-33.1799],[18.2879,-33.13],[18.2444,-33.1534],[18.2317,-33.1527],[18.2384,-33.1957],[18.2066,-33.2131],[18.2021,-33.2112],[18.2062,-33.2733],[18.2266,-33.3095],[18.2049,-33.308],[18.1913,-33.2956],[18.1884,-33.3167],[18.1839,-33.3118],[18.1828,-33.318],[18.1562,-33.3206],[18.1601,-33.3431],[18.1472,-33.3467],[18.147,-33.3544],[18.1535,-33.3562],[18.1623,-33.3682],[18.2123,-33.3945],[18.2388,-33.4134],[18.2744,-33.4452],[18.3046,-33.4816],[18.3074,-33.4815],[18.3102,-33.4962],[18.3164,-33.497],[18.3129,-33.5071],[18.3253,-33.5166],[18.3183,-33.5226],[18.3149,-33.5312],[18.3182,-33.5401],[18.3119,-33.5409],[18.3129,-33.5463],[18.3101,-33.5478],[18.3089,-33.5561],[18.3118,-33.5626],[18.3079,-33.5645],[18.3199,-33.5744],[18.3246,-33.575],[18.3256,-33.5706],[18.3308,-33.5719],[18.3332,-33.5691],[18.3416,-33.5724],[18.3413,-33.5586],[18.3604,-33.5489],[18.3594,-33.5423],[18.3691,-33.5253],[18.3837,-33.5117],[18.3888,-33.5089],[18.4025,-33.5143],[18.4262,-33.5112],[18.4399,-33.4979],[18.4555,-33.4713],[18.4848,-33.4777],[18.5094,-33.4895],[18.5245,-33.5036],[18.5242,-33.5252],[18.5365,-33.5271],[18.564,-33.5235],[18.5764,-33.5315],[18.58,-33.5577],[18.5686,-33.5621],[18.5744,-33.5735],[18.6059,-33.5855],[18.618,-33.5844],[18.6221,-33.6145],[18.627,-33.6246],[18.645,-33.6357],[18.6554,-33.6341],[18.6692,-33.6489],[18.6709,-33.6474],[18.6897,-33.6652],[18.6927,-33.6813],[18.7069,-33.6813],[18.7119,-33.6759],[18.7367,-33.687],[18.752,-33.6768],[18.7542,-33.6649],[18.7598,-33.6656],[18.7632,-33.6489],[18.7781,-33.6491],[18.8182,-33.5952],[18.8363,-33.6044],[18.8383,-33.5897],[18.8419,-33.5887],[18.8393,-33.5776],[18.8559,-33.5692],[18.8623,-33.5754],[18.8928,-33.5715],[18.8997,-33.5511],[18.9135,-33.5514],[18.9381,-33.546],[18.9314,-33.5249],[18.9399,-33.5214],[18.9362,-33.5067],[18.9398,-33.4994],[18.9341,-33.4922],[18.938,-33.4701],[18.9398,-33.4664],[18.9542,-33.4619],[18.9486,-33.4565],[18.9492,-33.4521],[18.9596,-33.4426],[18.9553,-33.4302],[18.9583,-33.4279],[18.9694,-33.4303],[18.9674,-33.4213],[18.9772,-33.4075],[18.9824,-33.407],[18.9783,-33.3993],[18.9924,-33.3944],[18.9887,-33.3889],[18.993,-33.3821],[18.9847,-33.3784],[18.9939,-33.3659],[18.9858,-33.3618],[18.9928,-33.3537],[18.9792,-33.3417],[18.9899,-33.3316],[18.9803,-33.3285],[18.9784,-33.3182],[18.984,-33.3131],[18.9962,-33.3135],[18.9974,-33.3079],[18.9882,-33.3047],[18.9897,-33.2995],[18.9796,-33.2969],[18.9808,-33.292],[18.9731,-33.2879],[18.9754,-33.2789],[18.9664,-33.2742],[18.9648,-33.2681],[18.9509,-33.2655],[18.9547,-33.2598],[18.9458,-33.2527],[18.9507,-33.2475],[18.9474,-33.2395],[18.9564,-33.2336],[18.9574,-33.2238],[18.9435,-33.2086],[18.9477,-33.2034],[18.9428,-33.2011],[18.9324,-33.2031],[18.9387,-33.1951],[18.9214,-33.1862],[18.9182,-33.1708],[18.9104,-33.1645],[18.912,-33.1582],[18.8866,-33.1591],[18.8776,-33.1468],[18.8711,-33.1494],[18.8654,-33.1474],[18.8603,-33.1351],[18.8634,-33.1311],[18.8541,-33.1294],[18.8524,-33.1254],[18.8555,-33.119],[18.8446,-33.1173],[18.8416,-33.0988],[18.8345,-33.0957],[18.8355,-33.0861],[18.8295,-33.0811],[18.8315,-33.0696],[18.8211,-33.0715],[18.8228,-33.0655],[18.8195,-33.0552],[18.8159,-33.0518],[18.8057,-33.0503],[18.8107,-33.0458],[18.811,-33.0377],[18.8166,-33.0319],[18.8062,-33.0294],[18.8014,-33.0238],[18.7944,-33.0291],[18.7894,-33.0281],[18.7826,-32.9999],[18.7735,-32.9922],[18.7717,-32.9862],[18.758,-32.9801],[18.7548,-32.9727],[18.748,-32.9729],[18.7266,-32.9505],[18.7128,-32.951],[18.704,-32.9457],[18.6937,-32.9451],[18.6885,-32.9386],[18.6829,-32.9441],[18.6759,-32.9293],[18.6775,-32.9207],[18.6701,-32.9218],[18.6584,-32.9192],[18.6547,-32.9152],[18.6361,-32.9129],[18.6255,-32.9186],[18.6136,-32.9139],[18.6081,-32.9199],[18.5944,-32.9003],[18.5743,-32.9023],[18.5726,-32.9134],[18.5658,-32.9117],[18.5603,-32.9171],[18.5504,-32.917],[18.5482,-32.921],[18.5534,-32.9317],[18.5479,-32.94],[18.5322,-32.9399],[18.5274,-32.9437],[18.5142,-32.9428],[18.5113,-32.946]]],[[[18.0743,-33.4126],[18.0737,-33.4172],[18.0847,-33.4284],[18.0823,-33.4326],[18.0985,-33.4315],[18.0892,-33.4134],[18.0827,-33.4186],[18.0743,-33.4126]]]]}},{"type":"Feature","properties":{"name":"Swellendam","district":"Overberg"},"geometry":{"type":"Polygon","coordinates":[[[20.8714,-34.4524],[20.8678,-34.4331],[20.8696,-34.4292],[20.8566,-34.422],[20.8535,-34.4128],[20.8487,-34.4088],[20.85,-34.4034],[20.82,-34.4013],[20.7983,-34.408],[20.7666,-34.3946],[20.7351,-34.3877],[20.7066,-34.364],[20.6907,-34.3587],[20.6861,-34.3466],[20.6688,-34.3498],[20.6552,-34.3487],[20.6477,-34.3549],[20.6415,-34.3555],[20.6293,-34.3448],[20.6224,-34.3436],[20.5974,-34.3518],[20.5963,-34.348],[20.6039,-34.3355],[20.6049,-34.324],[20.622,-34.3167],[20.6178,-34.3027],[20.5913,-34.3043],[20.5888,-34.2977],[20.5828,-34.2946],[20.5681,-34.3042],[20.5656,-34.2993],[20.5726,-34.283],[20.5994,-34.2729],[20.6377,-34.2429],[20.6392,-34.2343],[20.6528,-34.2236],[20.6928,-34.2024],[20.6996,-34.2132],[20.7189,-34.1955],[20.6969,-34.1844],[20.665,-34.1885],[20.6543,-34.1714],[20.6453,-34.1755],[20.6497,-34.1491],[20.6562,-34.1448],[20.6421,-34.1353],[20.6487,-34.1194],[20.6474,-34.1092],[20.6393,-34.0976],[20.6401,-34.086],[20.6605,-34.089],[20.6873,-34.0874],[20.691,-34.0891],[20.693,-34.1008],[20.7043,-34.0909],[20.7032,-34.0881],[20.7543,-34.0972],[20.7404,-34.0713],[20.7476,-34.0667],[20.7286,-34.0575],[20.7227,-34.0368],[20.6999,-34.0397],[20.694,-34.0068],[20.7107,-34.0102],[20.71,-34.0165],[20.7128,-34.0179],[20.7296,-34.0181],[20.7281,-34.0066],[20.7321,-33.9989],[20.729,-33.9884],[20.7189,-33.9865],[20.7052,-33.9902],[20.7073,-33.9802],[20.6947,-33.976],[20.7024,-33.9675],[20.7021,-33.9609],[20.707,-33.9591],[20.7073,-33.9551],[20.8066,-33.9464],[20.8164,-33.9402],[20.8191,-33.9405],[20.8266,-33.9655],[20.8411,-33.9731],[20.8426,-33.9644],[20.8539,-33.9632],[20.8678,-33.955],[20.8782,-33.964],[20.9215,-33.9528],[20.9364,-33.9612],[20.934,-33.9476],[20.9386,-33.925],[20.9523,-33.9018],[20.9238,-33.8893],[20.9361,-33.8791],[20.9568,-33.8063],[20.9656,-33.8043],[21.0103,-33.7566],[20.9806,-33.7396],[20.9657,-33.7426],[20.9341,-33.7246],[20.9388,-33.6998],[20.8799,-33.6926],[20.885,-33.7174],[20.8003,-33.715],[20.8095,-33.6985],[20.8072,-33.6897],[20.7756,-33.6917],[20.7189,-33.6406],[20.666,-33.622],[20.6455,-33.6362],[20.5862,-33.6672],[20.5816,-33.6221],[20.5033,-33.637],[20.5352,-33.6607],[20.5039,-33.682],[20.4692,-33.682],[20.4728,-33.7292],[20.4479,-33.774],[20.5145,-33.8026],[20.4805,-33.8228],[20.4684,-33.8183],[20.4682,-33.8134],[20.4502,-33.8068],[20.4437,-33.8101],[20.4266,-33.8109],[20.4415,-33.8198],[20.4353,-33.8264],[20.4418,-33.8371],[20.4425,-33.8579],[20.4607,-33.8764],[20.4683,-33.8803],[20.4699,-33.8897],[20.4695,-33.8957],[20.4602,-33.9063],[20.436,-33.9577],[20.3244,-33.9496],[20.2344,-33.8979],[20.2225,-33.9128],[20.2584,-33.9417],[20.2832,-33.9574],[20.2803,-33.9538],[20.2843,-33.9544],[20.2969,-33.964],[20.328,-33.9731],[20.3178,-33.9936],[20.3242,-34.0018],[20.3138,-34.0017],[20.3071,-34.0056],[20.3041,-34.0141],[20.3071,-34.0294],[20.2908,-34.0419],[20.2792,-34.0396],[20.284,-34.0414],[20.2865,-34.0511],[20.2945,-34.0504],[20.2989,-34.0603],[20.2858,-34.065],[20.2861,-34.0789],[20.3057,-34.0773],[20.2913,-34.0913],[20.2701,-34.0902],[20.2727,-34.1062],[20.2497,-34.1061],[20.2468,-34.1173],[20.2218,-34.1111],[20.23,-34.0952],[20.2031,-34.0884],[20.1974,-34.1005],[20.1873,-34.102],[20.1878,-34.0974],[20.1405,-34.0854],[20.1376,-34.0824],[20.1493,-34.0766],[20.2022,-34.0786],[20.2049,-34.0655],[20.2003,-34.053],[20.1925,-34.0462],[20.1961,-34.04],[20.1778,-34.0298],[20.1724,-34.0398],[20.1517,-34.0446],[20.1417,-34.0592],[20.0808,-34.0646],[20.0328,-34.0597],[20.0085,-34.0639],[20.0108,-34.0916],[19.9924,-34.1051],[19.9896,-34.1153],[20.0028,-34.1284],[19.9801,-34.1317],[19.9879,-34.147],[19.9798,-34.1663],[19.9657,-34.1763],[19.9383,-34.1728],[19.9374,-34.1819],[19.9325,-34.181],[19.9348,-34.1713],[19.9313,-34.1625],[19.9281,-34.1715],[19.8932,-34.1747],[19.8914,-34.1925],[19.9059,-34.1936],[19.9009,-34.2147],[19.8899,-34.207],[19.889,-34.2156],[19.8804,-34.2201],[19.9177,-34.2383],[19.94,-34.2396],[19.9778,-34.2132],[20.011,-34.2206],[20.0324,-34.2036],[20.0635,-34.217],[20.0655,-34.2413],[20.0948,-34.2506],[20.1113,-34.2427],[20.134,-34.2504],[20.1486,-34.2712],[20.175,-34.2794],[20.1772,-34.2752],[20.2119,-34.2883],[20.2448,-34.2889],[20.2621,-34.2742],[20.2913,-34.2763],[20.2827,-34.302],[20.2675,-34.3136],[20.2818,-34.338],[20.2857,-34.3371],[20.2863,-34.3452],[20.2637,-34.375],[20.2715,-34.375],[20.2891,-34.4178],[20.3573,-34.3884],[20.392,-34.4263],[20.4198,-34.4186],[20.4186,-34.4268],[20.4547,-34.417],[20.5085,-34.4195],[20.5,-34.406],[20.4848,-34.4013],[20.4834,-34.3729],[20.5178,-34.3732],[20.5194,-34.3658],[20.5282,-34.3646],[20.5271,-34.3614],[20.5317,-34.3605],[20.5611,-34.3633],[20.6026,-34.3798],[20.6009,-34.3826],[20.6593,-34.3991],[20.6829,-34.3888],[20.6878,-34.4176],[20.7118,-34.4126],[20.7629,-34.4172],[20.775,-34.4265],[20.7821,-34.4242],[20.8168,-34.4289],[20.8181,-34.443],[20.8714,-34.4524]]]}},{"type":"Feature","properties":{"name":"Theewaterskloof","district":"Overberg"},"geometry":{"type":"Polygon","coordinates":[[[19.2438,-33.8974],[19.2066,-33.9504],[19.191,-33.9472],[19.1646,-33.9714],[19.1456,-33.956],[19.1261,-33.9617],[19.0424,-34.0083],[19.0264,-34.0206],[18.9871,-34.0353],[19.0048,-34.0756],[18.9668,-34.1024],[18.9439,-34.1382],[18.9652,-34.14],[18.9638,-34.1529],[18.9803,-34.155],[18.9625,-34.1777],[18.9543,-34.1736],[18.9544,-34.1838],[18.9296,-34.1977],[18.9307,-34.2035],[18.956,-34.2105],[18.9456,-34.2281],[18.9477,-34.2454],[18.98,-34.254],[19.0118,-34.2742],[19.0221,-34.2717],[19.0391,-34.2742],[19.1301,-34.2431],[19.1432,-34.2525],[19.1536,-34.2687],[19.1572,-34.2638],[19.1707,-34.2682],[19.207,-34.2967],[19.2109,-34.2936],[19.2134,-34.3267],[19.2579,-34.3163],[19.303,-34.3286],[19.3065,-34.3398],[19.2975,-34.3432],[19.2975,-34.3458],[19.3052,-34.356],[19.2934,-34.3671],[19.3006,-34.3753],[19.3225,-34.3743],[19.3232,-34.3809],[19.3516,-34.3876],[19.403,-34.3756],[19.4462,-34.3909],[19.4951,-34.3998],[19.5245,-34.3903],[19.556,-34.3897],[19.5489,-34.3958],[19.5904,-34.3905],[19.5822,-34.4041],[19.6032,-34.406],[19.5829,-34.4255],[19.5831,-34.4297],[19.616,-34.4243],[19.6269,-34.4169],[19.6246,-34.4032],[19.6172,-34.3994],[19.6288,-34.3803],[19.6371,-34.3788],[19.6411,-34.372],[19.6356,-34.3631],[19.6303,-34.3651],[19.6351,-34.3563],[19.6174,-34.3528],[19.6183,-34.3495],[19.6282,-34.3444],[19.6275,-34.3408],[19.6358,-34.342],[19.6419,-34.3368],[19.6424,-34.3395],[19.6575,-34.3173],[19.6692,-34.3211],[19.6722,-34.3273],[19.6645,-34.3439],[19.6684,-34.3572],[19.675,-34.3605],[19.6808,-34.3533],[19.6918,-34.3489],[19.7052,-34.3501],[19.7342,-34.3166],[19.7409,-34.3126],[19.7606,-34.3306],[19.7746,-34.3328],[19.7944,-34.3207],[19.7977,-34.2846],[19.8052,-34.2786],[19.8454,-34.2804],[19.8501,-34.2596],[19.8468,-34.262],[19.8375,-34.2603],[19.8458,-34.2615],[19.8502,-34.2588],[19.8561,-34.2336],[19.889,-34.2156],[19.8899,-34.207],[19.9009,-34.2147],[19.9059,-34.1936],[19.8914,-34.1925],[19.8932,-34.1747],[19.9281,-34.1715],[19.9313,-34.1625],[19.9348,-34.1713],[19.9325,-34.181],[19.9374,-34.1819],[19.9383,-34.1728],[19.9657,-34.1763],[19.9798,-34.1663],[19.9848,-34.1574],[19.9874,-34.1435],[19.9801,-34.1317],[20.0028,-34.1284],[19.9896,-34.1153],[19.9924,-34.1051],[20.0075,-34.0939],[19.9893,-34.0855],[19.9865,-34.0782],[19.9062,-34.0762],[19.8855,-34.0662],[19.8103,-34.0554],[19.7552,-34.0544],[19.735,-34.0412],[19.7148,-34.049],[19.7001,-34.0464],[19.6807,-34.0091],[19.6406,-34.0028],[19.5898,-34.0124],[19.5662,-34.002],[19.5333,-33.9695],[19.5069,-33.9717],[19.4558,-33.9999],[19.4267,-33.9932],[19.3618,-33.9715],[19.3486,-33.9552],[19.3359,-33.9582],[19.3251,-33.9521],[19.3189,-33.9472],[19.3128,-33.935],[19.3105,-33.9137],[19.2974,-33.8897],[19.2782,-33.8795],[19.2584,-33.8831],[19.2653,-33.9003],[19.2438,-33.8974]]]}},{"type":"Feature","properties":{"name":"Witzenberg","district":"Cape Winelands"},"geometry":{"type":"Polygon","coordinates":[[[19.0724,-33.1277],[19.074,-33.1317],[19.0657,-33.1496],[19.0824,-33.1654],[19.08,-33.1796],[19.0774,-33.179],[19.0577,-33.2001],[19.0752,-33.2131],[19.078,-33.2371],[19.063,-33.2313],[19.0659,-33.2667],[19.0577,-33.2675],[19.0678,-33.2919],[19.0617,-33.297],[19.0756,-33.3144],[19.0837,-33.3187],[19.0867,-33.3326],[19.0831,-33.3509],[19.0864,-33.4311],[19.1113,-33.5092],[19.0995,-33.5299],[19.107,-33.5411],[19.1402,-33.5647],[19.1694,-33.5975],[19.1854,-33.562],[19.1987,-33.5572],[19.2219,-33.5624],[19.2395,-33.5588],[19.2521,-33.5797],[19.2774,-33.59],[19.2786,-33.5872],[19.2885,-33.5979],[19.2766,-33.6102],[19.28,-33.6139],[19.2867,-33.6067],[19.3113,-33.6071],[19.3167,-33.5975],[19.3231,-33.5993],[19.3227,-33.6034],[19.328,-33.599],[19.3481,-33.6008],[19.3623,-33.624],[19.3786,-33.6191],[19.3767,-33.5883],[19.3811,-33.5837],[19.3755,-33.5767],[19.3723,-33.5776],[19.3672,-33.5678],[19.3954,-33.5574],[19.4053,-33.4805],[19.4732,-33.4617],[19.5379,-33.4264],[19.5497,-33.3953],[19.5671,-33.382],[19.5807,-33.3645],[19.6687,-33.3819],[19.7545,-33.3726],[19.8199,-33.3769],[19.8298,-33.381],[19.9085,-33.3627],[19.9344,-33.348],[19.9554,-33.3177],[19.972,-33.3168],[19.9891,-33.2872],[19.9976,-33.2591],[20.0138,-33.2388],[20.087,-33.1933],[20.1202,-33.1916],[20.1461,-33.1735],[20.2022,-33.1701],[20.2512,-33.1499],[20.3064,-33.1593],[20.3185,-33.1209],[20.2791,-33.0639],[20.3025,-33.068],[20.3343,-33.0358],[20.3838,-33.0363],[20.395,-32.9932],[20.4278,-32.9794],[20.4347,-32.9719],[20.4386,-32.9401],[20.38,-32.9019],[20.3639,-32.9108],[20.3639,-32.8859],[20.3572,-32.8641],[20.3417,-32.8578],[20.2999,-32.805],[20.2573,-32.7997],[20.219,-32.7847],[20.1876,-32.7527],[20.1917,-32.6858],[20.1814,-32.6681],[20.1412,-32.6437],[20.1369,-32.611],[20.1147,-32.5702],[20.1228,-32.557],[20.0968,-32.503],[20.0964,-32.4767],[20.0797,-32.3975],[20.132,-32.4211],[20.1705,-32.3809],[20.1635,-32.351],[20.216,-32.3032],[20.2542,-32.3108],[20.2408,-32.2242],[20.1664,-32.2275],[20.1809,-32.1845],[20.1518,-32.1865],[20.1359,-32.1923],[20.119,-32.207],[20.097,-32.2502],[20.085,-32.2483],[20.0536,-32.2523],[20.0386,-32.2964],[20.0044,-32.3299],[19.9682,-32.3505],[19.9375,-32.3773],[19.8739,-32.3832],[19.8495,-32.3662],[19.8178,-32.3607],[19.8027,-32.3937],[19.7641,-32.4111],[19.7366,-32.3855],[19.7313,-32.4101],[19.7074,-32.4203],[19.7302,-32.4424],[19.6797,-32.4635],[19.6681,-32.4548],[19.6549,-32.4388],[19.6219,-32.4706],[19.6265,-32.502],[19.6071,-32.5454],[19.612,-32.5665],[19.6049,-32.6295],[19.5872,-32.6478],[19.5282,-32.6732],[19.4992,-32.6121],[19.4868,-32.5654],[19.485,-32.58],[19.4756,-32.5969],[19.4608,-32.6076],[19.4522,-32.6078],[19.4533,-32.6257],[19.4413,-32.6381],[19.4379,-32.6259],[19.419,-32.6223],[19.3961,-32.6067],[19.3712,-32.6089],[19.3569,-32.6164],[19.3412,-32.5831],[19.3201,-32.5746],[19.2812,-32.5814],[19.2647,-32.5887],[19.2231,-32.5747],[19.2026,-32.5776],[19.1592,-32.5719],[19.1486,-32.5857],[19.1564,-32.6043],[19.1376,-32.6046],[19.143,-32.6214],[19.2048,-32.7111],[19.2086,-32.731],[19.1718,-32.7368],[19.1706,-32.7958],[19.1844,-32.8271],[19.1861,-32.8682],[19.1537,-32.984],[19.1655,-33.0354],[19.1774,-33.06],[19.173,-33.0919],[19.1462,-33.1061],[19.0896,-33.1141],[19.0724,-33.1277]]]}}]}