{"type":"FeatureCollection","features":[{"type":"Feature","properties":{"name":"South Africa"},"geometry":{"type":"MultiPolygon","coordinates":[[[[19.4149,-34.6865],[19.4188,-34.6782],[19.4234,-34.6801],[19.4149,-34.6865]]],[[[18.3738,-33.7922],[18.3607,-33.8144],[18.3624,-33.7906],[18.3738,-33.7922]]],[[[18.0722,-33.4135],[18.0984,-33.43],[18.0852,-33.4335],[18.0722,-33.4135]]],[[[17.9804,-33.1507],[17.9852,-33.1544],[17.98,-33.1527],[17.9804,-33.1507]]],[[[18.0194,-33.0946],[18.0211,-33.088],[18.0263,-33.0918],[18.0194,-33.0946]]],[[[17.9601,-33.0837],[17.9506,-33.0817],[17.9535,-33.0801],[17.9601,-33.0837]]],[[[17.9253,-33.0506],[17.9293,-33.0533],[17.9238,-33.0545],[17.9253,-33.0506]]],[[[23.6442,-33.98],[23.4151,-34.0179],[23.3715,-34.0787],[23.4068,-34.1114],[23.0086,-34.072],[22.9742,-34.0909],[22.5793,-33.9958],[22.4846,-34.0513],[22.2345,-34.0582],[22.1259,-34.1149],[22.1127,-34.1647],[22.1608,-34.1873],[21.9571,-34.2287],[21.9147,-34.2661],[21.9427,-34.2999],[21.9145,-34.3383],[21.8355,-34.3752],[21.6962,-34.395],[21.5226,-34.3571],[21.299,-34.4386],[21.1021,-34.3769],[20.9041,-34.3725],[20.8498,-34.4037],[20.8718,-34.4523],[20.8462,-34.4744],[20.6467,-34.45],[20.4761,-34.4923],[20.397,-34.5723],[20.2488,-34.6441],[20.2326,-34.6896],[20.0798,-34.7365],[20.0482,-34.7736],[20.0638,-34.806],[19.9984,-34.8341],[19.8722,-34.7659],[19.6415,-34.7834],[19.4085,-34.6065],[19.2986,-34.6328],[19.3781,-34.5404],[19.2754,-34.4091],[19.2185,-34.4381],[19.1412,-34.4232],[19.0387,-34.3413],[18.8266,-34.3883],[18.8119,-34.2988],[18.8559,-34.2524],[18.8184,-34.19],[18.8681,-34.1605],[18.7734,-34.083],[18.6308,-34.0733],[18.4691,-34.1091],[18.4252,-34.1847],[18.4754,-34.2304],[18.4612,-34.317],[18.4971,-34.3556],[18.4211,-34.3261],[18.369,-34.1932],[18.3183,-34.1459],[18.3688,-34.0627],[18.3072,-34.0395],[18.3983,-33.9009],[18.4501,-33.9196],[18.4842,-33.8885],[18.438,-33.6926],[18.355,-33.5786],[18.3101,-33.568],[18.3253,-33.5166],[18.2942,-33.467],[18.1485,-33.3536],[18.1065,-33.2407],[17.9707,-33.1375],[17.9522,-33.107],[17.9778,-33.0666],[18.0261,-33.1453],[18.0966,-33.2047],[18.123,-33.1922],[18.029,-33.0982],[18.0301,-33.0239],[17.9682,-32.9962],[17.9461,-33.006],[17.948,-33.0211],[17.9647,-33.0271],[17.973,-33.0352],[17.9718,-33.0438],[17.8952,-33.0417],[17.858,-32.9055],[17.8847,-32.8709],[17.8454,-32.8265],[17.9053,-32.7965],[17.897,-32.7406],[17.9715,-32.7026],[18.0551,-32.7837],[18.1389,-32.7733],[18.309,-32.5768],[18.3348,-32.4643],[18.3142,-32.3165],[18.3447,-32.2823],[18.2654,-31.9396],[18.2788,-31.8934],[18.1107,-31.5745],[17.7436,-31.1361],[17.2783,-30.3459],[17.0744,-29.8128],[16.9713,-29.4382],[16.838,-29.211],[16.8174,-29.0933],[16.7479,-29.0425],[16.6871,-28.9241],[16.6026,-28.8748],[16.5704,-28.7277],[16.4519,-28.6321],[16.4567,-28.5905],[16.6727,-28.4723],[16.734,-28.4943],[16.8082,-28.3608],[16.7546,-28.2726],[16.8258,-28.2671],[16.8031,-28.222],[16.8555,-28.2125],[16.8346,-28.1653],[16.8879,-28.1729],[16.8846,-28.0899],[17.0788,-28.0328],[17.1919,-28.1082],[17.1821,-28.1999],[17.215,-28.2481],[17.334,-28.2261],[17.3823,-28.2959],[17.4105,-28.3972],[17.3331,-28.4749],[17.3802,-28.5689],[17.4326,-28.578],[17.419,-28.7222],[17.5677,-28.6856],[17.6475,-28.7738],[17.7515,-28.7402],[17.9173,-28.764],[18.0461,-28.8743],[18.1884,-28.9162],[18.2635,-28.8794],[18.4235,-28.9008],[18.7352,-28.832],[18.9356,-28.8572],[19.0091,-28.9292],[19.1551,-28.9619],[19.2964,-28.8932],[19.242,-28.8271],[19.2677,-28.7439],[19.4666,-28.7062],[19.5631,-28.5295],[19.6683,-28.5311],[19.7386,-28.4857],[19.813,-28.5083],[19.878,-28.4424],[19.9992,-28.4277],[19.9989,-24.7659],[20.1158,-24.8809],[20.2591,-24.9236],[20.3842,-25.0343],[20.4309,-25.1543],[20.469,-25.1569],[20.4464,-25.199],[20.5457,-25.2862],[20.5139,-25.3172],[20.5465,-25.32],[20.5614,-25.3893],[20.6311,-25.4255],[20.6223,-25.4616],[20.6744,-25.4532],[20.6362,-25.4735],[20.6292,-25.525],[20.6982,-25.5951],[20.6518,-25.6375],[20.6879,-25.6355],[20.6779,-25.6904],[20.7635,-25.7804],[20.7392,-25.8224],[20.7882,-25.8031],[20.7827,-25.855],[20.8131,-25.8697],[20.8029,-25.921],[20.8404,-25.9559],[20.8209,-26.1055],[20.8633,-26.1327],[20.6933,-26.3978],[20.6173,-26.444],[20.6048,-26.5147],[20.6326,-26.5918],[20.6224,-26.7862],[20.6823,-26.8401],[20.6856,-26.9073],[20.8981,-26.7963],[21.1342,-26.8738],[21.4054,-26.8221],[21.5251,-26.8618],[21.5753,-26.8399],[21.6948,-26.8612],[21.7802,-26.8025],[21.7874,-26.6761],[21.9493,-26.6699],[22.0522,-26.6329],[22.1635,-26.5083],[22.1902,-26.4008],[22.2423,-26.3499],[22.3634,-26.3251],[22.3631,-26.2858],[22.4701,-26.2014],[22.5574,-26.2218],[22.5786,-26.142],[22.605,-26.1492],[22.6731,-26.0737],[22.6657,-26.0179],[22.7257,-26.0129],[22.749,-25.9173],[22.7119,-25.8935],[22.7817,-25.8239],[22.7346,-25.7937],[22.8215,-25.6905],[22.8004,-25.6328],[22.8537,-25.6136],[22.8141,-25.5824],[22.8526,-25.5355],[22.8464,-25.4902],[22.9004,-25.4868],[22.9099,-25.4223],[23.009,-25.3379],[23.011,-25.2972],[23.0584,-25.2899],[23.0793,-25.3318],[23.212,-25.2734],[23.4163,-25.3158],[23.4658,-25.2767],[23.4962,-25.3516],[23.6148,-25.3833],[23.6375,-25.4316],[23.6684,-25.4161],[23.704,-25.4626],[23.729,-25.4464],[23.9285,-25.6382],[23.9726,-25.6149],[24.012,-25.6245],[24.0065,-25.6515],[24.0586,-25.6519],[24.1577,-25.6084],[24.3592,-25.7589],[24.4674,-25.7375],[24.6818,-25.8237],[24.8969,-25.8108],[25.0379,-25.7223],[25.1198,-25.7632],[25.3341,-25.771],[25.5137,-25.6843],[25.5809,-25.6388],[25.6298,-25.5378],[25.6998,-25.291],[25.881,-24.9156],[25.8483,-24.755],[26.4088,-24.6461],[26.5877,-24.4113],[26.8659,-24.251],[26.8602,-24.1066],[26.9325,-23.9531],[26.9553,-23.8736],[26.9323,-23.8511],[27.0023,-23.6451],[27.038,-23.6827],[27.0707,-23.6706],[27.0594,-23.6126],[27.1527,-23.5674],[27.1338,-23.5254],[27.1991,-23.535],[27.1921,-23.4985],[27.303,-23.4627],[27.3298,-23.4031],[27.3743,-23.4271],[27.4072,-23.3888],[27.427,-23.4258],[27.442,-23.3847],[27.5286,-23.3853],[27.5993,-23.2179],[27.6893,-23.1962],[27.7416,-23.2304],[27.7858,-23.168],[27.7673,-23.1335],[27.9383,-23.0483],[27.9358,-22.9618],[28.0407,-22.9088],[28.0423,-22.8323],[28.1451,-22.7748],[28.1826,-22.6886],[28.3426,-22.5737],[28.515,-22.5891],[28.8311,-22.4883],[28.855,-22.4516],[28.9219,-22.4584],[28.9714,-22.377],[28.9666,-22.3075],[29.0369,-22.2163],[29.155,-22.2145],[29.2172,-22.1783],[29.3361,-22.2046],[29.4641,-22.1661],[29.528,-22.178],[29.6544,-22.125],[29.9266,-22.1903],[30.1238,-22.3102],[30.2275,-22.295],[30.291,-22.3563],[30.8392,-22.2921],[31.0884,-22.349],[31.162,-22.3284],[31.2162,-22.3697],[31.2685,-22.3675],[31.3094,-22.422],[31.5636,-23.1982],[31.561,-23.482],[31.6905,-23.6294],[31.6974,-23.7219],[31.7692,-23.8878],[31.8807,-23.9551],[31.908,-24.1824],[31.9871,-24.3022],[32.0336,-25.1325],[32.0146,-25.3856],[31.9774,-25.4747],[32.0061,-25.6452],[31.9305,-25.8408],[31.9737,-25.9532],[31.8679,-25.9996],[31.4163,-25.7188],[31.3159,-25.743],[31.1266,-25.9211],[30.9614,-26.2617],[30.8051,-26.4667],[30.8027,-26.824],[30.8204,-26.8424],[30.8922,-26.7861],[30.9074,-26.8599],[30.9736,-26.9082],[30.9583,-26.9921],[30.9848,-27.037],[31.1506,-27.2021],[31.4937,-27.3152],[31.9778,-27.3175],[32.0167,-26.8078],[32.1007,-26.8053],[32.1816,-26.8631],[32.2203,-26.8328],[32.3324,-26.8638],[32.945,-26.872],[32.8965,-27.1204],[32.7302,-27.5212],[32.6146,-28.1417],[32.483,-28.3883],[32.4706,-28.4853],[32.4148,-28.4764],[32.3575,-28.5805],[32.0128,-28.877],[31.758,-28.9704],[31.3408,-29.382],[31.128,-29.6536],[31.0432,-29.8072],[31.0597,-29.8791],[30.8839,-30.06],[30.5473,-30.6273],[30.0687,-31.2377],[29.8586,-31.4296],[29.7383,-31.4644],[29.6239,-31.586],[29.4223,-31.6917],[29.3463,-31.8049],[28.8824,-32.2798],[28.3736,-32.7049],[28.1392,-32.8073],[28.081,-32.9121],[27.9037,-33.0424],[27.728,-33.1214],[27.111,-33.5253],[26.5586,-33.7482],[26.3219,-33.7678],[26.0405,-33.7051],[25.7912,-33.7426],[25.6653,-33.8219],[25.6134,-33.9189],[25.7043,-34.0316],[25.408,-34.0358],[25.211,-33.9686],[25.0175,-33.973],[24.9281,-34.0155],[24.9215,-34.0788],[24.8429,-34.1416],[24.8322,-34.1675],[24.8669,-34.1935],[24.8368,-34.2136],[24.4913,-34.1676],[24.3819,-34.1031],[24.1938,-34.06],[23.6442,-33.98]],[[27.3832,-30.337],[27.4688,-30.3165],[27.4896,-30.3735],[27.5531,-30.4012],[27.607,-30.4925],[27.7419,-30.6039],[27.9155,-30.6013],[27.9405,-30.6441],[28.1135,-30.6755],[28.113,-30.6002],[28.1765,-30.527],[28.1564,-30.4655],[28.2573,-30.4183],[28.271,-30.3564],[28.2069,-30.2907],[28.2364,-30.2599],[28.3458,-30.2321],[28.3998,-30.1437],[28.4571,-30.1574],[28.5513,-30.1209],[28.6676,-30.1407],[28.8545,-30.0905],[29.1694,-29.9163],[29.1026,-29.8501],[29.1317,-29.8256],[29.1236,-29.7673],[29.1626,-29.677],[29.2831,-29.6411],[29.2848,-29.5864],[29.3251,-29.5698],[29.2932,-29.4905],[29.3876,-29.4557],[29.4372,-29.3947],[29.4399,-29.2691],[29.4074,-29.2116],[29.3446,-29.1875],[29.3555,-29.1268],[29.3125,-29.0793],[29.254,-29.0888],[29.2155,-29.0263],[29.0176,-28.8816],[28.9802,-28.9147],[28.9219,-28.8125],[28.9438,-28.7827],[28.905,-28.7592],[28.8078,-28.7709],[28.8062,-28.7099],[28.7046,-28.6713],[28.7012,-28.6152],[28.6481,-28.5714],[28.5894,-28.608],[28.4041,-28.6243],[28.3528,-28.7002],[28.1861,-28.695],[28.0506,-28.8198],[28.0277,-28.879],[27.9384,-28.8483],[27.8889,-28.9165],[27.7555,-28.8969],[27.7618,-28.9371],[27.7228,-28.951],[27.7125,-29.0113],[27.6414,-29.0461],[27.6755,-29.0773],[27.6014,-29.1371],[27.6142,-29.1642],[27.5149,-29.2244],[27.5409,-29.2599],[27.4554,-29.2972],[27.4723,-29.3185],[27.4304,-29.3741],[27.4055,-29.3664],[27.4246,-29.4041],[27.3567,-29.4527],[27.3613,-29.4856],[27.3076,-29.4958],[27.3063,-29.5332],[27.1579,-29.5597],[27.0859,-29.6146],[27.0671,-29.5971],[27.056,-29.6371],[27.0174,-29.6182],[27.0139,-29.6618],[27.0966,-29.7299],[27.2189,-30.01],[27.2965,-30.0561],[27.3269,-30.1481],[27.4074,-30.1449],[27.3683,-30.1938],[27.3832,-30.337]]]]}},{"type":"Feature","properties":{"name":"Western Cape"},"geometry":{"type":"MultiPolygon","coordinates":[[[[18.3567,-33.8018],[18.3824,-33.8143],[18.3708,-33.8202],[18.3567,-33.8018]]],[[[18.0823,-33.4326],[18.0892,-33.4134],[18.0985,-33.4315],[18.0823,-33.4326]]],[[[17.9857,-33.1505],[17.9791,-33.1521],[17.9794,-33.1512],[17.9857,-33.1505]]],[[[17.9925,-33.1481],[17.9909,-33.1465],[17.9938,-33.1461],[17.9925,-33.1481]]],[[[18.0196,-33.0884],[18.0241,-33.0944],[18.0178,-33.0931],[18.0196,-33.0884]]],[[[18.0098,-33.0844],[18.0085,-33.0869],[18.0057,-33.0841],[18.0098,-33.0844]]],[[[17.9506,-33.0817],[17.96,-33.0851],[17.9553,-33.0875],[17.9506,-33.0817]]],[[[17.9253,-33.0506],[17.9268,-33.055],[17.9232,-33.0536],[17.9253,-33.0506]]],[[[19.4181,-34.6867],[19.4126,-34.6905],[19.4099,-34.6882],[19.4181,-34.6867]]],[[[19.4188,-34.6782],[19.4149,-34.6865],[19.4115,-34.6849],[19.4188,-34.6782]]],[[[20.8485,-34.4075],[20.872,-34.4507],[20.8478,-34.4749],[20.6467,-34.45],[20.4761,-34.4923],[20.3994,-34.5714],[20.2433,-34.6485],[20.236,-34.6916],[20.0798,-34.7365],[20.0482,-34.7736],[20.0638,-34.806],[19.9984,-34.8341],[19.8722,-34.7659],[19.6384,-34.7827],[19.4116,-34.6074],[19.3467,-34.6266],[19.2934,-34.6331],[19.379,-34.544],[19.341,-34.4611],[19.2754,-34.4091],[19.2185,-34.4381],[19.1422,-34.4236],[19.0421,-34.3411],[18.8266,-34.3883],[18.8119,-34.2988],[18.8559,-34.2524],[18.8184,-34.19],[18.868,-34.1587],[18.7734,-34.083],[18.6308,-34.0733],[18.4691,-34.1091],[18.4252,-34.1847],[18.4761,-34.2308],[18.4608,-34.3195],[18.4981,-34.3572],[18.4004,-34.3077],[18.3705,-34.1961],[18.3183,-34.1459],[18.3688,-34.0627],[18.3072,-34.0395],[18.3989,-33.9004],[18.4459,-33.9203],[18.4846,-33.8898],[18.438,-33.6926],[18.355,-33.5786],[18.3079,-33.5645],[18.3074,-33.4815],[18.1472,-33.3548],[18.1574,-33.3234],[18.1065,-33.2407],[18.0154,-33.1555],[18.0057,-33.1484],[17.9707,-33.1375],[17.9525,-33.1046],[17.9952,-33.0701],[17.9819,-33.0948],[18.0132,-33.0956],[18.025,-33.1447],[18.0948,-33.2039],[18.123,-33.1922],[18.0323,-33.1054],[18.0301,-33.0239],[17.9974,-33.0078],[17.9834,-33.0321],[17.9964,-32.9999],[17.9682,-32.9962],[17.9461,-33.0073],[17.973,-33.0352],[17.9705,-33.045],[17.8935,-33.041],[17.8568,-32.9057],[17.8829,-32.863],[17.844,-32.8248],[17.9026,-32.8009],[17.8952,-32.7422],[17.9674,-32.7004],[18.0558,-32.7841],[18.1389,-32.7733],[18.3047,-32.5862],[18.3348,-32.4643],[18.3142,-32.3165],[18.3447,-32.2823],[18.2654,-31.9396],[18.2801,-31.8982],[18.2228,-31.7443],[18.1147,-31.5801],[17.7576,-31.152],[17.8344,-31.1765],[17.8113,-31.0925],[17.9264,-31.0114],[17.8803,-30.9239],[17.9934,-30.9187],[18.0065,-30.7912],[18.0809,-30.7848],[18.1692,-30.8486],[18.1952,-30.816],[18.2642,-30.8183],[18.371,-30.6596],[18.3712,-30.5921],[18.4138,-30.5273],[18.3806,-30.4596],[18.5223,-30.6065],[18.4836,-30.5219],[18.5022,-30.4444],[18.5701,-30.4303],[18.6551,-30.5567],[18.7587,-30.5679],[18.7945,-30.6676],[18.9519,-30.7447],[18.9605,-30.8661],[18.8754,-30.8871],[18.9845,-30.9458],[18.9118,-30.9789],[18.9035,-31.0418],[18.9476,-31.1129],[18.9445,-31.2373],[19.013,-31.3057],[18.9801,-31.3552],[19.043,-31.425],[19.0062,-31.512],[19.0854,-31.5269],[19.0518,-31.5727],[19.0905,-31.5978],[19.0549,-31.6703],[19.0947,-31.7502],[19.0262,-31.8764],[19.1997,-31.9048],[19.2107,-31.948],[19.2897,-31.863],[19.2775,-31.9797],[19.3233,-31.9848],[19.363,-32.0428],[19.3958,-32.0151],[19.4259,-32.0313],[19.4861,-32.0762],[19.4885,-32.1212],[19.5075,-32.0861],[19.5152,-32.1152],[19.4752,-32.1463],[19.5014,-32.1799],[19.4919,-32.2517],[19.4091,-32.2901],[19.5164,-32.4859],[19.4868,-32.5654],[19.5282,-32.6732],[19.6049,-32.6295],[19.6219,-32.4706],[19.6549,-32.4388],[19.6797,-32.4635],[19.7302,-32.4424],[19.7074,-32.4203],[19.7366,-32.3855],[19.7641,-32.4111],[19.8178,-32.3607],[19.9375,-32.3773],[20.0536,-32.2523],[20.1809,-32.1845],[20.1664,-32.2275],[20.2408,-32.2242],[20.2542,-32.3108],[20.216,-32.3032],[20.132,-32.4211],[20.0797,-32.3975],[20.1147,-32.5702],[20.1917,-32.6858],[20.1876,-32.7527],[20.2999,-32.805],[20.3639,-32.9108],[20.4386,-32.9401],[20.4993,-32.9416],[20.5612,-32.881],[20.5901,-32.943],[20.7312,-32.945],[20.7986,-32.8948],[20.8324,-32.8174],[20.7898,-32.7112],[20.8441,-32.6624],[21.157,-32.6289],[21.1401,-32.5898],[21.1821,-32.5087],[21.2815,-32.4397],[21.3015,-32.3773],[21.3528,-32.3915],[21.5504,-32.3269],[21.536,-32.2292],[21.6446,-32.2087],[21.6916,-32.2486],[21.7359,-32.205],[21.7806,-32.2509],[21.8742,-32.2766],[21.9995,-32.206],[22.0164,-32.1143],[22.0696,-32.0814],[22.0897,-32.1464],[22.134,-32.0644],[22.0741,-32.0179],[22.095,-32.0011],[22.0713,-31.9393],[22.1017,-31.9005],[22.0789,-31.8549],[22.1666,-31.8931],[22.1599,-31.8097],[22.2063,-31.7923],[22.2729,-31.5925],[22.5648,-31.6779],[22.5661,-31.7132],[22.6191,-31.7247],[22.5783,-31.8055],[22.6149,-31.8229],[22.7351,-31.7994],[22.7769,-31.8569],[22.859,-31.8183],[22.902,-31.8758],[22.9758,-31.8608],[23.0674,-31.8907],[23.0526,-31.9398],[23.0985,-31.9777],[23.2304,-31.8757],[23.3024,-31.7301],[23.4071,-31.7138],[23.4165,-31.6722],[23.5239,-31.7053],[23.6191,-31.6494],[23.7151,-31.647],[23.7565,-31.6957],[23.8416,-31.7151],[23.8085,-31.7637],[23.894,-31.8368],[23.9631,-31.7067],[24.0467,-31.7067],[24.0285,-31.7302],[24.0709,-31.8071],[24.1525,-31.7886],[24.1837,-31.8133],[24.1533,-31.8549],[24.1238,-31.8472],[24.1054,-31.9069],[24.1642,-31.9024],[24.2224,-31.9556],[24.1029,-32.0699],[24.0979,-32.1108],[24.1097,-32.0843],[24.1355,-32.1231],[24.1001,-32.164],[24.038,-32.1581],[24.0305,-32.1935],[23.8923,-32.2549],[23.7662,-32.1787],[23.6705,-32.2377],[23.6651,-32.3442],[23.449,-32.3233],[23.4099,-32.3892],[23.3331,-32.3511],[23.3073,-32.3959],[23.2216,-32.425],[23.3073,-32.6116],[23.2696,-32.6715],[23.3329,-32.7036],[23.3516,-32.7638],[23.3977,-32.7635],[23.3786,-32.825],[23.1875,-32.7674],[23.0894,-32.7992],[23.1164,-32.858],[23.0074,-32.8728],[22.9488,-32.95],[22.9553,-33.0731],[22.7903,-33.3073],[22.7393,-33.324],[22.7357,-33.3948],[22.7744,-33.4197],[23.2971,-33.3886],[23.364,-33.4616],[23.3549,-33.4412],[23.4956,-33.4434],[23.604,-33.4964],[23.5962,-33.5725],[23.675,-33.6259],[23.6704,-33.6726],[23.5565,-33.6515],[23.5413,-33.6995],[23.4399,-33.7174],[23.395,-33.7926],[23.4891,-33.8075],[23.5188,-33.7821],[23.5573,-33.7934],[23.5619,-33.8289],[23.7033,-33.8641],[23.6374,-33.913],[23.647,-33.9806],[23.4124,-34.0193],[23.3715,-34.0787],[23.4068,-34.1114],[23.0086,-34.072],[22.979,-34.0932],[22.5636,-33.9961],[22.4846,-34.0513],[22.2709,-34.0527],[22.1595,-34.0841],[22.1113,-34.1578],[22.1127,-34.1647],[22.1474,-34.1751],[22.1608,-34.1873],[21.9571,-34.2287],[21.9122,-34.2737],[21.945,-34.3018],[21.8355,-34.3752],[21.6962,-34.395],[21.5226,-34.3571],[21.3008,-34.439],[21.0012,-34.365],[20.8485,-34.4075]]]]}}]}